{
"type": "FeatureCollection",
"crs": { "type": "name", "properties": { "name": "urn:ogc:def:crs:EPSG::5973" } },
"features": [
{ "type": "Feature", "properties": { "veglenkesekvensid": 3188834, "href": "https://nvdbapiles.atlas.vegvesen.no/vegnett/veglenkesekvenser/segmentert/3188834", "startposisjon": 0.0, "sluttposisjon": 1.0, "kortform": "0.0-1.0@3188834", "veglenkenummer": 1, "segmentnummer": 2, "startnode": "1599017", "sluttnode": "3188978", "referanse": "3188834-1-2", "type": "HOVED", "detaljnivå": "Vegtrase og kjørebane", "typeVeg": "Enkel bilveg", "typeVeg_sosi": "enkelBilveg", "målemetode": "Geometrisk", "måledato": null, "lengde": 18.155, "fylke": 34, "kommune": 3436, "topologinivå": "Vegtrase" }, "geometry": { "type": "LineString", "coordinates": [ [ 214158.299999999988358, 6838571.700000000186265, 645.122 ], [ 214176.18, 6838574.46, 646.632 ] ] } },
{ "type": "Feature", "properties": { "veglenkesekvensid": 1017012, "href": "https://nvdbapiles.atlas.vegvesen.no/vegnett/veglenkesekvenser/segmentert/1017012", "startposisjon": 0.0, "sluttposisjon": 1.0, "kortform": "0.0-1.0@1017012", "veglenkenummer": 1, "segmentnummer": 3, "startnode": "1080253", "sluttnode": "1599491", "referanse": "1017012-1-3", "type": "HOVED", "detaljnivå": "Vegtrase og kjørebane", "typeVeg": "Enkel bilveg", "typeVeg_sosi": "enkelBilveg", "målemetode": "Geometrisk", "måledato": null, "lengde": 36.937, "fylke": 34, "kommune": 3436, "topologinivå": "Vegtrase" }, "geometry": { "type": "LineString", "coordinates": [ [ 223897.700000000011642, 6839076.700000000186265, 235.542 ], [ 223897.670000000012806, 6839085.440000000409782, 235.072 ], [ 223898.799999999988358, 6839094.120000000111759, 235.102 ], [ 223902.25, 6839113.190000000409782, 233.692 ] ] } },
{ "type": "Feature", "properties": { "veglenkesekvensid": 1018955, "href": "https://nvdbapiles.atlas.vegvesen.no/vegnett/veglenkesekvenser/segmentert/1018955", "startposisjon": 0.55761609, "sluttposisjon": 1.0, "kortform": "0.55761609-1.0@1018955", "veglenkenummer": 2, "segmentnummer": 4, "startnode": "1687044", "sluttnode": "1607726", "referanse": "1018955-2-4", "type": "HOVED", "detaljnivå": "Vegtrase og kjørebane", "typeVeg": "Enkel bilveg", "typeVeg_sosi": "enkelBilveg", "målemetode": "Geometrisk", "måledato": "2022-05-22", "lengde": 33.213, "fylke": 34, "kommune": 3436, "topologinivå": "Vegtrase" }, "geometry": { "type": "LineString", "coordinates": [ [ 220382.445, 6844417.403, 252.5 ], [ 220382.525, 6844419.423999999649823, 252.139 ], [ 220382.6, 6844422.0, 252.239 ], [ 220382.9, 6844426.599999999627471, 252.739 ], [ 220382.9, 6844431.5, 253.439 ], [ 220383.1, 6844436.099999999627471, 254.239 ], [ 220384.4, 6844441.5, 255.039 ], [ 220385.5, 6844444.099999999627471, 255.739 ], [ 220388.4, 6844449.0, 256.839 ] ] } },
{ "type": "Feature", "properties": { "veglenkesekvensid": 1018882, "href": "https://nvdbapiles.atlas.vegvesen.no/vegnett/veglenkesekvenser/segmentert/1018882", "startposisjon": 0.80981044, "sluttposisjon": 1.0, "kortform": "0.80981044-1.0@1018882", "veglenkenummer": 2, "segmentnummer": 4, "startnode": "1687061", "sluttnode": "1607272", "referanse": "1018882-2-4", "type": "HOVED", "detaljnivå": "Vegtrase og kjørebane", "typeVeg": "Enkel bilveg", "typeVeg_sosi": "enkelBilveg", "målemetode": "Geometrisk", "måledato": "1950-01-01", "lengde": 28.726, "fylke": 34, "kommune": 3436, "topologinivå": "Vegtrase" }, "geometry": { "type": "LineString", "coordinates": [ [ 220370.829999999987194, 6848371.480000000447035, 254.87 ], [ 220369.943999999988591, 6848372.46100000012666, 255.076 ], [ 220369.9, 6848373.5, 255.239 ], [ 220370.5, 6848374.400000000372529, 255.239 ], [ 220372.5, 6848375.400000000372529, 255.239 ], [ 220375.5, 6848376.5, 255.839 ], [ 220378.6, 6848377.700000000186265, 256.139 ], [ 220381.4, 6848378.5, 256.539 ], [ 220384.1, 6848379.200000000186265, 257.139 ], [ 220386.6, 6848380.099999999627471, 257.339 ], [ 220389.5, 6848381.299999999813735, 257.739 ], [ 220392.200000000011642, 6848382.200000000186265, 257.939 ], [ 220394.0, 6848382.900000000372529, 258.239 ] ] } },
{ "type": "Feature", "properties": { "veglenkesekvensid": 2119985, "href": "https://nvdbapiles.atlas.vegvesen.no/vegnett/veglenkesekvenser/segmentert/2119985", "startposisjon": 0.0, "sluttposisjon": 1.0, "kortform": "0.0-1.0@2119985", "veglenkenummer": 1, "segmentnummer": 2, "startnode": "2119988", "sluttnode": "2119990", "referanse": "2119985-1-2", "type": "HOVED", "detaljnivå": "Vegtrase og kjørebane", "typeVeg": "Enkel bilveg", "typeVeg_sosi": "enkelBilveg", "målemetode": "Geometrisk", "måledato": null, "lengde": 174.543, "fylke": 34, "kommune": 3436, "topologinivå": "Vegtrase" }, "geometry": { "type": "LineString", "coordinates": [ [ 219502.182, 6848474.515999999828637, 254.918 ], [ 219504.76, 6848471.980000000447035, 254.558 ], [ 219508.549999999988358, 6848468.78000000026077, 254.258 ], [ 219520.769999999989523, 6848456.690000000409782, 253.798 ], [ 219534.01, 6848444.950000000186265, 253.408 ], [ 219547.53, 6848433.509999999776483, 253.238 ], [ 219550.670000000012806, 6848431.299999999813735, 253.248 ], [ 219552.85999999998603, 6848430.17, 253.198 ], [ 219557.579999999987194, 6848428.79, 253.208 ], [ 219563.91, 6848428.179999999701977, 253.098 ], [ 219568.72, 6848428.559999999590218, 253.078 ], [ 219573.10999999998603, 6848429.320000000298023, 252.888 ], [ 219575.53, 6848430.17, 252.908 ], [ 219579.04, 6848432.17, 252.658 ], [ 219580.47, 6848434.75, 252.688 ], [ 219581.700000000011642, 6848439.099999999627471, 252.858 ], [ 219583.049999999988358, 6848446.879999999888241, 252.528 ], [ 219585.51, 6848453.769999999552965, 253.108 ], [ 219587.65, 6848458.04, 253.288 ], [ 219590.34, 6848461.46, 253.238 ], [ 219593.44, 6848463.42, 253.218 ], [ 219596.950000000011642, 6848464.700000000186265, 253.078 ], [ 219601.82, 6848465.059999999590218, 253.038 ], [ 219607.12, 6848464.639999999664724, 252.798 ], [ 219615.420000000012806, 6848463.21, 252.808 ], [ 219622.57, 6848461.360000000335276, 252.678 ], [ 219624.78, 6848461.269999999552965, 252.668 ], [ 219626.79, 6848461.620000000111759, 252.658 ], [ 219629.09, 6848462.809999999590218, 252.508 ], [ 219631.049999999988358, 6848465.269999999552965, 252.848 ], [ 219631.59, 6848467.21999999973923, 252.918 ], [ 219631.66, 6848469.769999999552965, 252.878 ] ] } },
{ "type": "Feature", "properties": { "veglenkesekvensid": 1017846, "href": "https://nvdbapiles.atlas.vegvesen.no/vegnett/veglenkesekvenser/segmentert/1017846", "startposisjon": 0.0, "sluttposisjon": 1.0, "kortform": "0.0-1.0@1017846", "veglenkenummer": 1, "segmentnummer": 2, "startnode": "1080160", "sluttnode": "1606269", "referanse": "1017846-1-2", "type": "HOVED", "detaljnivå": "Vegtrase og kjørebane", "typeVeg": "Enkel bilveg", "typeVeg_sosi": "enkelBilveg", "målemetode": "Geometrisk", "måledato": null, "lengde": 947.808, "fylke": 34, "kommune": 3436, "topologinivå": "Vegtrase" }, "geometry": { "type": "LineString", "coordinates": [ [ 223427.200000000011642, 6852613.099999999627471, 917.137 ], [ 223425.5, 6852611.700000000186265, 916.937 ], [ 223423.700000000011642, 6852609.700000000186265, 916.737 ], [ 223414.9, 6852598.5, 916.337 ], [ 223410.299999999988358, 6852592.599999999627471, 916.337 ], [ 223404.200000000011642, 6852584.700000000186265, 915.637 ], [ 223399.9, 6852579.0, 915.537 ], [ 223396.9, 6852574.400000000372529, 914.837 ], [ 223390.799999999988358, 6852565.900000000372529, 914.237 ], [ 223386.1, 6852558.400000000372529, 913.337 ], [ 223383.4, 6852553.5, 912.737 ], [ 223380.299999999988358, 6852546.599999999627471, 912.137 ], [ 223377.1, 6852539.200000000186265, 911.437 ], [ 223372.0, 6852527.900000000372529, 909.937 ], [ 223369.700000000011642, 6852522.900000000372529, 909.237 ], [ 223365.4, 6852515.900000000372529, 908.537 ], [ 223359.799999999988358, 6852507.700000000186265, 907.737 ], [ 223355.6, 6852502.299999999813735, 906.737 ], [ 223350.200000000011642, 6852494.700000000186265, 905.637 ], [ 223346.200000000011642, 6852488.0, 904.537 ], [ 223341.4, 6852480.099999999627471, 903.637 ], [ 223337.9, 6852473.700000000186265, 902.937 ], [ 223334.6, 6852468.599999999627471, 902.037 ], [ 223326.799999999988358, 6852459.400000000372529, 900.637 ], [ 223321.799999999988358, 6852453.299999999813735, 899.737 ], [ 223316.700000000011642, 6852447.299999999813735, 898.637 ], [ 223310.700000000011642, 6852440.5, 897.937 ], [ 223304.9, 6852432.200000000186265, 896.437 ], [ 223298.200000000011642, 6852423.299999999813735, 895.037 ], [ 223293.1, 6852416.700000000186265, 894.337 ], [ 223288.5, 6852410.0, 893.837 ], [ 223280.799999999988358, 6852400.0, 892.337 ], [ 223275.200000000011642, 6852391.799999999813735, 891.137 ], [ 223269.1, 6852383.099999999627471, 889.837 ], [ 223264.0, 6852376.099999999627471, 889.237 ], [ 223257.299999999988358, 6852368.0, 888.037 ], [ 223250.799999999988358, 6852359.599999999627471, 886.937 ], [ 223245.799999999988358, 6852352.799999999813735, 885.637 ], [ 223241.700000000011642, 6852347.299999999813735, 884.937 ], [ 223237.0, 6852340.799999999813735, 884.337 ], [ 223232.200000000011642, 6852334.400000000372529, 883.737 ], [ 223227.6, 6852328.0, 883.337 ], [ 223222.5, 6852320.099999999627471, 883.037 ], [ 223218.299999999988358, 6852313.099999999627471, 881.937 ], [ 223212.0, 6852302.299999999813735, 880.837 ], [ 223208.299999999988358, 6852295.200000000186265, 879.937 ], [ 223204.200000000011642, 6852286.299999999813735, 879.037 ], [ 223199.1, 6852276.5, 877.937 ], [ 223195.1, 6852269.200000000186265, 877.037 ], [ 223188.9, 6852258.299999999813735, 875.537 ], [ 223181.700000000011642, 6852245.799999999813735, 873.837 ], [ 223174.6, 6852233.299999999813735, 872.537 ], [ 223169.1, 6852223.5, 871.637 ], [ 223165.4, 6852216.0, 870.637 ], [ 223157.9, 6852201.099999999627471, 868.937 ], [ 223152.9, 6852191.599999999627471, 867.537 ], [ 223148.299999999988358, 6852182.400000000372529, 866.237 ], [ 223143.4, 6852173.0, 865.437 ], [ 223139.5, 6852165.599999999627471, 864.637 ], [ 223132.1, 6852152.0, 862.637 ], [ 223127.200000000011642, 6852143.0, 861.437 ], [ 223118.700000000011642, 6852127.0, 858.937 ], [ 223113.799999999988358, 6852118.200000000186265, 857.737 ], [ 223108.299999999988358, 6852106.599999999627471, 856.237 ], [ 223104.5, 6852097.200000000186265, 854.737 ], [ 223098.6, 6852081.799999999813735, 853.037 ], [ 223092.700000000011642, 6852064.099999999627471, 851.037 ], [ 223087.9, 6852052.099999999627471, 849.737 ], [ 223081.200000000011642, 6852036.400000000372529, 847.537 ], [ 223074.200000000011642, 6852021.400000000372529, 845.937 ], [ 223068.4, 6852007.799999999813735, 844.337 ], [ 223058.299999999988358, 6851987.700000000186265, 842.437 ], [ 223050.6, 6851969.900000000372529, 839.837 ], [ 223038.700000000011642, 6851949.0, 836.537 ], [ 223035.0, 6851943.400000000372529, 835.337 ], [ 223026.799999999988358, 6851931.900000000372529, 833.437 ], [ 223024.200000000011642, 6851925.700000000186265, 832.437 ], [ 223022.0, 6851919.0, 831.837 ], [ 223020.4, 6851913.200000000186265, 831.437 ], [ 222998.200000000011642, 6851858.700000000186265, 826.037 ], [ 222994.5, 6851851.299999999813735, 825.237 ], [ 222991.9, 6851847.400000000372529, 824.537 ], [ 222988.799999999988358, 6851844.599999999627471, 823.937 ], [ 222982.4, 6851838.5, 823.037 ], [ 222974.299999999988358, 6851832.299999999813735, 822.237 ], [ 222965.200000000011642, 6851825.099999999627471, 821.037 ], [ 222953.0, 6851815.700000000186265, 818.737 ], [ 222948.200000000011642, 6851811.900000000372529, 817.637 ] ] } },
{ "type": "Feature", "properties": { "veglenkesekvensid": 2689427, "href": "https://nvdbapiles.atlas.vegvesen.no/vegnett/veglenkesekvenser/segmentert/2689427", "startposisjon": 0.06442228, "sluttposisjon": 1.0, "kortform": "0.06442228-1.0@2689427", "veglenkenummer": 2, "segmentnummer": 3, "startnode": "2689336", "sluttnode": "2689354", "referanse": "2689427-2-3", "type": "HOVED", "detaljnivå": "Vegtrase og kjørebane", "typeVeg": "Enkel bilveg", "typeVeg_sosi": "enkelBilveg", "målemetode": "Geometrisk", "måledato": "2021-02-09", "lengde": 178.236, "fylke": 34, "kommune": 3437, "topologinivå": "Vegtrase" }, "geometry": { "type": "LineString", "coordinates": [ [ 212082.797, 6849933.55599999986589, 307.6 ], [ 212089.225, 6849937.506, 307.825 ], [ 212094.06, 6849938.730000000447035, 308.045 ], [ 212100.85999999998603, 6849938.549999999813735, 308.625 ], [ 212108.13, 6849936.599999999627471, 309.365 ], [ 212112.97, 6849934.29, 309.875 ], [ 212117.10999999998603, 6849931.339999999850988, 310.395 ], [ 212122.79, 6849927.620000000111759, 311.115 ], [ 212127.69, 6849924.96, 311.645 ], [ 212134.01, 6849922.059999999590218, 312.335 ], [ 212138.829999999987194, 6849920.429999999701977, 312.865 ], [ 212140.1, 6849920.009999999776483, 312.995 ], [ 212144.85999999998603, 6849918.46999999973923, 313.495 ], [ 212151.99, 6849916.139999999664724, 314.245 ], [ 212156.68, 6849914.400000000372529, 314.745 ], [ 212161.299999999988358, 6849912.490000000223517, 315.245 ], [ 212165.84, 6849910.379999999888241, 315.745 ], [ 212170.299999999988358, 6849908.099999999627471, 316.245 ], [ 212174.65, 6849905.639999999664724, 316.745 ], [ 212178.91, 6849903.019999999552965, 317.245 ], [ 212183.06, 6849900.21999999973923, 317.745 ], [ 212187.09, 6849897.259999999776483, 318.245 ], [ 212192.91, 6849892.519999999552965, 318.995 ], [ 212196.65, 6849889.200000000186265, 319.495 ], [ 212200.38, 6849885.860000000335276, 319.995 ], [ 212204.10999999998603, 6849882.53000000026077, 320.495 ], [ 212211.57, 6849875.860000000335276, 321.495 ], [ 212219.03, 6849869.190000000409782, 322.495 ], [ 212223.66, 6849865.04, 323.125 ], [ 212226.480000000010477, 6849862.519999999552965, 323.495 ], [ 212233.416999999986729, 6849856.312, 324.427 ] ] } },
{ "type": "Feature", "properties": { "veglenkesekvensid": 3101490, "href": "https://nvdbapiles.atlas.vegvesen.no/vegnett/veglenkesekvenser/segmentert/3101490", "startposisjon": 0.0, "sluttposisjon": 1.0, "kortform": "0.0-1.0@3101490", "veglenkenummer": 1, "segmentnummer": 3, "startnode": "3101491", "sluttnode": "3101492", "referanse": "3101490-1-3", "type": "DETALJERT", "detaljnivå": "Kjørebane", "typeVeg": "Kanalisert veg", "typeVeg_sosi": "kanalisertVeg", "målemetode": "Geometrisk", "måledato": "2015-07-22", "lengde": 478.736, "fylke": 34, "kommune": 3437, "topologinivå": "Kjørebane" }, "geometry": { "type": "LineString", "coordinates": [ [ 212146.5, 6850017.849999999627471, 327.535 ], [ 212144.85999999998603, 6850020.110000000335276, 327.555 ], [ 212141.730000000010477, 6850024.400000000372529, 327.595 ], [ 212137.49, 6850030.240000000223517, 327.656 ], [ 212136.01, 6850032.29, 327.676 ], [ 212130.049999999988358, 6850040.58, 327.746 ], [ 212127.06, 6850044.75, 327.786 ], [ 212124.32, 6850048.599999999627471, 327.826 ], [ 212118.35999999998603, 6850057.009999999776483, 327.906 ], [ 212112.980000000010477, 6850064.650000000372529, 327.976 ], [ 212109.68, 6850069.370000000111759, 328.016 ], [ 212107.12, 6850073.049999999813735, 328.056 ], [ 212101.670000000012806, 6850080.900000000372529, 328.126 ], [ 212098.549999999988358, 6850085.410000000149012, 328.166 ], [ 212094.299999999988358, 6850091.610000000335276, 328.226 ], [ 212091.37, 6850095.900000000372529, 328.266 ], [ 212089.93, 6850098.009999999776483, 328.286 ], [ 212086.93, 6850102.429999999701977, 328.316 ], [ 212083.670000000012806, 6850107.240000000223517, 328.366 ], [ 212082.91, 6850108.370000000111759, 328.376 ], [ 212079.07, 6850114.08, 328.436 ], [ 212075.93, 6850118.759999999776483, 328.476 ], [ 212073.28, 6850122.740000000223517, 328.506 ], [ 212068.53, 6850129.900000000372529, 328.566 ], [ 212067.99, 6850130.730000000447035, 328.586 ], [ 212063.47, 6850137.570000000298023, 328.636 ], [ 212062.09, 6850139.67, 328.666 ], [ 212059.35, 6850143.870000000111759, 328.696 ], [ 212056.6, 6850148.070000000298023, 328.736 ], [ 212055.32, 6850150.04, 328.756 ], [ 212050.920000000012806, 6850156.839999999850988, 328.816 ], [ 212047.079999999987194, 6850162.809999999590218, 328.876 ], [ 212043.14000000001397, 6850168.96, 328.926 ], [ 212040.13, 6850173.690000000409782, 328.966 ], [ 212037.0, 6850178.610000000335276, 329.016 ], [ 212033.38, 6850184.349999999627471, 329.066 ], [ 212029.74, 6850190.129999999888241, 329.116 ], [ 212026.07, 6850196.0, 329.176 ], [ 212022.950000000011642, 6850201.009999999776483, 329.216 ], [ 212019.56, 6850206.46, 329.266 ], [ 212018.829999999987194, 6850207.639999999664724, 329.266 ], [ 212017.12, 6850210.410000000149012, 329.306 ], [ 212013.54, 6850216.200000000186265, 329.346 ], [ 212010.99, 6850220.349999999627471, 329.386 ], [ 212008.5, 6850224.410000000149012, 329.426 ], [ 212004.549999999988358, 6850230.860000000335276, 329.486 ], [ 212003.950000000011642, 6850231.839999999850988, 329.496 ], [ 211998.980000000010477, 6850239.990000000223517, 329.576 ], [ 211997.670000000012806, 6850242.150000000372529, 329.576 ], [ 211994.49, 6850247.379999999888241, 329.656 ], [ 211993.079999999987194, 6850249.71, 329.696 ], [ 211987.82, 6850258.389999999664724, 329.816 ], [ 211983.769999999989523, 6850265.08, 329.876 ], [ 211982.09, 6850267.849999999627471, 329.936 ], [ 211981.01, 6850269.639999999664724, 329.976 ], [ 211978.329999999987194, 6850274.099999999627471, 330.036 ], [ 211975.74, 6850278.379999999888241, 330.096 ], [ 211972.14000000001397, 6850284.349999999627471, 330.176 ], [ 211971.22, 6850285.879999999888241, 330.196 ], [ 211968.88, 6850289.769999999552965, 330.236 ], [ 211965.93, 6850294.67, 330.276 ], [ 211963.57, 6850298.58, 330.326 ], [ 211959.65, 6850305.08, 330.366 ], [ 211956.63, 6850310.099999999627471, 330.416 ], [ 211956.13, 6850310.929999999701977, 330.426 ], [ 211952.01, 6850317.759999999776483, 330.446 ], [ 211950.54, 6850320.21, 330.456 ], [ 211947.57, 6850325.139999999664724, 330.476 ], [ 211946.41, 6850327.08, 330.476 ], [ 211941.170000000012806, 6850335.820000000298023, 330.506 ], [ 211940.75, 6850336.519999999552965, 330.506 ], [ 211935.59, 6850345.17, 330.536 ], [ 211934.920000000012806, 6850346.299999999813735, 330.546 ], [ 211932.37, 6850350.599999999627471, 330.556 ], [ 211929.519999999989523, 6850355.42, 330.586 ], [ 211925.96, 6850361.46999999973923, 330.636 ], [ 211924.230000000010477, 6850364.429999999701977, 330.666 ], [ 211920.9, 6850370.139999999664724, 330.706 ], [ 211918.04, 6850375.089999999850988, 330.746 ], [ 211916.12, 6850378.429999999701977, 330.776 ], [ 211912.89000000001397, 6850384.070000000298023, 330.826 ], [ 211910.980000000010477, 6850387.429999999701977, 330.846 ], [ 211908.38, 6850392.03000000026077, 330.876 ], [ 211905.920000000012806, 6850396.42, 330.906 ], [ 211902.07, 6850403.339999999850988, 330.956 ], [ 211898.93, 6850409.070000000298023, 330.996 ], [ 211896.420000000012806, 6850413.679999999701977, 331.026 ], [ 211891.579999999987194, 6850422.71, 331.076 ] ] } },
{ "type": "Feature", "properties": { "veglenkesekvensid": 3101488, "href": "https://nvdbapiles.atlas.vegvesen.no/vegnett/veglenkesekvenser/segmentert/3101488", "startposisjon": 0.0, "sluttposisjon": 1.0, "kortform": "0.0-1.0@3101488", "veglenkenummer": 1, "segmentnummer": 3, "startnode": "3101493", "sluttnode": "3101494", "referanse": "3101488-1-3", "type": "HOVED", "detaljnivå": "Vegtrase", "typeVeg": "Kanalisert veg", "typeVeg_sosi": "kanalisertVeg", "målemetode": "Metrert", "måledato": null, "lengde": 478.0, "fylke": 34, "kommune": 3437, "topologinivå": "Vegtrase" }, "geometry": { "type": "LineString", "coordinates": [ [ 212149.31, 6850019.769999999552965, 327.535 ], [ 212147.519999999989523, 6850022.230000000447035, 327.556 ], [ 212144.57, 6850026.269999999552965, 327.596 ], [ 212140.34, 6850032.110000000335276, 327.656 ], [ 212138.700000000011642, 6850034.379999999888241, 327.676 ], [ 212132.85999999998603, 6850042.5, 327.746 ], [ 212129.950000000011642, 6850046.570000000298023, 327.786 ], [ 212127.04, 6850050.639999999664724, 327.826 ], [ 212121.25, 6850058.809999999590218, 327.906 ], [ 212115.5, 6850066.990000000223517, 327.976 ], [ 212112.63, 6850071.089999999850988, 328.016 ], [ 212109.74, 6850075.21999999973923, 328.056 ], [ 212104.670000000012806, 6850082.54, 328.126 ], [ 212101.200000000011642, 6850087.570000000298023, 328.166 ], [ 212097.24, 6850093.33, 328.226 ], [ 212094.16, 6850097.849999999627471, 328.266 ], [ 212092.72, 6850099.950000000186265, 328.286 ], [ 212089.91, 6850104.089999999850988, 328.316 ], [ 212086.480000000010477, 6850109.160000000149012, 328.366 ], [ 212085.9, 6850110.019999999552965, 328.376 ], [ 212081.54, 6850116.5, 328.436 ], [ 212078.76, 6850120.660000000149012, 328.476 ], [ 212075.980000000010477, 6850124.820000000298023, 328.506 ], [ 212071.78, 6850131.160000000149012, 328.566 ], [ 212070.450000000011642, 6850133.160000000149012, 328.586 ], [ 212066.78, 6850138.730000000447035, 328.636 ], [ 212064.950000000011642, 6850141.519999999552965, 328.666 ], [ 212062.21, 6850145.700000000186265, 328.696 ], [ 212059.480000000010477, 6850149.889999999664724, 328.736 ], [ 212057.85, 6850152.389999999664724, 328.756 ], [ 212054.03, 6850158.29, 328.816 ], [ 212049.85, 6850164.79, 328.876 ], [ 212045.920000000012806, 6850170.92, 328.926 ], [ 212043.230000000010477, 6850175.139999999664724, 328.966 ], [ 212039.91, 6850180.370000000111759, 329.016 ], [ 212036.18, 6850186.28000000026077, 329.066 ], [ 212032.549999999988358, 6850192.059999999590218, 329.116 ], [ 212028.78, 6850198.070000000298023, 329.176 ], [ 212025.89000000001397, 6850202.71, 329.216 ], [ 212022.450000000011642, 6850208.25, 329.266 ], [ 212021.96, 6850209.04, 329.266 ], [ 212019.19, 6850213.519999999552965, 329.306 ], [ 212016.700000000011642, 6850217.549999999813735, 329.346 ], [ 212013.950000000011642, 6850222.04, 329.386 ], [ 212011.46, 6850226.08, 329.426 ], [ 212007.29, 6850232.910000000149012, 329.486 ], [ 212006.24, 6850234.610000000335276, 329.496 ], [ 212001.03, 6850243.160000000149012, 329.576 ], [ 212000.519999999989523, 6850244.0, 329.576 ], [ 211997.4, 6850249.139999999664724, 329.656 ], [ 211995.84, 6850251.71, 329.696 ], [ 211990.71, 6850260.179999999701977, 329.816 ], [ 211988.06, 6850264.549999999813735, 329.876 ], [ 211985.480000000010477, 6850268.83, 329.936 ], [ 211983.920000000012806, 6850271.400000000372529, 329.976 ], [ 211981.24, 6850275.860000000335276, 330.036 ], [ 211978.65, 6850280.139999999664724, 330.096 ], [ 211975.14000000001397, 6850285.96999999973923, 330.176 ], [ 211974.63, 6850286.809999999590218, 330.196 ], [ 211971.79, 6850291.53000000026077, 330.236 ], [ 211968.84, 6850296.42, 330.276 ], [ 211965.79, 6850301.490000000223517, 330.326 ], [ 211962.64000000001397, 6850306.71, 330.366 ], [ 211959.65, 6850311.679999999701977, 330.416 ], [ 211959.04, 6850312.690000000409782, 330.426 ], [ 211955.0, 6850319.389999999664724, 330.446 ], [ 211953.450000000011642, 6850321.96, 330.456 ], [ 211950.25, 6850327.28000000026077, 330.476 ], [ 211949.329999999987194, 6850328.83, 330.476 ], [ 211944.18, 6850337.410000000149012, 330.506 ], [ 211943.670000000012806, 6850338.269999999552965, 330.506 ], [ 211939.10999999998603, 6850345.910000000149012, 330.536 ], [ 211937.93, 6850347.889999999664724, 330.546 ], [ 211935.38, 6850352.190000000409782, 330.556 ], [ 211932.43, 6850357.190000000409782, 330.586 ], [ 211928.88, 6850363.230000000447035, 330.636 ], [ 211926.85, 6850366.679999999701977, 330.666 ], [ 211923.829999999987194, 6850371.870000000111759, 330.706 ], [ 211921.329999999987194, 6850376.200000000186265, 330.746 ], [ 211918.829999999987194, 6850380.54, 330.776 ], [ 211915.85, 6850385.75, 330.826 ], [ 211913.85, 6850389.25, 330.846 ], [ 211911.39000000001397, 6850393.620000000111759, 330.876 ], [ 211908.96, 6850397.950000000186265, 330.906 ], [ 211905.07, 6850404.940000000409782, 330.956 ], [ 211901.94, 6850410.639999999664724, 330.996 ], [ 211899.29, 6850415.509999999776483, 331.026 ], [ 211894.59, 6850424.299999999813735, 331.076 ] ] } },
{ "type": "Feature", "properties": { "veglenkesekvensid": 3101489, "href": "https://nvdbapiles.atlas.vegvesen.no/vegnett/veglenkesekvenser/segmentert/3101489", "startposisjon": 0.0, "sluttposisjon": 1.0, "kortform": "0.0-1.0@3101489", "veglenkenummer": 1, "segmentnummer": 3, "startnode": "3101495", "sluttnode": "3101496", "referanse": "3101489-1-3", "type": "DETALJERT", "detaljnivå": "Kjørebane", "typeVeg": "Kanalisert veg", "typeVeg_sosi": "kanalisertVeg", "målemetode": "Geometrisk", "måledato": "2015-07-22", "lengde": 477.843, "fylke": 34, "kommune": 3437, "topologinivå": "Kjørebane" }, "geometry": { "type": "LineString", "coordinates": [ [ 212152.049999999988358, 6850021.79, 327.536 ], [ 212150.18, 6850024.349999999627471, 327.556 ], [ 212147.41, 6850028.139999999664724, 327.596 ], [ 212143.19, 6850033.96999999973923, 327.656 ], [ 212141.38, 6850036.46, 327.676 ], [ 212135.66, 6850044.42, 327.746 ], [ 212132.829999999987194, 6850048.379999999888241, 327.786 ], [ 212129.76, 6850052.690000000409782, 327.826 ], [ 212124.15, 6850060.599999999627471, 327.906 ], [ 212118.01, 6850069.320000000298023, 327.976 ], [ 212115.57, 6850072.809999999590218, 328.016 ], [ 212112.37, 6850077.400000000372529, 328.056 ], [ 212107.670000000012806, 6850084.179999999701977, 328.126 ], [ 212103.85, 6850089.71999999973923, 328.166 ], [ 212100.19, 6850095.049999999813735, 328.226 ], [ 212096.94, 6850099.799999999813735, 328.266 ], [ 212095.519999999989523, 6850101.889999999664724, 328.286 ], [ 212092.89000000001397, 6850105.75, 328.316 ], [ 212089.29, 6850111.08, 328.366 ], [ 212088.89000000001397, 6850111.67, 328.376 ], [ 212084.019999999989523, 6850118.92, 328.436 ], [ 212081.579999999987194, 6850122.549999999813735, 328.476 ], [ 212078.68, 6850126.900000000372529, 328.506 ], [ 212075.019999999989523, 6850132.410000000149012, 328.566 ], [ 212072.920000000012806, 6850135.589999999850988, 328.586 ], [ 212070.09, 6850139.889999999664724, 328.636 ], [ 212067.81, 6850143.360000000335276, 328.666 ], [ 212065.07, 6850147.54, 328.696 ], [ 212062.35, 6850151.71, 328.736 ], [ 212060.38, 6850154.740000000223517, 328.756 ], [ 212057.15, 6850159.730000000447035, 328.816 ], [ 212052.60999999998603, 6850166.78000000026077, 328.876 ], [ 212048.71, 6850172.879999999888241, 328.926 ], [ 212046.34, 6850176.58, 328.966 ], [ 212042.829999999987194, 6850182.120000000111759, 329.016 ], [ 212038.980000000010477, 6850188.21, 329.066 ], [ 212035.35, 6850193.980000000447035, 329.116 ], [ 212031.5, 6850200.150000000372529, 329.176 ], [ 212028.84, 6850204.410000000149012, 329.216 ], [ 212025.34, 6850210.04, 329.266 ], [ 212021.28, 6850216.620000000111759, 329.306 ], [ 212019.87, 6850218.900000000372529, 329.346 ], [ 212016.9, 6850223.71999999973923, 329.386 ], [ 212014.43, 6850227.75, 329.426 ], [ 212010.019999999989523, 6850234.950000000186265, 329.486 ], [ 212008.54, 6850237.379999999888241, 329.496 ], [ 212003.09, 6850246.320000000298023, 329.576 ], [ 212000.299999999988358, 6850250.910000000149012, 329.656 ], [ 211998.6, 6850253.71, 329.696 ], [ 211993.519999999989523, 6850262.089999999850988, 329.816 ], [ 211992.35999999998603, 6850264.009999999776483, 329.876 ], [ 211988.85999999998603, 6850269.809999999590218, 329.936 ], [ 211986.84, 6850273.160000000149012, 329.976 ], [ 211984.15, 6850277.610000000335276, 330.036 ], [ 211981.57, 6850281.889999999664724, 330.096 ], [ 211978.14000000001397, 6850287.58, 330.176 ], [ 211974.700000000011642, 6850293.28000000026077, 330.236 ], [ 211971.75, 6850298.179999999701977, 330.276 ], [ 211968.0, 6850304.400000000372529, 330.326 ], [ 211965.63, 6850308.33, 330.366 ], [ 211962.670000000012806, 6850313.25, 330.416 ], [ 211961.950000000011642, 6850314.440000000409782, 330.426 ], [ 211957.99, 6850321.019999999552965, 330.446 ], [ 211956.37, 6850323.71999999973923, 330.456 ], [ 211952.94, 6850329.42, 330.476 ], [ 211952.24, 6850330.570000000298023, 330.476 ], [ 211947.19, 6850339.0, 330.506 ], [ 211946.59, 6850340.009999999776483, 330.506 ], [ 211942.62, 6850346.660000000149012, 330.536 ], [ 211940.94, 6850349.480000000447035, 330.546 ], [ 211938.39000000001397, 6850353.79, 330.556 ], [ 211935.329999999987194, 6850358.96, 330.586 ], [ 211931.79, 6850364.980000000447035, 330.636 ], [ 211929.480000000010477, 6850368.929999999701977, 330.666 ], [ 211926.76, 6850373.599999999627471, 330.706 ], [ 211924.60999999998603, 6850377.309999999590218, 330.746 ], [ 211921.54, 6850382.639999999664724, 330.776 ], [ 211918.799999999988358, 6850387.429999999701977, 330.826 ], [ 211916.730000000010477, 6850391.08, 330.846 ], [ 211914.4, 6850395.200000000186265, 330.876 ], [ 211912.0, 6850399.46999999973923, 330.906 ], [ 211908.07, 6850406.54, 330.956 ], [ 211904.96, 6850412.21999999973923, 330.996 ], [ 211902.170000000012806, 6850417.349999999627471, 331.026 ], [ 211897.88, 6850425.349999999627471, 331.076 ], [ 211897.6, 6850425.889999999664724, 331.076 ] ] } },
{ "type": "Feature", "properties": { "veglenkesekvensid": 1022698, "href": "https://nvdbapiles.atlas.vegvesen.no/vegnett/veglenkesekvenser/segmentert/1022698", "startposisjon": 0.0, "sluttposisjon": 1.0, "kortform": "0.0-1.0@1022698", "veglenkenummer": 1, "segmentnummer": 4, "startnode": "1080009", "sluttnode": "1608196", "referanse": "1022698-1-4", "type": "HOVED", "detaljnivå": "Vegtrase og kjørebane", "typeVeg": "Enkel bilveg", "typeVeg_sosi": "enkelBilveg", "målemetode": "Geometrisk", "måledato": "1950-01-01", "lengde": 218.548, "fylke": 34, "kommune": 3438, "topologinivå": "Vegtrase" }, "geometry": { "type": "LineString", "coordinates": [ [ 222853.0, 6830052.299999999813735, 943.835 ], [ 222855.1, 6830058.58, 944.655 ], [ 222858.63, 6830075.21, 945.575 ], [ 222862.950000000011642, 6830090.889999999664724, 946.765 ], [ 222865.07, 6830095.910000000149012, 947.215 ], [ 222867.549999999988358, 6830100.440000000409782, 947.475 ], [ 222873.1, 6830107.509999999776483, 948.525 ], [ 222883.13, 6830120.990000000223517, 950.495 ], [ 222884.97, 6830124.929999999701977, 950.785 ], [ 222886.99, 6830133.79, 951.265 ], [ 222888.329999999987194, 6830154.269999999552965, 951.655 ], [ 222891.06, 6830169.519999999552965, 951.765 ], [ 222892.82, 6830175.679999999701977, 951.975 ], [ 222894.730000000010477, 6830180.120000000111759, 951.895 ], [ 222900.94, 6830191.46999999973923, 951.925 ], [ 222903.39000000001397, 6830197.089999999850988, 952.245 ], [ 222904.63, 6830202.610000000335276, 952.355 ], [ 222905.480000000010477, 6830214.179999999701977, 952.725 ], [ 222906.85999999998603, 6830223.410000000149012, 952.895 ], [ 222908.75, 6830229.589999999850988, 952.705 ], [ 222912.16, 6830236.349999999627471, 952.575 ], [ 222915.41, 6830241.379999999888241, 952.545 ], [ 222918.82, 6830244.860000000335276, 952.695 ], [ 222922.450000000011642, 6830247.299999999813735, 952.895 ], [ 222926.200000000011642, 6830248.929999999701977, 953.235 ], [ 222928.21, 6830249.690000000409782, 953.405 ] ] } },
{ "type": "Feature", "properties": { "veglenkesekvensid": 3473824, "href": "https://nvdbapiles.atlas.vegvesen.no/vegnett/veglenkesekvenser/segmentert/3473824", "startposisjon": 0.0, "sluttposisjon": 1.0, "kortform": "0.0-1.0@3473824", "veglenkenummer": 1, "segmentnummer": 2, "startnode": "3473713", "sluttnode": "3473736", "referanse": "3473824-1-2", "type": "HOVED", "detaljnivå": "Vegtrase og kjørebane", "typeVeg": "Enkel bilveg", "typeVeg_sosi": "enkelBilveg", "målemetode": "Geometrisk", "måledato": "2023-02-07", "lengde": 24.633, "fylke": 34, "kommune": 3438, "topologinivå": "Vegtrase" }, "geometry": { "type": "LineString", "coordinates": [ [ 233197.480000000010477, 6832736.200000000186265, 237.22 ], [ 233200.428000000014435, 6832737.967000000178814, 237.39 ], [ 233203.22, 6832739.96999999973923, 237.1 ], [ 233206.47, 6832742.54, 236.76 ], [ 233212.31, 6832745.259999999776483, 236.33 ], [ 233216.72, 6832747.309999999590218, 236.04 ], [ 233218.84, 6832748.070000000298023, 235.88 ] ] } },
{ "type": "Feature", "properties": { "veglenkesekvensid": 2380733, "href": "https://nvdbapiles.atlas.vegvesen.no/vegnett/veglenkesekvenser/segmentert/2380733", "startposisjon": 0.0, "sluttposisjon": 1.0, "kortform": "0.0-1.0@2380733", "veglenkenummer": 1, "segmentnummer": 4, "startnode": "2380742", "sluttnode": "2380743", "referanse": "2380733-1-4", "type": "HOVED", "detaljnivå": "Vegtrase og kjørebane", "typeVeg": "Enkel bilveg", "typeVeg_sosi": "enkelBilveg", "målemetode": "Geometrisk", "måledato": null, "lengde": 56.76, "fylke": 34, "kommune": 3438, "topologinivå": "Vegtrase" }, "geometry": { "type": "LineString", "coordinates": [ [ 231707.72, 6834706.160000000149012, 250.622 ], [ 231718.79, 6834702.629999999888241, 250.962 ], [ 231731.19, 6834697.980000000447035, 251.982 ], [ 231735.670000000012806, 6834696.200000000186265, 252.532 ], [ 231741.21, 6834694.21999999973923, 253.122 ], [ 231743.82, 6834693.769999999552965, 253.492 ], [ 231747.09, 6834693.08, 253.952 ], [ 231750.200000000011642, 6834692.690000000409782, 254.392 ], [ 231752.74, 6834692.660000000149012, 254.742 ], [ 231754.57, 6834693.370000000111759, 255.022 ], [ 231756.56, 6834694.660000000149012, 255.352 ], [ 231758.21, 6834696.570000000298023, 255.712 ], [ 231759.38, 6834698.620000000111759, 256.052 ] ] } },
{ "type": "Feature", "properties": { "veglenkesekvensid": 3473802, "href": "https://nvdbapiles.atlas.vegvesen.no/vegnett/veglenkesekvenser/segmentert/3473802", "startposisjon": 0.0, "sluttposisjon": 1.0, "kortform": "0.0-1.0@3473802", "veglenkenummer": 1, "segmentnummer": 2, "startnode": "3473720", "sluttnode": "3473698", "referanse": "3473802-1-2", "type": "HOVED", "detaljnivå": "Vegtrase og kjørebane", "typeVeg": "Enkel bilveg", "typeVeg_sosi": "enkelBilveg", "målemetode": "Geometrisk", "måledato": "2023-02-07", "lengde": 42.503, "fylke": 34, "kommune": 3438, "topologinivå": "Vegtrase" }, "geometry": { "type": "LineString", "coordinates": [ [ 231356.35, 6835116.46, 263.912 ], [ 231357.480000000010477, 6835110.21, 263.83 ], [ 231359.22, 6835102.400000000372529, 263.65 ], [ 231361.769999999989523, 6835095.04, 263.7 ], [ 231363.56, 6835090.46, 263.89 ], [ 231365.85999999998603, 6835085.96999999973923, 264.06 ], [ 231368.5, 6835085.08, 264.17 ], [ 231372.74, 6835085.990000000223517, 264.22 ], [ 231375.920000000012806, 6835086.730000000447035, 264.2 ] ] } },
{ "type": "Feature", "properties": { "veglenkesekvensid": 1025637, "href": "https://nvdbapiles.atlas.vegvesen.no/vegnett/veglenkesekvenser/segmentert/1025637", "startposisjon": 0.0, "sluttposisjon": 1.0, "kortform": "0.0-1.0@1025637", "veglenkenummer": 1, "segmentnummer": 3, "startnode": "1092467", "sluttnode": "1609725", "referanse": "1025637-1-3", "type": "HOVED", "detaljnivå": "Vegtrase og kjørebane", "typeVeg": "Enkel bilveg", "typeVeg_sosi": "enkelBilveg", "målemetode": "Geometrisk", "måledato": null, "lengde": 315.252, "fylke": 34, "kommune": 3439, "topologinivå": "Vegtrase" }, "geometry": { "type": "LineString", "coordinates": [ [ 250759.299999999988358, 6817589.799999999813735, 868.589 ], [ 250754.799999999988358, 6817590.200000000186265, 868.989 ], [ 250748.9, 6817589.400000000372529, 868.989 ], [ 250738.299999999988358, 6817587.099999999627471, 869.089 ], [ 250724.700000000011642, 6817582.299999999813735, 869.689 ], [ 250714.9, 6817578.599999999627471, 870.189 ], [ 250708.4, 6817575.599999999627471, 870.589 ], [ 250695.4, 6817571.200000000186265, 871.289 ], [ 250686.0, 6817569.0, 871.688 ], [ 250683.299999999988358, 6817568.599999999627471, 872.188 ], [ 250669.1, 6817569.200000000186265, 872.888 ], [ 250659.799999999988358, 6817569.900000000372529, 873.688 ], [ 250654.799999999988358, 6817570.0, 873.988 ], [ 250645.299999999988358, 6817568.900000000372529, 874.188 ], [ 250631.5, 6817562.0, 872.188 ], [ 250620.200000000011642, 6817555.200000000186265, 870.088 ], [ 250607.4, 6817546.700000000186265, 867.788 ], [ 250594.200000000011642, 6817537.900000000372529, 866.188 ], [ 250580.6, 6817530.299999999813735, 865.088 ], [ 250570.6, 6817525.299999999813735, 864.688 ], [ 250557.299999999988358, 6817521.0, 864.388 ], [ 250540.200000000011642, 6817517.700000000186265, 864.288 ], [ 250524.0, 6817514.5, 864.088 ], [ 250506.9, 6817510.599999999627471, 863.988 ], [ 250491.299999999988358, 6817508.200000000186265, 864.088 ], [ 250474.5, 6817506.099999999627471, 864.288 ], [ 250463.1, 6817504.5, 864.388 ], [ 250462.5, 6817504.5, 864.388 ] ] } },
{ "type": "Feature", "properties": { "veglenkesekvensid": 1057487, "href": "https://nvdbapiles.atlas.vegvesen.no/vegnett/veglenkesekvenser/segmentert/1057487", "startposisjon": 0.34566514, "sluttposisjon": 1.0, "kortform": "0.34566514-1.0@1057487", "veglenkenummer": 3, "segmentnummer": 2, "startnode": "3034251", "sluttnode": "1627249", "referanse": "1057487-3-2", "type": "HOVED", "detaljnivå": "Vegtrase og kjørebane", "typeVeg": "Enkel bilveg", "typeVeg_sosi": "enkelBilveg", "målemetode": "Geometrisk", "måledato": null, "lengde": 2334.361, "fylke": 34, "kommune": 3439, "topologinivå": "Vegtrase" }, "geometry": { "type": "LineString", "coordinates": [ [ 251474.85, 6822082.700000000186265, 548.512 ], [ 251458.579999999987194, 6822092.379999999888241, 547.872 ], [ 251449.66, 6822098.71, 547.032 ], [ 251444.07, 6822104.099999999627471, 546.282 ], [ 251436.85, 6822112.160000000149012, 545.662 ], [ 251429.0, 6822124.809999999590218, 544.822 ], [ 251421.79, 6822135.160000000149012, 544.162 ], [ 251415.64000000001397, 6822141.820000000298023, 543.712 ], [ 251405.14000000001397, 6822153.04, 542.842 ], [ 251396.38, 6822162.67, 542.002 ], [ 251386.299999999988358, 6822171.799999999813735, 541.392 ], [ 251376.60999999998603, 6822182.230000000447035, 541.322 ], [ 251367.49, 6822194.379999999888241, 540.802 ], [ 251357.4, 6822208.160000000149012, 540.542 ], [ 251343.78, 6822229.160000000149012, 540.972 ], [ 251333.60999999998603, 6822244.610000000335276, 541.112 ], [ 251320.25, 6822264.549999999813735, 540.842 ], [ 251306.87, 6822284.309999999590218, 540.942 ], [ 251299.0, 6822295.04, 541.122 ], [ 251296.10999999998603, 6822300.71999999973923, 541.552 ], [ 251292.46, 6822309.78000000026077, 542.642 ], [ 251287.87, 6822321.950000000186265, 543.822 ], [ 251285.269999999989523, 6822332.549999999813735, 544.962 ], [ 251283.0, 6822343.25, 545.962 ], [ 251280.700000000011642, 6822357.200000000186265, 545.782 ], [ 251278.21, 6822369.269999999552965, 544.832 ], [ 251275.60999999998603, 6822379.299999999813735, 544.372 ], [ 251273.81, 6822383.190000000409782, 544.012 ], [ 251271.49, 6822386.5, 543.902 ], [ 251267.950000000011642, 6822389.629999999888241, 543.782 ], [ 251264.579999999987194, 6822391.46999999973923, 543.842 ], [ 251260.09, 6822392.92, 543.972 ], [ 251254.230000000010477, 6822393.490000000223517, 544.302 ], [ 251239.57, 6822392.870000000111759, 545.532 ], [ 251233.44, 6822393.29, 545.732 ], [ 251230.28, 6822394.139999999664724, 545.932 ], [ 251227.32, 6822396.309999999590218, 545.922 ], [ 251220.06, 6822402.650000000372529, 545.762 ], [ 251215.18, 6822406.440000000409782, 545.372 ], [ 251211.62, 6822407.660000000149012, 545.202 ], [ 251207.85, 6822408.129999999888241, 544.942 ], [ 251203.049999999988358, 6822407.900000000372529, 544.282 ], [ 251196.170000000012806, 6822406.740000000223517, 543.712 ], [ 251189.71, 6822406.620000000111759, 542.772 ], [ 251185.16, 6822407.5, 542.202 ], [ 251181.03, 6822409.349999999627471, 541.632 ], [ 251175.39000000001397, 6822413.67, 540.662 ], [ 251168.59, 6822420.28000000026077, 539.522 ], [ 251165.4, 6822421.96999999973923, 539.062 ], [ 251161.34, 6822423.370000000111759, 538.592 ], [ 251157.519999999989523, 6822423.28000000026077, 538.102 ], [ 251152.85, 6822422.570000000298023, 536.872 ], [ 251143.44, 6822419.78000000026077, 535.082 ], [ 251135.85999999998603, 6822418.700000000186265, 533.842 ], [ 251125.15, 6822418.67, 531.812 ], [ 251110.12, 6822418.78000000026077, 529.242 ], [ 251098.21, 6822418.240000000223517, 527.622 ], [ 251090.72, 6822417.339999999850988, 526.492 ], [ 251083.07, 6822416.08, 525.242 ], [ 251077.06, 6822414.759999999776483, 524.302 ], [ 251069.450000000011642, 6822412.849999999627471, 523.181 ], [ 251059.4, 6822411.21999999973923, 521.741 ], [ 251044.85, 6822410.450000000186265, 519.871 ], [ 251035.60999999998603, 6822409.29, 518.621 ], [ 251030.94, 6822407.900000000372529, 517.931 ], [ 251026.24, 6822406.309999999590218, 517.191 ], [ 251018.97, 6822403.28000000026077, 515.631 ], [ 251004.64000000001397, 6822396.450000000186265, 514.141 ], [ 250991.549999999988358, 6822390.429999999701977, 512.971 ], [ 250978.56, 6822385.28000000026077, 512.891 ], [ 250970.980000000010477, 6822383.5, 512.951 ], [ 250964.43, 6822382.559999999590218, 512.971 ], [ 250958.950000000011642, 6822382.519999999552965, 512.881 ], [ 250954.18, 6822383.17, 512.821 ], [ 250948.68, 6822384.099999999627471, 512.641 ], [ 250944.43, 6822386.03000000026077, 512.051 ], [ 250931.68, 6822391.820000000298023, 510.341 ], [ 250922.59, 6822395.5, 509.691 ], [ 250909.35, 6822400.259999999776483, 508.941 ], [ 250902.68, 6822403.92, 508.381 ], [ 250895.54, 6822408.53000000026077, 507.171 ], [ 250885.69, 6822415.849999999627471, 506.151 ], [ 250863.60999999998603, 6822434.650000000372529, 503.951 ], [ 250843.44, 6822451.200000000186265, 502.671 ], [ 250836.47, 6822458.009999999776483, 502.081 ], [ 250831.170000000012806, 6822464.78000000026077, 501.501 ], [ 250826.35999999998603, 6822472.690000000409782, 501.031 ], [ 250821.480000000010477, 6822483.42, 500.681 ], [ 250814.04, 6822499.21999999973923, 499.651 ], [ 250809.68, 6822508.299999999813735, 498.771 ], [ 250804.78, 6822514.759999999776483, 498.231 ], [ 250798.89000000001397, 6822520.820000000298023, 497.701 ], [ 250790.980000000010477, 6822527.17, 497.101 ], [ 250781.35999999998603, 6822534.78000000026077, 496.191 ], [ 250772.04, 6822542.759999999776483, 495.481 ], [ 250759.71, 6822554.620000000111759, 494.591 ], [ 250747.49, 6822565.83, 494.011 ], [ 250740.39000000001397, 6822573.75, 493.741 ], [ 250733.549999999988358, 6822580.179999999701977, 493.651 ], [ 250728.049999999988358, 6822583.629999999888241, 493.571 ], [ 250724.04, 6822585.379999999888241, 493.521 ], [ 250719.5, 6822586.950000000186265, 493.511 ], [ 250713.75, 6822588.009999999776483, 493.581 ], [ 250704.47, 6822590.589999999850988, 493.641 ], [ 250700.549999999988358, 6822592.089999999850988, 493.741 ], [ 250696.079999999987194, 6822594.980000000447035, 493.841 ], [ 250691.670000000012806, 6822598.440000000409782, 493.741 ], [ 250687.39000000001397, 6822601.309999999590218, 493.581 ], [ 250683.82, 6822602.519999999552965, 493.361 ], [ 250677.78, 6822604.440000000409782, 492.961 ], [ 250667.84, 6822606.190000000409782, 491.941 ], [ 250655.19, 6822610.08, 491.211 ], [ 250634.22, 6822615.990000000223517, 490.671 ], [ 250614.200000000011642, 6822621.179999999701977, 490.181 ], [ 250604.31, 6822624.009999999776483, 490.101 ], [ 250599.230000000010477, 6822625.950000000186265, 490.051 ], [ 250592.16, 6822630.139999999664724, 490.081 ], [ 250583.84, 6822635.17, 490.171 ], [ 250577.09, 6822638.17, 490.151 ], [ 250569.91, 6822640.21, 490.301 ], [ 250564.049999999988358, 6822640.759999999776483, 490.551 ], [ 250557.82, 6822640.339999999850988, 490.911 ], [ 250551.71, 6822639.150000000372529, 491.251 ], [ 250543.24, 6822638.58, 491.051 ], [ 250534.54, 6822638.860000000335276, 490.521 ], [ 250526.519999999989523, 6822640.03000000026077, 489.771 ], [ 250520.28, 6822641.910000000149012, 489.121 ], [ 250513.829999999987194, 6822644.75, 488.481 ], [ 250506.829999999987194, 6822648.360000000335276, 487.551 ], [ 250500.87, 6822652.879999999888241, 486.621 ], [ 250494.89000000001397, 6822656.570000000298023, 486.241 ], [ 250490.51, 6822657.870000000111759, 485.841 ], [ 250479.670000000012806, 6822658.950000000186265, 485.701 ], [ 250462.47, 6822659.559999999590218, 485.731 ], [ 250453.1, 6822659.46999999973923, 485.871 ], [ 250448.22, 6822659.099999999627471, 485.981 ], [ 250440.60999999998603, 6822657.620000000111759, 486.171 ], [ 250430.43, 6822656.46999999973923, 486.421 ], [ 250421.43, 6822656.980000000447035, 486.121 ], [ 250407.34, 6822658.660000000149012, 484.831 ], [ 250395.93, 6822660.950000000186265, 483.651 ], [ 250380.85999999998603, 6822665.410000000149012, 482.061 ], [ 250372.1, 6822668.71, 480.971 ], [ 250365.99, 6822669.349999999627471, 480.241 ], [ 250357.39000000001397, 6822668.740000000223517, 479.231 ], [ 250349.670000000012806, 6822669.809999999590218, 478.411 ], [ 250345.26, 6822670.849999999627471, 477.911 ], [ 250341.76, 6822672.75, 477.311 ], [ 250339.5, 6822674.769999999552965, 476.591 ], [ 250334.09, 6822680.889999999664724, 475.331 ], [ 250326.62, 6822690.980000000447035, 473.161 ], [ 250321.829999999987194, 6822696.769999999552965, 472.151 ], [ 250317.09, 6822700.139999999664724, 471.321 ], [ 250312.25, 6822702.0, 470.781 ], [ 250305.74, 6822703.570000000298023, 470.191 ], [ 250299.18, 6822703.629999999888241, 469.841 ], [ 250289.4, 6822703.269999999552965, 468.671 ], [ 250277.87, 6822703.849999999627471, 467.441 ], [ 250265.91, 6822705.25, 466.521 ], [ 250253.35999999998603, 6822708.309999999590218, 465.111 ], [ 250235.59, 6822712.990000000223517, 463.661 ], [ 250227.0, 6822715.559999999590218, 463.001 ], [ 250222.54, 6822716.150000000372529, 462.701 ], [ 250216.700000000011642, 6822716.33, 462.291 ], [ 250207.85, 6822715.679999999701977, 461.711 ], [ 250193.829999999987194, 6822714.549999999813735, 461.381 ], [ 250180.60999999998603, 6822713.53000000026077, 461.6 ], [ 250162.21, 6822710.71, 463.18 ], [ 250147.07, 6822708.429999999701977, 465.01 ], [ 250139.38, 6822706.25, 466.7 ], [ 250130.480000000010477, 6822702.799999999813735, 468.08 ], [ 250120.85999999998603, 6822698.54, 470.02 ], [ 250110.64000000001397, 6822693.5, 471.43 ], [ 250102.56, 6822690.599999999627471, 472.56 ], [ 250094.519999999989523, 6822688.589999999850988, 472.72 ], [ 250083.60999999998603, 6822686.629999999888241, 472.81 ], [ 250074.57, 6822686.110000000335276, 473.28 ], [ 250067.72, 6822686.96999999973923, 473.59 ], [ 250056.25, 6822690.549999999813735, 473.77 ], [ 250042.4, 6822693.21999999973923, 473.75 ], [ 250033.63, 6822694.089999999850988, 473.82 ], [ 250016.49, 6822697.049999999813735, 473.76 ], [ 250007.10999999998603, 6822699.83, 473.59 ], [ 249993.6, 6822705.79, 472.53 ], [ 249976.13, 6822715.160000000149012, 470.59 ], [ 249967.13, 6822718.660000000149012, 469.84 ], [ 249957.56, 6822720.879999999888241, 468.82 ], [ 249940.79, 6822723.75, 467.18 ], [ 249928.28, 6822727.690000000409782, 465.63 ], [ 249916.24, 6822732.519999999552965, 464.35 ], [ 249900.920000000012806, 6822739.379999999888241, 461.86 ], [ 249892.549999999988358, 6822743.96, 459.93 ], [ 249881.420000000012806, 6822751.379999999888241, 457.71 ], [ 249861.28, 6822766.200000000186265, 453.38 ], [ 249847.59, 6822776.5, 450.85 ], [ 249839.35999999998603, 6822781.190000000409782, 449.01 ], [ 249831.85, 6822784.28000000026077, 447.92 ], [ 249822.89000000001397, 6822786.769999999552965, 446.44 ], [ 249809.29, 6822788.96, 444.59 ], [ 249795.57, 6822790.42, 442.76 ], [ 249781.480000000010477, 6822790.96, 441.31 ], [ 249768.549999999988358, 6822790.42, 439.37 ], [ 249754.85, 6822789.21, 437.64 ], [ 249745.19, 6822787.480000000447035, 436.87 ], [ 249739.25, 6822785.570000000298023, 436.62 ], [ 249731.0, 6822782.809999999590218, 437.1 ], [ 249716.44, 6822775.889999999664724, 438.62 ], [ 249700.37, 6822767.96999999973923, 440.76 ], [ 249680.04, 6822758.21, 441.69 ], [ 249671.670000000012806, 6822753.120000000111759, 442.26 ], [ 249663.769999999989523, 6822747.139999999664724, 442.64 ], [ 249654.519999999989523, 6822740.480000000447035, 442.0 ], [ 249646.35, 6822733.059999999590218, 441.61 ], [ 249634.79, 6822722.570000000298023, 441.48 ], [ 249627.31, 6822715.71999999973923, 441.97 ], [ 249622.579999999987194, 6822710.139999999664724, 443.29 ], [ 249617.519999999989523, 6822702.379999999888241, 444.57 ], [ 249612.950000000011642, 6822693.610000000335276, 445.67 ], [ 249608.82, 6822681.769999999552965, 446.12 ], [ 249603.87, 6822665.79, 446.24 ], [ 249599.9, 6822653.679999999701977, 445.67 ], [ 249596.12, 6822645.230000000447035, 444.73 ], [ 249592.07, 6822638.139999999664724, 443.58 ], [ 249587.91, 6822634.179999999701977, 442.92 ], [ 249582.14000000001397, 6822630.67, 442.33 ], [ 249572.9, 6822627.46999999973923, 442.07 ], [ 249560.5, 6822624.46999999973923, 441.51 ] ] } },
{ "type": "Feature", "properties": { "veglenkesekvensid": 1025281, "href": "https://nvdbapiles.atlas.vegvesen.no/vegnett/veglenkesekvenser/segmentert/1025281", "startposisjon": 0.18396485, "sluttposisjon": 1.0, "kortform": "0.18396485-1.0@1025281", "veglenkenummer": 2, "segmentnummer": 3, "startnode": "3168821", "sluttnode": "1607010", "referanse": "1025281-2-3", "type": "HOVED", "detaljnivå": "Vegtrase og kjørebane", "typeVeg": "Enkel bilveg", "typeVeg_sosi": "enkelBilveg", "målemetode": "Geometrisk", "måledato": null, "lengde": 272.65, "fylke": 34, "kommune": 3439, "topologinivå": "Vegtrase" }, "geometry": { "type": "LineString", "coordinates": [ [ 241321.71, 6842871.019999999552965, 924.041 ], [ 241315.0, 6842872.990000000223517, 924.221 ], [ 241287.5, 6842883.519999999552965, 925.471 ], [ 241266.35, 6842890.690000000409782, 926.991 ], [ 241251.03, 6842894.309999999590218, 927.251 ], [ 241240.64000000001397, 6842894.46, 927.171 ], [ 241229.049999999988358, 6842891.389999999664724, 927.081 ], [ 241214.579999999987194, 6842887.839999999850988, 926.811 ], [ 241209.16, 6842888.049999999813735, 926.901 ], [ 241189.14000000001397, 6842886.150000000372529, 927.171 ], [ 241179.21, 6842883.179999999701977, 927.611 ], [ 241172.24, 6842879.019999999552965, 928.151 ], [ 241170.78, 6842869.690000000409782, 928.951 ], [ 241173.99, 6842859.96999999973923, 929.491 ], [ 241186.54, 6842842.870000000111759, 930.471 ], [ 241199.44, 6842824.320000000298023, 932.791 ], [ 241212.84, 6842811.870000000111759, 933.861 ], [ 241223.60999999998603, 6842796.33, 934.481 ], [ 241227.799999999988358, 6842781.089999999850988, 934.131 ] ] } },
{ "type": "Feature", "properties": { "veglenkesekvensid": 3362963, "href": "https://nvdbapiles.atlas.vegvesen.no/vegnett/veglenkesekvenser/segmentert/3362963", "startposisjon": 0.0, "sluttposisjon": 1.0, "kortform": "0.0-1.0@3362963", "veglenkenummer": 1, "segmentnummer": 1, "startnode": "1610171", "sluttnode": "3362947", "referanse": "3362963-1-1", "type": "HOVED", "detaljnivå": "Vegtrase og kjørebane", "typeVeg": "Enkel bilveg", "typeVeg_sosi": "enkelBilveg", "målemetode": "Geometrisk", "måledato": "2021-08-06", "lengde": 33.904, "fylke": 34, "kommune": 3439, "topologinivå": "Vegtrase" }, "geometry": { "type": "LineString", "coordinates": [ [ 240958.53, 6843045.160000000149012, 929.55 ], [ 240959.19, 6843043.08, 929.61 ], [ 240960.07, 6843041.070000000298023, 929.68 ], [ 240962.19, 6843038.730000000447035, 929.73 ], [ 240964.66, 6843036.299999999813735, 929.77 ], [ 240966.89000000001397, 6843033.519999999552965, 929.8 ], [ 240968.51, 6843030.589999999850988, 929.79 ], [ 240970.24, 6843025.230000000447035, 930.03 ], [ 240974.10999999998603, 6843015.629999999888241, 930.25 ] ] } },
{ "type": "Feature", "properties": { "veglenkesekvensid": 3966244, "href": "https://nvdbapiles.atlas.vegvesen.no/vegnett/veglenkesekvenser/segmentert/3966244", "startposisjon": 0.02290093, "sluttposisjon": 1.0, "kortform": "0.02290093-1.0@3966244", "veglenkenummer": 2, "segmentnummer": 1, "startnode": "3966239", "sluttnode": "3966243", "referanse": "3966244-2-1", "type": "HOVED", "detaljnivå": "Vegtrase og kjørebane", "typeVeg": "Enkel bilveg", "typeVeg_sosi": "enkelBilveg", "målemetode": "Geometrisk", "måledato": "2025-03-10", "lengde": 3305.341, "fylke": 34, "kommune": 3440, "topologinivå": "Vegtrase" }, "geometry": { "type": "LineString", "coordinates": [ [ 245564.420000000012806, 6806786.700000000186265, 644.68 ], [ 245576.94, 6806782.370000000111759, 644.48 ], [ 245603.34, 6806774.769999999552965, 644.46 ], [ 245623.62, 6806768.650000000372529, 646.07 ], [ 245640.170000000012806, 6806765.370000000111759, 647.72 ], [ 245651.06, 6806764.480000000447035, 648.95 ], [ 245660.01, 6806765.21999999973923, 649.87 ], [ 245676.85999999998603, 6806767.910000000149012, 651.03 ], [ 245698.480000000010477, 6806771.929999999701977, 651.7 ], [ 245708.47, 6806774.620000000111759, 651.89 ], [ 245718.31, 6806777.900000000372529, 651.84 ], [ 245720.549999999988358, 6806778.79, 651.86 ], [ 245723.68, 6806780.730000000447035, 651.99 ], [ 245731.14000000001397, 6806786.25, 652.19 ], [ 245740.53, 6806794.75, 652.4 ], [ 245756.94, 6806807.570000000298023, 653.78 ], [ 245766.480000000010477, 6806814.28000000026077, 654.06 ], [ 245773.64000000001397, 6806818.610000000335276, 654.38 ], [ 245780.5, 6806821.889999999664724, 654.82 ], [ 245785.420000000012806, 6806823.53000000026077, 655.03 ], [ 245792.87, 6806825.019999999552965, 655.22 ], [ 245798.24, 6806825.620000000111759, 655.4 ], [ 245803.76, 6806825.620000000111759, 655.59 ], [ 245816.29, 6806825.320000000298023, 655.64 ], [ 245831.35, 6806823.83, 655.5 ], [ 245841.79, 6806823.230000000447035, 655.62 ], [ 245848.5, 6806823.379999999888241, 655.71 ], [ 245853.12, 6806824.129999999888241, 655.77 ], [ 245859.829999999987194, 6806825.620000000111759, 655.53 ], [ 245865.049999999988358, 6806828.150000000372529, 655.4 ], [ 245870.87, 6806832.480000000447035, 655.4 ], [ 245874.74, 6806835.910000000149012, 655.36 ], [ 245876.980000000010477, 6806838.889999999664724, 655.29 ], [ 245881.9, 6806845.900000000372529, 655.32 ], [ 245887.57, 6806854.099999999627471, 655.5 ], [ 245892.19, 6806859.46999999973923, 655.44 ], [ 245897.56, 6806863.940000000409782, 655.42 ], [ 245903.670000000012806, 6806867.96999999973923, 655.44 ], [ 245911.28, 6806871.25, 655.33 ], [ 245919.18, 6806874.679999999701977, 655.14 ], [ 245928.28, 6806878.71, 654.88 ], [ 245932.01, 6806880.79, 654.74 ], [ 245937.38, 6806884.370000000111759, 654.52 ], [ 245941.1, 6806887.799999999813735, 654.3 ], [ 245942.6, 6806889.440000000409782, 654.23 ], [ 245946.62, 6806894.96, 653.97 ], [ 245953.18, 6806902.860000000335276, 653.64 ], [ 245957.66, 6806906.889999999664724, 653.47 ], [ 245962.579999999987194, 6806910.320000000298023, 653.47 ], [ 245966.75, 6806912.259999999776483, 653.55 ], [ 245974.06, 6806915.54, 653.9 ], [ 245989.269999999989523, 6806921.21, 654.65 ], [ 245998.96, 6806925.53000000026077, 654.62 ], [ 246006.87, 6806928.360000000335276, 654.48 ], [ 246016.56, 6806931.490000000223517, 654.33 ], [ 246023.269999999989523, 6806932.839999999850988, 654.15 ], [ 246032.96, 6806934.03000000026077, 654.0 ], [ 246041.32, 6806934.78000000026077, 653.89 ], [ 246056.079999999987194, 6806935.519999999552965, 653.33 ], [ 246068.46, 6806936.269999999552965, 653.44 ], [ 246078.15, 6806937.309999999590218, 653.64 ], [ 246091.12, 6806938.799999999813735, 653.64 ], [ 246102.31, 6806940.440000000409782, 653.39 ], [ 246111.700000000011642, 6806942.08, 653.36 ], [ 246123.480000000010477, 6806944.17, 653.7 ], [ 246128.10999999998603, 6806945.360000000335276, 653.97 ], [ 246131.09, 6806946.410000000149012, 654.16 ], [ 246134.670000000012806, 6806948.349999999627471, 654.38 ], [ 246139.59, 6806952.21999999973923, 654.95 ], [ 246146.6, 6806957.139999999664724, 656.09 ], [ 246154.799999999988358, 6806962.660000000149012, 657.06 ], [ 246160.019999999989523, 6806966.690000000409782, 657.56 ], [ 246162.549999999988358, 6806969.370000000111759, 657.67 ], [ 246165.24, 6806973.549999999813735, 657.75 ], [ 246168.670000000012806, 6806980.849999999627471, 658.15 ], [ 246170.9, 6806987.120000000111759, 658.99 ], [ 246172.99, 6806995.320000000298023, 659.85 ], [ 246175.079999999987194, 6806999.639999999664724, 659.99 ], [ 246178.21, 6807003.519999999552965, 659.85 ], [ 246184.03, 6807008.589999999850988, 659.63 ], [ 246188.65, 6807012.46999999973923, 659.4 ], [ 246195.21, 6807015.599999999627471, 658.94 ], [ 246205.950000000011642, 6807020.21999999973923, 658.49 ], [ 246215.64000000001397, 6807027.230000000447035, 658.09 ], [ 246223.1, 6807032.900000000372529, 657.62 ], [ 246228.62, 6807036.33, 657.47 ], [ 246233.54, 6807039.160000000149012, 657.29 ], [ 246238.16, 6807041.549999999813735, 656.99 ], [ 246246.35999999998603, 6807045.28000000026077, 656.33 ], [ 246251.43, 6807047.660000000149012, 655.93 ], [ 246259.63, 6807050.5, 655.47 ], [ 246265.0, 6807052.29, 654.96 ], [ 246269.18, 6807053.929999999701977, 654.61 ], [ 246277.53, 6807056.759999999776483, 653.73 ], [ 246283.49, 6807059.740000000223517, 652.84 ], [ 246290.950000000011642, 6807063.92, 651.74 ], [ 246297.51, 6807067.79, 650.69 ], [ 246303.329999999987194, 6807071.21999999973923, 649.86 ], [ 246309.74, 6807073.910000000149012, 649.34 ], [ 246314.96, 6807075.549999999813735, 649.0 ], [ 246320.62, 6807077.339999999850988, 648.71 ], [ 246327.480000000010477, 6807078.83, 648.27 ], [ 246335.39000000001397, 6807080.320000000298023, 647.99 ], [ 246342.84, 6807081.509999999776483, 648.01 ], [ 246347.62, 6807082.110000000335276, 648.15 ], [ 246353.579999999987194, 6807083.150000000372529, 648.15 ], [ 246357.76, 6807084.049999999813735, 648.14 ], [ 246362.230000000010477, 6807085.54, 648.16 ], [ 246367.15, 6807087.629999999888241, 648.28 ], [ 246371.18, 6807090.160000000149012, 648.49 ], [ 246374.60999999998603, 6807093.150000000372529, 648.82 ], [ 246378.63, 6807098.21999999973923, 649.66 ], [ 246381.32, 6807103.29, 650.66 ], [ 246383.41, 6807108.950000000186265, 651.47 ], [ 246384.9, 6807115.360000000335276, 652.34 ], [ 246385.200000000011642, 6807118.79, 652.76 ], [ 246384.6, 6807122.820000000298023, 653.16 ], [ 246382.96, 6807131.769999999552965, 654.12 ], [ 246381.769999999989523, 6807138.03000000026077, 654.83 ], [ 246381.170000000012806, 6807143.549999999813735, 655.25 ], [ 246381.019999999989523, 6807149.21999999973923, 656.23 ], [ 246381.019999999989523, 6807158.160000000149012, 655.9 ], [ 246381.47, 6807165.92, 655.37 ], [ 246382.66, 6807174.570000000298023, 655.2 ], [ 246386.980000000010477, 6807197.53000000026077, 654.86 ], [ 246389.37, 6807210.059999999590218, 654.89 ], [ 246393.25, 6807231.230000000447035, 655.38 ], [ 246397.13, 6807252.410000000149012, 655.68 ], [ 246398.62, 6807258.96999999973923, 655.48 ], [ 246400.56, 6807264.639999999664724, 655.28 ], [ 246402.94, 6807270.299999999813735, 655.0 ], [ 246407.41, 6807281.339999999850988, 654.56 ], [ 246411.29, 6807289.690000000409782, 654.11 ], [ 246416.21, 6807299.089999999850988, 653.84 ], [ 246423.82, 6807311.610000000335276, 653.92 ], [ 246431.13, 6807323.089999999850988, 653.12 ], [ 246437.69, 6807336.21999999973923, 651.6 ], [ 246442.91, 6807348.150000000372529, 650.74 ], [ 246446.04, 6807357.240000000223517, 650.28 ], [ 246447.53, 6807363.059999999590218, 650.01 ], [ 246448.420000000012806, 6807368.58, 649.86 ], [ 246449.170000000012806, 6807374.54, 649.56 ], [ 246450.66, 6807385.58, 648.61 ], [ 246451.700000000011642, 6807395.570000000298023, 647.73 ], [ 246452.450000000011642, 6807402.879999999888241, 647.4 ], [ 246454.24, 6807411.519999999552965, 647.69 ], [ 246455.579999999987194, 6807417.190000000409782, 647.96 ], [ 246457.82, 6807426.879999999888241, 648.43 ], [ 246458.71, 6807432.099999999627471, 648.88 ], [ 246459.01, 6807435.83, 649.17 ], [ 246459.31, 6807440.46, 649.69 ], [ 246459.16, 6807446.870000000111759, 650.38 ], [ 246458.85999999998603, 6807451.940000000409782, 650.85 ], [ 246456.329999999987194, 6807489.519999999552965, 653.12 ], [ 246455.13, 6807499.660000000149012, 653.32 ], [ 246453.64000000001397, 6807515.019999999552965, 653.42 ], [ 246452.15, 6807531.870000000111759, 652.81 ], [ 246452.15, 6807536.940000000409782, 652.4 ], [ 246452.75, 6807542.75, 652.13 ], [ 246453.79, 6807548.870000000111759, 651.93 ], [ 246456.03, 6807557.820000000298023, 651.52 ], [ 246462.89000000001397, 6807579.440000000409782, 650.73 ], [ 246466.019999999989523, 6807591.96, 649.51 ], [ 246467.51, 6807599.269999999552965, 648.63 ], [ 246469.15, 6807605.679999999701977, 647.96 ], [ 246470.94, 6807611.049999999813735, 647.45 ], [ 246472.730000000010477, 6807614.929999999701977, 647.3 ], [ 246474.670000000012806, 6807618.360000000335276, 647.04 ], [ 246484.81, 6807635.360000000335276, 645.64 ], [ 246487.94, 6807641.320000000298023, 645.04 ], [ 246489.730000000010477, 6807645.650000000372529, 644.71 ], [ 246490.920000000012806, 6807650.269999999552965, 644.34 ], [ 246491.670000000012806, 6807655.04, 644.06 ], [ 246492.12, 6807660.860000000335276, 643.71 ], [ 246491.97, 6807668.759999999776483, 643.4 ], [ 246491.22, 6807674.58, 643.25 ], [ 246490.03, 6807678.759999999776483, 643.03 ], [ 246487.049999999988358, 6807686.21, 642.26 ], [ 246483.62, 6807693.519999999552965, 641.67 ], [ 246477.200000000011642, 6807709.769999999552965, 640.66 ], [ 246473.769999999989523, 6807720.360000000335276, 639.88 ], [ 246472.28, 6807726.92, 639.46 ], [ 246471.09, 6807733.480000000447035, 639.01 ], [ 246470.200000000011642, 6807741.980000000447035, 638.45 ], [ 246469.75, 6807750.33, 638.14 ], [ 246470.049999999988358, 6807755.700000000186265, 637.98 ], [ 246471.09, 6807763.610000000335276, 637.7 ], [ 246473.03, 6807774.940000000409782, 637.5 ], [ 246474.82, 6807784.33, 637.51 ], [ 246476.01, 6807788.809999999590218, 637.47 ], [ 246477.799999999988358, 6807794.03000000026077, 637.53 ], [ 246480.49, 6807800.440000000409782, 637.71 ], [ 246485.26, 6807811.179999999701977, 638.06 ], [ 246492.85999999998603, 6807825.940000000409782, 638.2 ], [ 246498.68, 6807841.299999999813735, 638.73 ], [ 246503.299999999988358, 6807855.019999999552965, 639.76 ], [ 246517.170000000012806, 6807899.46, 643.36 ], [ 246520.75, 6807908.110000000335276, 643.97 ], [ 246525.670000000012806, 6807919.889999999664724, 644.52 ], [ 246528.65, 6807928.839999999850988, 645.2 ], [ 246530.14000000001397, 6807935.839999999850988, 645.86 ], [ 246531.04, 6807944.79, 646.8 ], [ 246531.93, 6807953.740000000223517, 647.79 ], [ 246531.78, 6807961.049999999813735, 648.34 ], [ 246531.34, 6807967.46, 648.91 ], [ 246530.44, 6807976.700000000186265, 649.85 ], [ 246529.25, 6807984.610000000335276, 650.59 ], [ 246528.06, 6807990.269999999552965, 651.23 ], [ 246526.420000000012806, 6807995.349999999627471, 651.71 ], [ 246524.03, 6808000.860000000335276, 652.09 ], [ 246521.049999999988358, 6808006.379999999888241, 652.29 ], [ 246516.87, 6808012.940000000409782, 652.05 ], [ 246503.75, 6808032.629999999888241, 651.32 ], [ 246502.26, 6808035.160000000149012, 651.11 ], [ 246499.87, 6808039.490000000223517, 650.75 ], [ 246480.63, 6808076.769999999552965, 651.16 ], [ 246477.5, 6808082.28000000026077, 651.53 ], [ 246474.519999999989523, 6808087.349999999627471, 651.78 ], [ 246461.99, 6808109.71999999973923, 652.4 ], [ 246459.46, 6808114.639999999664724, 652.52 ], [ 246457.37, 6808119.269999999552965, 652.64 ], [ 246453.79, 6808127.17, 652.9 ], [ 246450.66, 6808132.839999999850988, 652.91 ], [ 246447.68, 6808136.269999999552965, 652.83 ], [ 246444.549999999988358, 6808138.799999999813735, 652.66 ], [ 246441.85999999998603, 6808140.29, 652.38 ], [ 246438.13, 6808141.490000000223517, 652.01 ], [ 246433.35999999998603, 6808143.129999999888241, 651.32 ], [ 246428.44, 6808144.620000000111759, 650.62 ], [ 246424.85999999998603, 6808146.110000000335276, 650.02 ], [ 246422.18, 6808147.900000000372529, 649.8 ], [ 246415.91, 6808152.519999999552965, 649.26 ], [ 246409.799999999988358, 6808158.490000000223517, 648.94 ], [ 246401.9, 6808167.29, 648.78 ], [ 246397.57, 6808172.950000000186265, 648.79 ], [ 246393.84, 6808179.360000000335276, 648.58 ], [ 246388.329999999987194, 6808189.799999999813735, 647.96 ], [ 246385.79, 6808194.129999999888241, 647.44 ], [ 246382.35999999998603, 6808199.650000000372529, 646.91 ], [ 246363.269999999989523, 6808228.28000000026077, 643.27 ], [ 246357.60999999998603, 6808236.78000000026077, 643.04 ], [ 246354.769999999989523, 6808241.549999999813735, 642.97 ], [ 246351.79, 6808247.21999999973923, 642.92 ], [ 246335.980000000010477, 6808278.230000000447035, 642.37 ], [ 246332.85, 6808283.299999999813735, 642.57 ], [ 246328.53, 6808288.21999999973923, 642.79 ], [ 246325.549999999988358, 6808290.910000000149012, 642.91 ], [ 246320.62, 6808294.190000000409782, 643.16 ], [ 246317.64000000001397, 6808295.83, 643.24 ], [ 246311.829999999987194, 6808298.070000000298023, 643.34 ], [ 246302.579999999987194, 6808300.450000000186265, 643.62 ], [ 246299.0, 6808301.79, 643.71 ], [ 246296.91, 6808302.990000000223517, 643.74 ], [ 246286.62, 6808308.950000000186265, 643.89 ], [ 246279.170000000012806, 6808313.71999999973923, 644.18 ], [ 246276.19, 6808316.259999999776483, 644.37 ], [ 246270.670000000012806, 6808321.33, 644.85 ], [ 246243.38, 6808350.71, 647.15 ], [ 246236.22, 6808360.849999999627471, 647.08 ], [ 246222.799999999988358, 6808382.46999999973923, 646.58 ], [ 246219.82, 6808388.879999999888241, 646.31 ], [ 246217.43, 6808395.589999999850988, 646.02 ], [ 246211.019999999989523, 6808412.299999999813735, 645.64 ], [ 246203.26, 6808429.889999999664724, 644.57 ], [ 246195.96, 6808444.360000000335276, 643.33 ], [ 246188.65, 6808458.96999999973923, 643.43 ], [ 246185.670000000012806, 6808465.679999999701977, 643.6 ], [ 246182.68, 6808473.589999999850988, 643.87 ], [ 246180.9, 6808479.549999999813735, 644.3 ], [ 246180.6, 6808481.639999999664724, 644.46 ], [ 246180.0, 6808486.860000000335276, 644.85 ], [ 246180.15, 6808492.820000000298023, 645.46 ], [ 246180.9, 6808502.519999999552965, 646.22 ], [ 246181.64000000001397, 6808509.820000000298023, 646.82 ], [ 246182.68, 6808519.519999999552965, 647.83 ], [ 246183.88, 6808529.360000000335276, 648.78 ], [ 246185.37, 6808540.690000000409782, 649.85 ], [ 246185.82, 6808548.599999999627471, 650.52 ], [ 246186.26, 6808562.759999999776483, 651.87 ], [ 246185.82, 6808576.03000000026077, 653.41 ], [ 246184.18, 6808595.120000000111759, 655.48 ], [ 246183.13, 6808606.599999999627471, 656.68 ], [ 246181.79, 6808623.309999999590218, 659.03 ], [ 246180.9, 6808637.03000000026077, 660.87 ], [ 246180.75, 6808649.849999999627471, 662.25 ], [ 246180.9, 6808659.990000000223517, 663.49 ], [ 246181.49, 6808674.900000000372529, 665.2 ], [ 246181.79, 6808689.21999999973923, 666.55 ], [ 246181.64000000001397, 6808696.820000000298023, 667.28 ], [ 246180.9, 6808705.92, 668.37 ], [ 246179.4, 6808726.049999999813735, 671.3 ], [ 246179.4, 6808732.17, 672.07 ], [ 246179.549999999988358, 6808740.519999999552965, 672.96 ], [ 246180.0, 6808744.990000000223517, 673.4 ], [ 246181.64000000001397, 6808751.700000000186265, 673.85 ], [ 246184.920000000012806, 6808760.200000000186265, 674.22 ], [ 246187.01, 6808766.019999999552965, 674.34 ], [ 246188.799999999988358, 6808771.980000000447035, 674.22 ], [ 246190.59, 6808779.29, 673.8 ], [ 246192.68, 6808787.04, 673.37 ], [ 246195.35999999998603, 6808795.25, 672.89 ], [ 246198.49, 6808805.089999999850988, 672.75 ], [ 246201.47, 6808816.570000000298023, 672.36 ], [ 246204.01, 6808828.950000000186265, 671.61 ], [ 246206.1, 6808843.410000000149012, 671.12 ], [ 246208.329999999987194, 6808861.309999999590218, 671.8 ], [ 246209.68, 6808875.179999999701977, 672.77 ], [ 246210.12, 6808881.740000000223517, 673.27 ], [ 246210.12, 6808889.049999999813735, 673.63 ], [ 246209.68, 6808895.009999999776483, 673.71 ], [ 246208.63, 6808901.71999999973923, 673.87 ], [ 246207.14000000001397, 6808911.559999999590218, 674.46 ], [ 246206.84, 6808917.83, 674.72 ], [ 246206.69, 6808925.879999999888241, 675.25 ], [ 246207.14000000001397, 6808931.990000000223517, 675.4 ], [ 246208.329999999987194, 6808937.809999999590218, 675.61 ], [ 246210.12, 6808944.96999999973923, 675.72 ], [ 246212.06, 6808953.759999999776483, 675.57 ], [ 246213.26, 6808959.58, 675.43 ], [ 246214.0, 6808965.549999999813735, 675.37 ], [ 246214.450000000011642, 6808971.809999999590218, 675.25 ], [ 246214.299999999988358, 6808977.179999999701977, 675.01 ], [ 246213.85, 6808984.78000000026077, 674.71 ], [ 246213.4, 6809001.190000000409782, 673.97 ], [ 246212.81, 6809010.129999999888241, 673.83 ], [ 246212.06, 6809014.009999999776483, 673.73 ], [ 246210.57, 6809021.019999999552965, 673.53 ], [ 246208.19, 6809031.46, 673.28 ], [ 246206.99, 6809036.08, 673.03 ], [ 246205.950000000011642, 6809039.059999999590218, 672.98 ], [ 246204.31, 6809041.900000000372529, 672.94 ], [ 246202.07, 6809044.879999999888241, 672.87 ], [ 246199.24, 6809047.559999999590218, 672.84 ], [ 246188.65, 6809056.360000000335276, 673.05 ], [ 246184.329999999987194, 6809059.639999999664724, 673.24 ], [ 246178.35999999998603, 6809065.309999999590218, 673.63 ], [ 246173.44, 6809070.980000000447035, 673.69 ], [ 246170.01, 6809076.490000000223517, 673.58 ], [ 246166.43, 6809081.71, 673.37 ], [ 246162.85, 6809087.980000000447035, 673.39 ], [ 246159.420000000012806, 6809095.879999999888241, 673.54 ], [ 246157.04, 6809102.740000000223517, 673.68 ], [ 246154.950000000011642, 6809111.839999999850988, 673.7 ], [ 246153.01, 6809122.71999999973923, 673.42 ], [ 246151.82, 6809127.349999999627471, 673.17 ], [ 246148.980000000010477, 6809134.5, 672.95 ], [ 246145.549999999988358, 6809140.019999999552965, 672.74 ], [ 246142.57, 6809144.79, 672.62 ], [ 246131.24, 6809159.700000000186265, 671.99 ], [ 246128.700000000011642, 6809163.58, 671.75 ], [ 246125.72, 6809168.799999999813735, 671.34 ], [ 246123.63, 6809174.17, 670.95 ], [ 246122.14000000001397, 6809179.990000000223517, 670.75 ], [ 246119.31, 6809194.75, 671.19 ], [ 246117.670000000012806, 6809200.71, 671.62 ], [ 246115.730000000010477, 6809206.83, 672.07 ], [ 246111.10999999998603, 6809219.21, 673.03 ], [ 246109.60999999998603, 6809225.17, 673.6 ], [ 246109.170000000012806, 6809230.690000000409782, 673.65 ], [ 246108.57, 6809239.490000000223517, 673.45 ], [ 246107.53, 6809253.059999999590218, 672.1 ], [ 246107.079999999987194, 6809263.349999999627471, 671.51 ], [ 246106.63, 6809269.759999999776483, 671.03 ] ] } },
{ "type": "Feature", "properties": { "veglenkesekvensid": 1027677, "href": "https://nvdbapiles.atlas.vegvesen.no/vegnett/veglenkesekvenser/segmentert/1027677", "startposisjon": 0.0, "sluttposisjon": 1.0, "kortform": "0.0-1.0@1027677", "veglenkenummer": 1, "segmentnummer": 3, "startnode": "1087851", "sluttnode": "1611362", "referanse": "1027677-1-3", "type": "HOVED", "detaljnivå": "Vegtrase og kjørebane", "typeVeg": "Enkel bilveg", "typeVeg_sosi": "enkelBilveg", "målemetode": "Geometrisk", "måledato": "1950-01-01", "lengde": 207.432, "fylke": 34, "kommune": 3440, "topologinivå": "Vegtrase" }, "geometry": { "type": "LineString", "coordinates": [ [ 243782.980000000010477, 6810294.230000000447035, 891.3 ], [ 243785.37, 6810295.269999999552965, 891.46 ], [ 243791.71, 6810297.269999999552965, 891.69 ], [ 243801.54, 6810300.650000000372529, 891.98 ], [ 243807.01, 6810303.71, 892.52 ], [ 243810.5, 6810306.629999999888241, 892.98 ], [ 243813.53, 6810310.700000000186265, 893.65 ], [ 243817.41, 6810317.110000000335276, 894.29 ], [ 243822.1, 6810326.400000000372529, 895.01 ], [ 243827.19, 6810336.370000000111759, 895.61 ], [ 243829.980000000010477, 6810343.240000000223517, 895.61 ], [ 243831.84, 6810350.21999999973923, 895.33 ], [ 243832.18, 6810354.990000000223517, 895.26 ], [ 243831.93, 6810360.240000000223517, 895.48 ], [ 243830.84, 6810366.429999999701977, 895.77 ], [ 243828.5, 6810374.25, 896.82 ], [ 243827.769999999989523, 6810377.110000000335276, 897.43 ], [ 243827.920000000012806, 6810380.509999999776483, 897.74 ], [ 243828.19, 6810382.29, 898.01 ], [ 243829.47, 6810385.71, 898.26 ], [ 243833.079999999987194, 6810392.53000000026077, 899.24 ], [ 243840.519999999989523, 6810403.839999999850988, 900.69 ], [ 243844.769999999989523, 6810410.740000000223517, 901.77 ], [ 243849.09, 6810419.17, 902.05 ], [ 243855.25, 6810435.849999999627471, 902.06 ], [ 243856.96, 6810439.410000000149012, 902.0 ], [ 243858.420000000012806, 6810441.160000000149012, 901.91 ], [ 243859.829999999987194, 6810442.379999999888241, 901.9 ], [ 243862.079999999987194, 6810443.42, 901.42 ], [ 243865.06, 6810444.299999999813735, 900.9 ], [ 243872.769999999989523, 6810446.25, 900.02 ], [ 243885.14000000001397, 6810449.849999999627471, 899.26 ] ] } },
{ "type": "Feature", "properties": { "veglenkesekvensid": 1028516, "href": "https://nvdbapiles.atlas.vegvesen.no/vegnett/veglenkesekvenser/segmentert/1028516", "startposisjon": 0.00274921, "sluttposisjon": 1.0, "kortform": "0.00274921-1.0@1028516", "veglenkenummer": 2, "segmentnummer": 4, "startnode": "3031641", "sluttnode": "1086624", "referanse": "1028516-2-4", "type": "HOVED", "detaljnivå": "Vegtrase og kjørebane", "typeVeg": "Enkel bilveg", "typeVeg_sosi": "enkelBilveg", "målemetode": "Geometrisk", "måledato": "2020-05-11", "lengde": 901.724, "fylke": 34, "kommune": 3441, "topologinivå": "Vegtrase" }, "geometry": { "type": "LineString", "coordinates": [ [ 242243.647999999986496, 6811100.478000000119209, 841.838 ], [ 242246.723, 6811101.048000000417233, 841.528 ], [ 242250.38, 6811102.179999999701977, 841.028 ], [ 242255.68, 6811104.21, 840.518 ], [ 242260.480000000010477, 6811106.25, 840.109 ], [ 242266.1, 6811108.349999999627471, 839.539 ], [ 242272.65, 6811110.28000000026077, 839.019 ], [ 242280.39000000001397, 6811111.990000000223517, 838.419 ], [ 242285.06, 6811112.990000000223517, 837.999 ], [ 242290.299999999988358, 6811113.71999999973923, 837.419 ], [ 242295.16, 6811114.46, 836.619 ], [ 242301.10999999998603, 6811115.400000000372529, 835.979 ], [ 242306.47, 6811116.519999999552965, 835.629 ], [ 242310.200000000011642, 6811117.28000000026077, 835.149 ], [ 242315.15, 6811118.179999999701977, 834.769 ], [ 242320.670000000012806, 6811118.75, 834.419 ], [ 242326.9, 6811118.889999999664724, 834.039 ], [ 242331.66, 6811118.389999999664724, 833.769 ], [ 242335.99, 6811117.660000000149012, 833.439 ], [ 242340.96, 6811115.910000000149012, 833.079 ], [ 242345.1, 6811113.740000000223517, 832.569 ], [ 242349.57, 6811110.389999999664724, 832.049 ], [ 242352.99, 6811106.799999999813735, 831.409 ], [ 242355.57, 6811102.17, 830.699 ], [ 242357.26, 6811097.440000000409782, 830.159 ], [ 242358.299999999988358, 6811091.75, 829.609 ], [ 242358.51, 6811086.320000000298023, 829.239 ], [ 242358.89000000001397, 6811081.410000000149012, 828.609 ], [ 242358.700000000011642, 6811075.559999999590218, 827.789 ], [ 242358.24, 6811069.809999999590218, 827.189 ], [ 242357.5, 6811064.849999999627471, 826.169 ], [ 242356.700000000011642, 6811058.29, 825.359 ], [ 242355.81, 6811052.599999999627471, 824.779 ], [ 242353.950000000011642, 6811046.639999999664724, 823.889 ], [ 242351.82, 6811041.200000000186265, 823.209 ], [ 242349.07, 6811035.75, 822.619 ], [ 242346.41, 6811031.54, 821.819 ], [ 242342.74, 6811026.429999999701977, 821.229 ], [ 242339.25, 6811022.129999999888241, 820.739 ], [ 242336.21, 6811018.67, 820.249 ], [ 242331.769999999989523, 6811015.21, 819.579 ], [ 242326.47, 6811012.04, 818.899 ], [ 242321.63, 6811009.730000000447035, 818.249 ], [ 242316.66, 6811008.450000000186265, 817.569 ], [ 242312.13, 6811007.559999999590218, 816.959 ], [ 242305.85999999998603, 6811006.549999999813735, 816.199 ], [ 242300.049999999988358, 6811005.660000000149012, 815.749 ], [ 242293.09, 6811004.480000000447035, 815.229 ], [ 242287.29, 6811003.370000000111759, 814.739 ], [ 242282.34, 6811001.639999999664724, 814.438 ], [ 242277.88, 6810999.440000000409782, 814.058 ], [ 242274.03, 6810996.700000000186265, 813.628 ], [ 242269.69, 6810992.92, 813.248 ], [ 242266.07, 6810988.96, 812.838 ], [ 242262.420000000012806, 6810984.589999999850988, 812.278 ], [ 242258.85999999998603, 6810980.03000000026077, 811.698 ], [ 242255.65, 6810975.46999999973923, 810.898 ], [ 242252.07, 6810970.370000000111759, 809.968 ], [ 242248.31, 6810965.179999999701977, 809.098 ], [ 242244.53, 6810959.629999999888241, 808.128 ], [ 242240.19, 6810953.519999999552965, 807.278 ], [ 242236.579999999987194, 6810947.33, 806.568 ], [ 242232.74, 6810940.690000000409782, 805.998 ], [ 242228.980000000010477, 6810934.58, 805.438 ], [ 242224.74, 6810928.320000000298023, 805.028 ], [ 242220.329999999987194, 6810922.03000000026077, 804.588 ], [ 242215.87, 6810915.759999999776483, 804.378 ], [ 242210.96, 6810909.46999999973923, 804.078 ], [ 242206.07, 6810903.570000000298023, 803.778 ], [ 242200.730000000010477, 6810898.179999999701977, 803.618 ], [ 242194.78, 6810892.440000000409782, 803.428 ], [ 242190.16, 6810887.690000000409782, 803.398 ], [ 242186.019999999989523, 6810883.759999999776483, 803.208 ], [ 242181.64000000001397, 6810879.269999999552965, 802.758 ], [ 242176.69, 6810873.620000000111759, 802.268 ], [ 242173.12, 6810868.870000000111759, 801.738 ], [ 242168.15, 6810862.730000000447035, 800.678 ], [ 242163.980000000010477, 6810857.53000000026077, 799.498 ], [ 242159.28, 6810851.559999999590218, 798.518 ], [ 242155.18, 6810845.650000000372529, 797.488 ], [ 242152.31, 6810839.940000000409782, 796.838 ], [ 242150.10999999998603, 6810833.940000000409782, 796.048 ], [ 242149.19, 6810828.820000000298023, 795.208 ], [ 242147.91, 6810822.429999999701977, 794.498 ], [ 242147.15, 6810815.339999999850988, 794.018 ], [ 242146.07, 6810808.089999999850988, 793.718 ], [ 242144.82, 6810801.42, 793.118 ], [ 242143.480000000010477, 6810797.110000000335276, 792.598 ], [ 242140.91, 6810790.799999999813735, 791.698 ], [ 242137.68, 6810784.71999999973923, 791.198 ], [ 242134.980000000010477, 6810780.79, 790.568 ], [ 242130.670000000012806, 6810776.160000000149012, 790.028 ], [ 242126.41, 6810771.389999999664724, 789.378 ], [ 242122.26, 6810767.389999999664724, 789.018 ], [ 242118.31, 6810763.129999999888241, 788.498 ], [ 242114.60999999998603, 6810758.950000000186265, 788.228 ], [ 242109.87, 6810753.54, 787.778 ], [ 242106.15, 6810748.08, 787.418 ], [ 242101.9, 6810741.25, 787.208 ], [ 242097.78, 6810734.78000000026077, 787.238 ], [ 242094.94, 6810729.96999999973923, 787.388 ], [ 242092.269999999989523, 6810724.980000000447035, 787.718 ], [ 242090.019999999989523, 6810720.46999999973923, 787.858 ], [ 242088.82, 6810716.799999999813735, 787.888 ], [ 242088.299999999988358, 6810712.46999999973923, 787.858 ], [ 242087.74, 6810706.610000000335276, 787.608 ], [ 242087.26, 6810700.730000000447035, 787.438 ], [ 242086.94, 6810697.54, 787.168 ], [ 242086.74, 6810694.139999999664724, 786.848 ], [ 242086.31, 6810692.46, 786.848 ], [ 242085.299999999988358, 6810688.230000000447035, 786.478 ], [ 242082.9, 6810682.110000000335276, 786.088 ], [ 242079.329999999987194, 6810674.139999999664724, 785.458 ], [ 242077.34, 6810669.79, 785.058 ], [ 242074.01, 6810663.700000000186265, 784.638 ], [ 242071.450000000011642, 6810659.21, 784.188 ], [ 242069.269999999989523, 6810655.110000000335276, 783.508 ], [ 242066.74, 6810651.299999999813735, 782.638 ], [ 242063.75, 6810645.990000000223517, 781.738 ], [ 242061.269999999989523, 6810641.839999999850988, 781.158 ], [ 242058.69, 6810636.759999999776483, 780.668 ], [ 242056.549999999988358, 6810632.589999999850988, 780.428 ], [ 242054.32, 6810626.950000000186265, 780.428 ], [ 242052.10999999998603, 6810620.96999999973923, 780.558 ], [ 242050.6, 6810615.04, 780.668 ], [ 242049.34, 6810609.190000000409782, 780.758 ], [ 242048.170000000012806, 6810602.629999999888241, 781.028 ], [ 242047.519999999989523, 6810595.940000000409782, 781.188 ], [ 242046.76, 6810588.870000000111759, 781.428 ], [ 242046.5, 6810581.46999999973923, 781.758 ], [ 242046.4, 6810575.379999999888241, 781.808 ], [ 242047.019999999989523, 6810566.429999999701977, 781.358 ], [ 242048.34, 6810556.349999999627471, 781.018 ], [ 242049.450000000011642, 6810548.179999999701977, 780.748 ], [ 242050.84, 6810539.910000000149012, 780.498 ], [ 242051.93, 6810533.769999999552965, 780.158 ], [ 242052.99, 6810526.849999999627471, 779.858 ], [ 242054.10999999998603, 6810518.71999999973923, 779.308 ], [ 242055.06, 6810511.450000000186265, 778.768 ], [ 242055.91, 6810502.46999999973923, 778.358 ], [ 242056.35999999998603, 6810494.21999999973923, 777.788 ], [ 242056.82, 6810487.360000000335276, 777.188 ], [ 242056.579999999987194, 6810477.92, 776.558 ], [ 242056.07, 6810469.929999999701977, 776.178 ], [ 242055.4, 6810461.620000000111759, 775.928 ], [ 242054.6, 6810454.599999999627471, 775.608 ], [ 242053.230000000010477, 6810446.839999999850988, 775.488 ] ] } },
{ "type": "Feature", "properties": { "veglenkesekvensid": 1030577, "href": "https://nvdbapiles.atlas.vegvesen.no/vegnett/veglenkesekvenser/segmentert/1030577", "startposisjon": 0.0, "sluttposisjon": 1.0, "kortform": "0.0-1.0@1030577", "veglenkenummer": 1, "segmentnummer": 3, "startnode": "1086214", "sluttnode": "1605647", "referanse": "1030577-1-3", "type": "HOVED", "detaljnivå": "Vegtrase og kjørebane", "typeVeg": "Enkel bilveg", "typeVeg_sosi": "enkelBilveg", "målemetode": "Geometrisk", "måledato": "1950-01-01", "lengde": 590.15, "fylke": 34, "kommune": 3441, "topologinivå": "Vegtrase" }, "geometry": { "type": "LineString", "coordinates": [ [ 241436.76, 6812198.92, 780.95 ], [ 241439.72, 6812200.79, 781.21 ], [ 241441.63, 6812203.04, 781.23 ], [ 241443.68, 6812205.860000000335276, 781.4 ], [ 241445.21, 6812209.339999999850988, 781.55 ], [ 241448.14000000001397, 6812222.160000000149012, 783.17 ], [ 241450.82, 6812235.879999999888241, 785.45 ], [ 241455.66, 6812253.96, 788.99 ], [ 241460.43, 6812269.610000000335276, 791.05 ], [ 241463.6, 6812279.129999999888241, 792.38 ], [ 241465.94, 6812290.17, 793.52 ], [ 241467.26, 6812295.450000000186265, 794.15 ], [ 241469.51, 6812301.440000000409782, 795.2 ], [ 241472.85, 6812309.070000000298023, 797.29 ], [ 241476.97, 6812321.179999999701977, 799.56 ], [ 241484.19, 6812338.179999999701977, 802.45 ], [ 241487.13, 6812343.929999999701977, 803.72 ], [ 241491.0, 6812352.589999999850988, 805.36 ], [ 241493.69, 6812361.230000000447035, 806.63 ], [ 241496.06, 6812366.110000000335276, 807.39 ], [ 241499.64000000001397, 6812371.650000000372529, 807.99 ], [ 241501.6, 6812374.71, 808.15 ], [ 241502.89000000001397, 6812377.42, 808.33 ], [ 241504.22, 6812380.759999999776483, 808.69 ], [ 241505.10999999998603, 6812383.849999999627471, 809.06 ], [ 241505.549999999988358, 6812388.17, 809.49 ], [ 241505.14000000001397, 6812401.070000000298023, 811.16 ], [ 241505.450000000011642, 6812407.070000000298023, 811.85 ], [ 241506.519999999989523, 6812413.71999999973923, 812.81 ], [ 241509.78, 6812426.33, 814.63 ], [ 241512.60999999998603, 6812437.700000000186265, 816.1 ], [ 241515.480000000010477, 6812445.759999999776483, 817.0 ], [ 241521.37, 6812457.78000000026077, 817.99 ], [ 241528.04, 6812469.71, 819.17 ], [ 241534.5, 6812480.070000000298023, 820.93 ], [ 241539.31, 6812487.96, 821.32 ], [ 241541.74, 6812491.759999999776483, 821.51 ], [ 241543.56, 6812495.110000000335276, 821.48 ], [ 241544.96, 6812498.620000000111759, 821.45 ], [ 241545.950000000011642, 6812501.759999999776483, 821.53 ], [ 241546.37, 6812505.650000000372529, 821.78 ], [ 241546.72, 6812518.099999999627471, 822.72 ], [ 241547.730000000010477, 6812527.450000000186265, 823.56 ], [ 241548.94, 6812533.46999999973923, 824.05 ], [ 241551.62, 6812542.549999999813735, 824.88 ], [ 241556.170000000012806, 6812553.75, 825.93 ], [ 241561.07, 6812565.700000000186265, 826.79 ], [ 241563.12, 6812572.070000000298023, 827.32 ], [ 241563.93, 6812577.570000000298023, 827.72 ], [ 241564.85999999998603, 6812595.179999999701977, 828.69 ], [ 241564.769999999989523, 6812614.910000000149012, 829.93 ], [ 241565.18, 6812628.450000000186265, 830.05 ], [ 241565.200000000011642, 6812641.29, 830.69 ], [ 241564.93, 6812652.639999999664724, 831.47 ], [ 241565.29, 6812662.799999999813735, 831.27 ], [ 241565.81, 6812670.589999999850988, 831.26 ], [ 241567.56, 6812681.059999999590218, 831.12 ], [ 241570.44, 6812695.139999999664724, 830.11 ], [ 241573.16, 6812710.980000000447035, 830.24 ], [ 241576.60999999998603, 6812726.269999999552965, 830.76 ], [ 241579.35, 6812737.75, 830.23 ], [ 241580.93, 6812746.099999999627471, 829.83 ], [ 241581.769999999989523, 6812757.769999999552965, 829.3 ] ] } }
]
}
