{
"type": "FeatureCollection",
"crs": { "type": "name", "properties": { "name": "urn:ogc:def:crs:EPSG::5973" } },
"features": [
{ "type": "Feature", "properties": { "segment_id": "770d9151-a9c4-442d-bed8-7595308d5f86", "from_om": 0.0, "to_om": 1.0, "linksequenceId": 1060451, "from_nvdb": 0.36734953, "to_nvdb": 0.44000826, "class": "secondary", "lod": "Vegtrase og kjørebane", "access_type": "denied", "when": { "during": null, "heading": null, "using": null, "recognized": null, "mode": null, "vehicle": [ { "dimension": "height", "comparison": "greater_than", "value": 4.0, "unit": "m" } ] }, "when_during": null, "when_heading": null, "when_using": null, "when_recognized": null, "when_mode": null, "when_vehicle_dimension": "height", "when_vehicle_comparison": "greater_than", "when_vehicle_value": 4.0, "when_vehicle_unit": "m" }, "geometry": { "type": "LineString", "coordinates": [ [ 241688.078557266533608, 6830180.695384135469794 ], [ 241776.646847403520951, 6830302.777363571338356 ] ] } },
{ "type": "Feature", "properties": { "segment_id": "838c017c-eca6-409e-bf60-74cb2d644140", "from_om": 0.06986425, "to_om": 0.273101367, "linksequenceId": 1060510, "from_nvdb": 0.9443280526483584, "to_nvdb": 0.86056213904931811, "class": "secondary", "lod": "Vegtrase og kjørebane", "access_type": "denied", "when": { "during": null, "heading": null, "using": null, "recognized": null, "mode": null, "vehicle": [ { "dimension": "height", "comparison": "greater_than", "value": 4.4, "unit": "m" } ] }, "when_during": null, "when_heading": null, "when_using": null, "when_recognized": null, "when_mode": null, "when_vehicle_dimension": "height", "when_vehicle_comparison": "greater_than", "when_vehicle_value": 4.4, "when_vehicle_unit": "m" }, "geometry": { "type": "LineString", "coordinates": [ [ 221188.824423078534892, 6840809.149639064446092 ], [ 221188.824648859270383, 6840809.149498483166099 ], [ 221189.52782908687368, 6840808.488498456776142 ], [ 221191.714320971746929, 6840805.481294959783554 ], [ 221194.100119934533723, 6840801.249812554568052 ], [ 221196.057754827139433, 6840796.337055872194469 ], [ 221197.068300311046187, 6840792.429453529417515 ], [ 221204.756331750017125, 6840735.337482768110931 ], [ 221207.805865998525405, 6840716.263757668435574 ] ] } },
{ "type": "Feature", "properties": { "segment_id": "838c017c-eca6-409e-bf60-74cb2d644140", "from_om": 0.273101367, "to_om": 0.36925518, "linksequenceId": 1060510, "from_nvdb": 0.86056213904931811, "to_nvdb": 0.79847534239524276, "class": "secondary", "lod": "Vegtrase og kjørebane", "access_type": "denied", "when": { "during": null, "heading": null, "using": null, "recognized": null, "mode": null, "vehicle": [ { "dimension": "height", "comparison": "greater_than", "value": 4.4, "unit": "m" } ] }, "when_during": null, "when_heading": null, "when_using": null, "when_recognized": null, "when_mode": null, "when_vehicle_dimension": "height", "when_vehicle_comparison": "greater_than", "when_vehicle_value": 4.4, "when_vehicle_unit": "m" }, "geometry": { "type": "LineString", "coordinates": [ [ 221207.805865998525405, 6840716.263757668435574 ], [ 221207.805875488033053, 6840716.263698315247893 ], [ 221209.602510416356381, 6840706.464291964657605 ], [ 221212.846469705575146, 6840692.095495413057506 ], [ 221215.588687343988568, 6840681.402938835322857 ], [ 221218.433316567330621, 6840672.247646259143949 ] ] } },
{ "type": "Feature", "properties": { "segment_id": "9b3868c8-36c0-4378-b73e-a66667f5f056", "from_om": 0.0, "to_om": 0.925043067, "linksequenceId": 1003327, "from_nvdb": 0.33005976, "to_nvdb": 0.41032011168401022, "class": "residential", "lod": "Vegtrase og kjørebane", "access_type": "denied", "when": { "during": null, "heading": null, "using": null, "recognized": null, "mode": null, "vehicle": [ { "dimension": "height", "comparison": "greater_than", "value": 3.3, "unit": "m" } ] }, "when_during": null, "when_heading": null, "when_using": null, "when_recognized": null, "when_mode": null, "when_vehicle_dimension": "height", "when_vehicle_comparison": "greater_than", "when_vehicle_value": 3.3, "when_vehicle_unit": "m" }, "geometry": { "type": "LineString", "coordinates": [ [ 236584.155892096576281, 6833867.134800695814192 ], [ 236599.358700701734051, 6833836.33353169169277 ], [ 236609.000553255144041, 6833815.9973050262779 ], [ 236617.102541526430286, 6833799.602557611651719 ], [ 236625.400050333642866, 6833782.902211810462177 ], [ 236630.14704551405157, 6833776.379272253252566 ] ] } },
{ "type": "Feature", "properties": { "segment_id": "9b3868c8-36c0-4378-b73e-a66667f5f056", "from_om": 0.925043067, "to_om": 1.0, "linksequenceId": 1003327, "from_nvdb": 0.41032011168401022, "to_nvdb": 0.41032011168401022, "class": "residential", "lod": "Vegtrase og kjørebane", "access_type": "denied", "when": { "during": null, "heading": null, "using": null, "recognized": null, "mode": null, "vehicle": [ { "dimension": "height", "comparison": "greater_than", "value": 3.3, "unit": "m" } ] }, "when_during": null, "when_heading": null, "when_using": null, "when_recognized": null, "when_mode": null, "when_vehicle_dimension": "height", "when_vehicle_comparison": "greater_than", "when_vehicle_value": 3.3, "when_vehicle_unit": "m" }, "geometry": { "type": "LineString", "coordinates": [ [ 236630.14704551405157, 6833776.379272253252566 ], [ 236630.147046289872378, 6833776.379271186888218 ], [ 236634.999735382269137, 6833769.70292136631906 ] ] } },
{ "type": "Feature", "properties": { "segment_id": "9cb08cb5-4966-4f24-9360-a296997c901d", "from_om": 0.71844994, "to_om": 0.78147939, "linksequenceId": 1060451, "from_nvdb": 0.95697572339629355, "to_nvdb": 0.96053745330206231, "class": "secondary", "lod": "Vegtrase og kjørebane", "access_type": "denied", "when": { "during": null, "heading": null, "using": null, "recognized": null, "mode": null, "vehicle": [ { "dimension": "height", "comparison": "greater_than", "value": 3.7, "unit": "m" } ] }, "when_during": null, "when_heading": null, "when_using": null, "when_recognized": null, "when_mode": null, "when_vehicle_dimension": "height", "when_vehicle_comparison": "greater_than", "when_vehicle_value": 3.7, "when_vehicle_unit": "m" }, "geometry": { "type": "LineString", "coordinates": [ [ 242020.043055711430497, 6831213.186331963166595 ], [ 242020.042255412758095, 6831213.190986138768494 ], [ 242018.729840540501755, 6831220.421168289147317 ] ] } },
{ "type": "Feature", "properties": { "segment_id": "a398e392-bfb4-46af-8cd4-93e8c602ea49", "from_om": 0.26019738, "to_om": 0.26832772, "linksequenceId": 1060504, "from_nvdb": 0.62029014787978798, "to_nvdb": 0.62269140248678523, "class": "secondary", "lod": "Vegtrase og kjørebane", "access_type": "denied", "when": { "during": null, "heading": null, "using": null, "recognized": null, "mode": null, "vehicle": [ { "dimension": "height", "comparison": "greater_than", "value": 3.5, "unit": "m" } ] }, "when_during": null, "when_heading": null, "when_using": null, "when_recognized": null, "when_mode": null, "when_vehicle_dimension": "height", "when_vehicle_comparison": "greater_than", "when_vehicle_value": 3.5, "when_vehicle_unit": "m" }, "geometry": { "type": "LineString", "coordinates": [ [ 229734.655472625425318, 6836419.296202749945223 ], [ 229729.461417197773699, 6836411.788606582209468 ], [ 229729.458374968089629, 6836411.784218759275973 ] ] } },
{ "type": "Feature", "properties": { "segment_id": "a398e392-bfb4-46af-8cd4-93e8c602ea49", "from_om": 0.4421904, "to_om": 0.54835397568034583, "linksequenceId": 1060504, "from_nvdb": 0.67417439481839669, "to_nvdb": 0.7056409, "class": "secondary", "lod": "Vegtrase og kjørebane", "access_type": "denied", "when": { "during": null, "heading": null, "using": null, "recognized": null, "mode": null, "vehicle": [ { "dimension": "height", "comparison": "greater_than", "value": 4.2, "unit": "m" } ] }, "when_during": null, "when_heading": null, "when_using": null, "when_recognized": null, "when_mode": null, "when_vehicle_dimension": "height", "when_vehicle_comparison": "greater_than", "when_vehicle_value": 4.2, "when_vehicle_unit": "m" }, "geometry": { "type": "LineString", "coordinates": [ [ 229616.423561716190306, 6836252.593668987043202 ], [ 229616.422140866809059, 6836252.591694900766015 ], [ 229547.211712827178417, 6836155.452033218927681 ] ] } },
{ "type": "Feature", "properties": { "segment_id": "a398e392-bfb4-46af-8cd4-93e8c602ea49", "from_om": 0.54835397568034583, "to_om": 0.54849028, "linksequenceId": 1060504, "from_nvdb": 0.7056409, "to_nvdb": 0.70568127980915241, "class": "secondary", "lod": "Vegtrase og kjørebane", "access_type": "denied", "when": { "during": null, "heading": null, "using": null, "recognized": null, "mode": null, "vehicle": [ { "dimension": "height", "comparison": "greater_than", "value": 4.2, "unit": "m" } ] }, "when_during": null, "when_heading": null, "when_using": null, "when_recognized": null, "when_mode": null, "when_vehicle_dimension": "height", "when_vehicle_comparison": "greater_than", "when_vehicle_value": 4.2, "when_vehicle_unit": "m" }, "geometry": { "type": "LineString", "coordinates": [ [ 229547.211712827178417, 6836155.452033218927681 ], [ 229547.12285115668783, 6836155.327312236651778 ] ] } },
{ "type": "Feature", "properties": { "segment_id": "d63368bf-869e-4775-969e-b03a6985844d", "from_om": 0.44839747, "to_om": 0.47157622014651929, "linksequenceId": 1060512, "from_nvdb": 1.0042173869334265, "to_nvdb": 0.65376976, "class": "tertiary", "lod": "Vegtrase og kjørebane", "access_type": "denied", "when": { "during": null, "heading": null, "using": null, "recognized": null, "mode": null, "vehicle": [ { "dimension": "height", "comparison": "greater_than", "value": 3.2, "unit": "m" } ] }, "when_during": null, "when_heading": null, "when_using": null, "when_recognized": null, "when_mode": null, "when_vehicle_dimension": "height", "when_vehicle_comparison": "greater_than", "when_vehicle_value": 3.2, "when_vehicle_unit": "m" }, "geometry": { "type": "LineString", "coordinates": [ [ 218284.199840421060799, 6848164.69967476464808 ], [ 218283.610804176307283, 6848159.309747733175755 ] ] } },
{ "type": "Feature", "properties": { "segment_id": "d63368bf-869e-4775-969e-b03a6985844d", "from_om": 0.47157622014651929, "to_om": 0.48364305, "linksequenceId": 1060512, "from_nvdb": 0.65376976, "to_nvdb": 0.63414824947679371, "class": "tertiary", "lod": "Vegtrase og kjørebane", "access_type": "denied", "when": { "during": null, "heading": null, "using": null, "recognized": null, "mode": null, "vehicle": [ { "dimension": "height", "comparison": "greater_than", "value": 3.2, "unit": "m" } ] }, "when_during": null, "when_heading": null, "when_using": null, "when_recognized": null, "when_mode": null, "when_vehicle_dimension": "height", "when_vehicle_comparison": "greater_than", "when_vehicle_value": 3.2, "when_vehicle_unit": "m" }, "geometry": { "type": "LineString", "coordinates": [ [ 218283.610804176307283, 6848159.309747733175755 ], [ 218283.304430689138826, 6848156.506302691064775 ], [ 218283.304055767395766, 6848156.503770565614104 ] ] } }
]
}
