{
"type": "FeatureCollection",
"crs": { "type": "name", "properties": { "name": "urn:ogc:def:crs:OGC:1.3:CRS84" } },
"features": [
{ "type": "Feature", "properties": { "id": "de4ac43c-0265-421f-820f-cbd2b87de65f", "sources": "[{'property': '', 'dataset': 'OpenStreetMap', 'license': 'ODbL-1.0', 'record_id': 'n11179229587@1', 'update_time': '2023-09-09T19:12:35Z', 'confidence': None, 'between': None, 'provider': 'osm', 'resource': 'planet', 'version': '2026-08-05'}]", "version": 1, "bbox": { "xmin": 9.767557144165039, "xmax": 9.767559051513672, "ymin": 61.594390869140625, "ymax": 61.594398498535156 }, "connector_id": null, "matched_data": null, "match_status": "Unmatched" }, "geometry": { "type": "Point", "coordinates": [ 9.7675576, 61.5943913 ] } },
{ "type": "Feature", "properties": { "id": "7d0e093d-9305-4bab-bbac-c0fdbc756ee8", "sources": "[{'property': '', 'dataset': 'OpenStreetMap', 'license': 'ODbL-1.0', 'record_id': 'n1252324638@3', 'update_time': '2022-03-02T07:21:04Z', 'confidence': None, 'between': None, 'provider': 'osm', 'resource': 'planet', 'version': '2026-08-05'}]", "version": 1, "bbox": { "xmin": 9.767180442810059, "xmax": 9.767182350158691, "ymin": 61.598079681396484, "ymax": 61.598087310791016 }, "connector_id": null, "matched_data": null, "match_status": "Unmatched" }, "geometry": { "type": "Point", "coordinates": [ 9.7671809, 61.598081 ] } },
{ "type": "Feature", "properties": { "id": "83fda891-4d03-4b8a-afce-7da83d39e180", "sources": "[{'property': '', 'dataset': 'OpenStreetMap', 'license': 'ODbL-1.0', 'record_id': 'n3329741068@3', 'update_time': '2023-09-09T19:12:35Z', 'confidence': None, 'between': None, 'provider': 'osm', 'resource': 'planet', 'version': '2026-08-05'}]", "version": 1, "bbox": { "xmin": 9.767906188964844, "xmax": 9.767908096313477, "ymin": 61.59416198730469, "ymax": 61.59416961669922 }, "connector_id": null, "matched_data": null, "match_status": "Unmatched" }, "geometry": { "type": "Point", "coordinates": [ 9.7679078, 61.5941693 ] } },
{ "type": "Feature", "properties": { "id": "c3ce7757-4078-4295-9fbc-1ea4d14a8213", "sources": "[{'property': '', 'dataset': 'OpenStreetMap', 'license': 'ODbL-1.0', 'record_id': 'n4729629118@2', 'update_time': '2018-11-21T21:35:27Z', 'confidence': None, 'between': None, 'provider': 'osm', 'resource': 'planet', 'version': '2026-08-05'}]", "version": 1, "bbox": { "xmin": 9.768187522888184, "xmax": 9.768189430236816, "ymin": 61.59220886230469, "ymax": 61.59221649169922 }, "connector_id": null, "matched_data": null, "match_status": "Unmatched" }, "geometry": { "type": "Point", "coordinates": [ 9.7681878, 61.5922101 ] } },
{ "type": "Feature", "properties": { "id": "8548abac-2b97-4b9b-a124-005b74fcc205", "sources": "[{'property': '', 'dataset': 'OpenStreetMap', 'license': 'ODbL-1.0', 'record_id': 'n6080826601@2', 'update_time': '2023-05-31T22:18:28Z', 'confidence': None, 'between': None, 'provider': 'osm', 'resource': 'planet', 'version': '2026-08-05'}]", "version": 1, "bbox": { "xmin": 9.769331932067871, "xmax": 9.769332885742188, "ymin": 61.59361267089844, "ymax": 61.59362030029297 }, "connector_id": null, "matched_data": null, "match_status": "Unmatched" }, "geometry": { "type": "Point", "coordinates": [ 9.7693328, 61.5936138 ] } },
{ "type": "Feature", "properties": { "id": "3571ecbc-fab1-434f-b359-26cb0ffb14c1", "sources": "[{'property': '', 'dataset': 'OpenStreetMap', 'license': 'ODbL-1.0', 'record_id': 'n4729644730@2', 'update_time': '2018-11-21T21:35:27Z', 'confidence': None, 'between': None, 'provider': 'osm', 'resource': 'planet', 'version': '2026-08-05'}]", "version": 1, "bbox": { "xmin": 9.769370079040527, "xmax": 9.769371032714844, "ymin": 61.59361267089844, "ymax": 61.59362030029297 }, "connector_id": null, "matched_data": null, "match_status": "Unmatched" }, "geometry": { "type": "Point", "coordinates": [ 9.769371, 61.5936133 ] } },
{ "type": "Feature", "properties": { "id": "42f9baaf-f7ca-4ce9-8a1b-ab9debf45176", "sources": "[{'property': '', 'dataset': 'OpenStreetMap', 'license': 'ODbL-1.0', 'record_id': 'n9039028367@1', 'update_time': '2021-08-26T21:31:52Z', 'confidence': None, 'between': None, 'provider': 'osm', 'resource': 'planet', 'version': '2026-08-05'}]", "version": 1, "bbox": { "xmin": 9.769816398620605, "xmax": 9.769818305969238, "ymin": 61.59550094604492, "ymax": 61.59550857543945 }, "connector_id": null, "matched_data": null, "match_status": "Unmatched" }, "geometry": { "type": "Point", "coordinates": [ 9.769818, 61.5955027 ] } },
{ "type": "Feature", "properties": { "id": "3ef97b74-8494-426a-8cc3-1dc6beea6dfe", "sources": "[{'property': '', 'dataset': 'OpenStreetMap', 'license': 'ODbL-1.0', 'record_id': 'n1252324520@3', 'update_time': '2023-09-09T19:12:35Z', 'confidence': None, 'between': None, 'provider': 'osm', 'resource': 'planet', 'version': '2026-08-05'}]", "version": 1, "bbox": { "xmin": 9.769828796386719, "xmax": 9.769830703735352, "ymin": 61.59409713745117, "ymax": 61.5941047668457 }, "connector_id": null, "matched_data": null, "match_status": "Unmatched" }, "geometry": { "type": "Point", "coordinates": [ 9.7698304, 61.5940981 ] } },
{ "type": "Feature", "properties": { "id": "d4fb9876-1be4-4145-a067-6a99a3907ff7", "sources": "[{'property': '', 'dataset': 'OpenStreetMap', 'license': 'ODbL-1.0', 'record_id': 'n4828296476@2', 'update_time': '2024-03-29T07:49:56Z', 'confidence': None, 'between': None, 'provider': 'osm', 'resource': 'planet', 'version': '2026-08-05'}]", "version": 1, "bbox": { "xmin": 9.7764310836792, "xmax": 9.776432037353516, "ymin": 61.587989807128906, "ymax": 61.58799743652344 }, "connector_id": null, "matched_data": null, "match_status": "Unmatched" }, "geometry": { "type": "Point", "coordinates": [ 9.7764312, 61.5879899 ] } },
{ "type": "Feature", "properties": { "id": "7edb791e-e741-4b4e-bc98-3f033d47e0f9", "sources": "[{'property': '', 'dataset': 'OpenStreetMap', 'license': 'ODbL-1.0', 'record_id': 'n11770671067@1', 'update_time': '2024-03-29T07:49:56Z', 'confidence': None, 'between': None, 'provider': 'osm', 'resource': 'planet', 'version': '2026-08-05'}]", "version": 1, "bbox": { "xmin": 9.776848793029785, "xmax": 9.776850700378418, "ymin": 61.58818817138672, "ymax": 61.58819580078125 }, "connector_id": null, "matched_data": null, "match_status": "Unmatched" }, "geometry": { "type": "Point", "coordinates": [ 9.7768503, 61.5881946 ] } },
{ "type": "Feature", "properties": { "id": "c89074ce-e599-43b8-98a7-e9e9dac24485", "sources": "[{'property': '', 'dataset': 'OpenStreetMap', 'license': 'ODbL-1.0', 'record_id': 'n11770671063@1', 'update_time': '2024-03-29T07:49:56Z', 'confidence': None, 'between': None, 'provider': 'osm', 'resource': 'planet', 'version': '2026-08-05'}]", "version": 1, "bbox": { "xmin": 9.77608871459961, "xmax": 9.776090621948242, "ymin": 61.5877799987793, "ymax": 61.58778762817383 }, "connector_id": null, "matched_data": null, "match_status": "Unmatched" }, "geometry": { "type": "Point", "coordinates": [ 9.7760903, 61.5877809 ] } },
{ "type": "Feature", "properties": { "id": "cd254614-18de-4837-a105-6d428245e847", "sources": "[{'property': '', 'dataset': 'OpenStreetMap', 'license': 'ODbL-1.0', 'record_id': 'n1252324556@1', 'update_time': '2011-04-20T11:43:34Z', 'confidence': None, 'between': None, 'provider': 'osm', 'resource': 'planet', 'version': '2026-08-05'}]", "version": 1, "bbox": { "xmin": 9.765848159790039, "xmax": 9.765849113464355, "ymin": 61.598121643066406, "ymax": 61.59812927246094 }, "connector_id": null, "matched_data": null, "match_status": "Unmatched" }, "geometry": { "type": "Point", "coordinates": [ 9.765849, 61.5981229 ] } },
{ "type": "Feature", "properties": { "id": "c11dd8bc-d62e-4086-b51c-fef30e993b33", "sources": "[{'property': '', 'dataset': 'OpenStreetMap', 'license': 'ODbL-1.0', 'record_id': 'n1252325095@1', 'update_time': '2011-04-20T11:43:46Z', 'confidence': None, 'between': None, 'provider': 'osm', 'resource': 'planet', 'version': '2026-08-05'}]", "version": 1, "bbox": { "xmin": 9.763916969299316, "xmax": 9.76391887664795, "ymin": 61.601539611816406, "ymax": 61.60154724121094 }, "connector_id": null, "matched_data": null, "match_status": "Unmatched" }, "geometry": { "type": "Point", "coordinates": [ 9.7639173, 61.6015402 ] } },
{ "type": "Feature", "properties": { "id": "6b89a946-ea93-4e24-8715-51d521fcccb2", "sources": "[{'property': '', 'dataset': 'OpenStreetMap', 'license': 'ODbL-1.0', 'record_id': 'n4729253084@2', 'update_time': '2022-03-02T07:21:04Z', 'confidence': None, 'between': None, 'provider': 'osm', 'resource': 'planet', 'version': '2026-08-05'}]", "version": 1, "bbox": { "xmin": 9.763137817382812, "xmax": 9.763138771057129, "ymin": 61.597965240478516, "ymax": 61.59797286987305 }, "connector_id": null, "matched_data": null, "match_status": "Unmatched" }, "geometry": { "type": "Point", "coordinates": [ 9.7631387, 61.5979726 ] } },
{ "type": "Feature", "properties": { "id": "01cb263a-c9d1-4403-b65d-ce680e78cbfe", "sources": "[{'property': '', 'dataset': 'OpenStreetMap', 'license': 'ODbL-1.0', 'record_id': 'n6080904933@1', 'update_time': '2018-11-21T22:46:03Z', 'confidence': None, 'between': None, 'provider': 'osm', 'resource': 'planet', 'version': '2026-08-05'}]", "version": 1, "bbox": { "xmin": 9.761626243591309, "xmax": 9.761628150939941, "ymin": 61.592594146728516, "ymax": 61.59260177612305 }, "connector_id": null, "matched_data": null, "match_status": "Unmatched" }, "geometry": { "type": "Point", "coordinates": [ 9.7616266, 61.592595 ] } },
{ "type": "Feature", "properties": { "id": "916c0263-468b-4afb-9a69-3504b187cd5d", "sources": "[{'property': '', 'dataset': 'OpenStreetMap', 'license': 'ODbL-1.0', 'record_id': 'n6080904932@1', 'update_time': '2018-11-21T22:46:03Z', 'confidence': None, 'between': None, 'provider': 'osm', 'resource': 'planet', 'version': '2026-08-05'}]", "version": 1, "bbox": { "xmin": 9.761638641357422, "xmax": 9.761640548706055, "ymin": 61.59259033203125, "ymax": 61.59259796142578 }, "connector_id": null, "matched_data": null, "match_status": "Unmatched" }, "geometry": { "type": "Point", "coordinates": [ 9.7616401, 61.5925913 ] } },
{ "type": "Feature", "properties": { "id": "5f69b65e-10fe-4a07-be94-d37e8e710fb1", "sources": "[{'property': '', 'dataset': 'OpenStreetMap', 'license': 'ODbL-1.0', 'record_id': 'n1252324714@6', 'update_time': '2018-11-21T22:46:16Z', 'confidence': None, 'between': None, 'provider': 'osm', 'resource': 'planet', 'version': '2026-08-05'}]", "version": 1, "bbox": { "xmin": 9.76162338256836, "xmax": 9.761625289916992, "ymin": 61.59202194213867, "ymax": 61.5920295715332 }, "connector_id": null, "matched_data": null, "match_status": "Unmatched" }, "geometry": { "type": "Point", "coordinates": [ 9.761625, 61.5920284 ] } },
{ "type": "Feature", "properties": { "id": "d1151adf-59f7-4cef-a70a-0e92f187f341", "sources": "[{'property': '', 'dataset': 'OpenStreetMap', 'license': 'ODbL-1.0', 'record_id': 'n1252324970@3', 'update_time': '2018-11-21T22:46:16Z', 'confidence': None, 'between': None, 'provider': 'osm', 'resource': 'planet', 'version': '2026-08-05'}]", "version": 1, "bbox": { "xmin": 9.760163307189941, "xmax": 9.760164260864258, "ymin": 61.59259796142578, "ymax": 61.59260559082031 }, "connector_id": null, "matched_data": null, "match_status": "Unmatched" }, "geometry": { "type": "Point", "coordinates": [ 9.7601642, 61.5926041 ] } },
{ "type": "Feature", "properties": { "id": "4ac0cb5d-340f-426c-be3d-77986eab11a4", "sources": "[{'property': '', 'dataset': 'OpenStreetMap', 'license': 'ODbL-1.0', 'record_id': 'n1252324404@1', 'update_time': '2011-04-20T11:43:26Z', 'confidence': None, 'between': None, 'provider': 'osm', 'resource': 'planet', 'version': '2026-08-05'}]", "version": 1, "bbox": { "xmin": 9.759997367858887, "xmax": 9.759998321533203, "ymin": 61.60404586791992, "ymax": 61.60405349731445 }, "connector_id": null, "matched_data": null, "match_status": "Unmatched" }, "geometry": { "type": "Point", "coordinates": [ 9.7599974, 61.6040475 ] } },
{ "type": "Feature", "properties": { "id": "08ce702d-9d49-4941-8d0e-b35d3a722f57", "sources": "[{'property': '', 'dataset': 'OpenStreetMap', 'license': 'ODbL-1.0', 'record_id': 'n1067399929@2', 'update_time': '2011-04-20T11:44:05Z', 'confidence': None, 'between': None, 'provider': 'osm', 'resource': 'planet', 'version': '2026-08-05'}]", "version": 1, "bbox": { "xmin": 9.757173538208008, "xmax": 9.757174491882324, "ymin": 61.59469985961914, "ymax": 61.59470748901367 }, "connector_id": null, "matched_data": null, "match_status": "Unmatched" }, "geometry": { "type": "Point", "coordinates": [ 9.7571738, 61.5947061 ] } },
{ "type": "Feature", "properties": { "id": "8fce3f8e-2afb-40d7-8ef0-3aa57a3297db", "sources": "[{'property': '', 'dataset': 'OpenStreetMap', 'license': 'ODbL-1.0', 'record_id': 'n1252324471@3', 'update_time': '2023-06-02T19:58:00Z', 'confidence': None, 'between': None, 'provider': 'osm', 'resource': 'planet', 'version': '2026-08-05'}]", "version": 1, "bbox": { "xmin": 9.756023406982422, "xmax": 9.756025314331055, "ymin": 61.59484100341797, "ymax": 61.5948486328125 }, "connector_id": null, "matched_data": null, "match_status": "Unmatched" }, "geometry": { "type": "Point", "coordinates": [ 9.7560237, 61.5948414 ] } },
{ "type": "Feature", "properties": { "id": "c47baa50-278c-4435-8ddc-8ed6dc11d43e", "sources": "[{'property': '', 'dataset': 'OpenStreetMap', 'license': 'ODbL-1.0', 'record_id': 'n1252324576@1', 'update_time': '2011-04-20T11:43:35Z', 'confidence': None, 'between': None, 'provider': 'osm', 'resource': 'planet', 'version': '2026-08-05'}]", "version": 1, "bbox": { "xmin": 9.7538423538208, "xmax": 9.753844261169434, "ymin": 61.59608459472656, "ymax": 61.596092224121094 }, "connector_id": null, "matched_data": null, "match_status": "Unmatched" }, "geometry": { "type": "Point", "coordinates": [ 9.7538427, 61.5960854 ] } },
{ "type": "Feature", "properties": { "id": "4da7190a-c470-43e7-8135-5396a80192f9", "sources": "[{'property': '', 'dataset': 'OpenStreetMap', 'license': 'ODbL-1.0', 'record_id': 'n11908259689@1', 'update_time': '2024-05-15T23:12:10Z', 'confidence': None, 'between': None, 'provider': 'osm', 'resource': 'planet', 'version': '2026-08-05'}]", "version": 1, "bbox": { "xmin": 9.751794815063477, "xmax": 9.751795768737793, "ymin": 61.612979888916016, "ymax": 61.61298751831055 }, "connector_id": null, "matched_data": null, "match_status": "Unmatched" }, "geometry": { "type": "Point", "coordinates": [ 9.7517956, 61.6129803 ] } },
{ "type": "Feature", "properties": { "id": "534c5c07-8624-4a3c-999c-ffed64666969", "sources": "[{'property': '', 'dataset': 'OpenStreetMap', 'license': 'ODbL-1.0', 'record_id': 'n11980044085@1', 'update_time': '2024-06-14T03:53:44Z', 'confidence': None, 'between': None, 'provider': 'osm', 'resource': 'planet', 'version': '2026-08-05'}]", "version": 1, "bbox": { "xmin": 9.751493453979492, "xmax": 9.751495361328125, "ymin": 61.59344482421875, "ymax": 61.59345245361328 }, "connector_id": null, "matched_data": null, "match_status": "Unmatched" }, "geometry": { "type": "Point", "coordinates": [ 9.7514949, 61.5934457 ] } },
{ "type": "Feature", "properties": { "id": "d5095cf2-f43d-40cc-9078-b3f705f7c4f6", "sources": "[{'property': '', 'dataset': 'OpenStreetMap', 'license': 'ODbL-1.0', 'record_id': 'n11179229089@1', 'update_time': '2023-09-09T19:04:08Z', 'confidence': None, 'between': None, 'provider': 'osm', 'resource': 'planet', 'version': '2026-08-05'}]", "version": 1, "bbox": { "xmin": 9.751855850219727, "xmax": 9.751856803894043, "ymin": 61.600284576416016, "ymax": 61.60029220581055 }, "connector_id": null, "matched_data": null, "match_status": "Unmatched" }, "geometry": { "type": "Point", "coordinates": [ 9.751856, 61.6002922 ] } },
{ "type": "Feature", "properties": { "id": "5a6422db-3332-4d06-bebe-feddfc911785", "sources": "[{'property': '', 'dataset': 'OpenStreetMap', 'license': 'ODbL-1.0', 'record_id': 'n1355669834@3', 'update_time': '2023-09-09T19:04:08Z', 'confidence': None, 'between': None, 'provider': 'osm', 'resource': 'planet', 'version': '2026-08-05'}]", "version": 1, "bbox": { "xmin": 9.751814842224121, "xmax": 9.751815795898438, "ymin": 61.600250244140625, "ymax": 61.600257873535156 }, "connector_id": null, "matched_data": null, "match_status": "Unmatched" }, "geometry": { "type": "Point", "coordinates": [ 9.7518151, 61.6002568 ] } },
{ "type": "Feature", "properties": { "id": "d5a5e3f6-a5d3-4b26-870f-1f7c159eb284", "sources": "[{'property': '', 'dataset': 'OpenStreetMap', 'license': 'ODbL-1.0', 'record_id': 'n11179229088@1', 'update_time': '2023-09-09T19:04:08Z', 'confidence': None, 'between': None, 'provider': 'osm', 'resource': 'planet', 'version': '2026-08-05'}]", "version": 1, "bbox": { "xmin": 9.751748085021973, "xmax": 9.751749038696289, "ymin": 61.60030746459961, "ymax": 61.60031509399414 }, "connector_id": null, "matched_data": null, "match_status": "Unmatched" }, "geometry": { "type": "Point", "coordinates": [ 9.7517489, 61.6003147 ] } },
{ "type": "Feature", "properties": { "id": "279b8c03-0216-47cc-b161-556c4cf3677f", "sources": "[{'property': '', 'dataset': 'OpenStreetMap', 'license': 'ODbL-1.0', 'record_id': 'n11179229052@1', 'update_time': '2023-09-09T19:04:08Z', 'confidence': None, 'between': None, 'provider': 'osm', 'resource': 'planet', 'version': '2026-08-05'}]", "version": 1, "bbox": { "xmin": 9.748753547668457, "xmax": 9.748754501342773, "ymin": 61.60029983520508, "ymax": 61.60030746459961 }, "connector_id": null, "matched_data": null, "match_status": "Unmatched" }, "geometry": { "type": "Point", "coordinates": [ 9.7487537, 61.6003063 ] } },
{ "type": "Feature", "properties": { "id": "6e05b0f7-c33c-416e-902a-c6d4a797553b", "sources": "[{'property': '', 'dataset': 'OpenStreetMap', 'license': 'ODbL-1.0', 'record_id': 'n1251022878@4', 'update_time': '2024-05-09T04:47:47Z', 'confidence': None, 'between': None, 'provider': 'osm', 'resource': 'planet', 'version': '2026-08-05'}]", "version": 1, "bbox": { "xmin": 9.734460830688477, "xmax": 9.73446273803711, "ymin": 61.597450256347656, "ymax": 61.59745788574219 }, "connector_id": null, "matched_data": null, "match_status": "Unmatched" }, "geometry": { "type": "Point", "coordinates": [ 9.7344613, 61.5974577 ] } },
{ "type": "Feature", "properties": { "id": "0efd31c8-98b5-4710-b949-3b3cb82d7b21", "sources": "[{'property': '', 'dataset': 'OpenStreetMap', 'license': 'ODbL-1.0', 'record_id': 'n12069085978@1', 'update_time': '2024-07-23T02:19:13Z', 'confidence': None, 'between': None, 'provider': 'osm', 'resource': 'planet', 'version': '2026-08-05'}]", "version": 1, "bbox": { "xmin": 9.735118865966797, "xmax": 9.735119819641113, "ymin": 61.59762191772461, "ymax": 61.59762954711914 }, "connector_id": null, "matched_data": null, "match_status": "Unmatched" }, "geometry": { "type": "Point", "coordinates": [ 9.7351197, 61.5976284 ] } },
{ "type": "Feature", "properties": { "id": "0f91d2e5-5d44-427c-992c-bf4edb60bd47", "sources": "[{'property': '', 'dataset': 'OpenStreetMap', 'license': 'ODbL-1.0', 'record_id': 'n9558269673@1', 'update_time': '2022-03-06T13:25:47Z', 'confidence': None, 'between': None, 'provider': 'osm', 'resource': 'planet', 'version': '2026-08-05'}]", "version": 1, "bbox": { "xmin": 9.735174179077148, "xmax": 9.735175132751465, "ymin": 61.59763717651367, "ymax": 61.5976448059082 }, "connector_id": null, "matched_data": null, "match_status": "Unmatched" }, "geometry": { "type": "Point", "coordinates": [ 9.7351744, 61.5976435 ] } },
{ "type": "Feature", "properties": { "id": "083a907e-c317-4ca9-bcb2-ead694d049cf", "sources": "[{'property': '', 'dataset': 'OpenStreetMap', 'license': 'ODbL-1.0', 'record_id': 'n10290628277@1', 'update_time': '2022-12-28T03:22:15Z', 'confidence': None, 'between': None, 'provider': 'osm', 'resource': 'planet', 'version': '2026-08-05'}]", "version": 1, "bbox": { "xmin": 9.734678268432617, "xmax": 9.73468017578125, "ymin": 61.597511291503906, "ymax": 61.59751892089844 }, "connector_id": null, "matched_data": null, "match_status": "Unmatched" }, "geometry": { "type": "Point", "coordinates": [ 9.7346786, 61.5975116 ] } },
{ "type": "Feature", "properties": { "id": "a4090a5c-258d-4a98-9552-b2b898519f86", "sources": "[{'property': '', 'dataset': 'OpenStreetMap', 'license': 'ODbL-1.0', 'record_id': 'n4717238467@2', 'update_time': '2019-10-28T16:34:10Z', 'confidence': None, 'between': None, 'provider': 'osm', 'resource': 'planet', 'version': '2026-08-05'}]", "version": 1, "bbox": { "xmin": 9.735633850097656, "xmax": 9.735635757446289, "ymin": 61.597774505615234, "ymax": 61.597782135009766 }, "connector_id": null, "matched_data": null, "match_status": "Unmatched" }, "geometry": { "type": "Point", "coordinates": [ 9.7356342, 61.5977763 ] } },
{ "type": "Feature", "properties": { "id": "3f7b3205-c2e9-4317-bb4c-7569bc0adb87", "sources": "[{'property': '', 'dataset': 'OpenStreetMap', 'license': 'ODbL-1.0', 'record_id': 'n1251022818@1', 'update_time': '2011-04-19T10:26:14Z', 'confidence': None, 'between': None, 'provider': 'osm', 'resource': 'planet', 'version': '2026-08-05'}]", "version": 1, "bbox": { "xmin": 9.735454559326172, "xmax": 9.735456466674805, "ymin": 61.600318908691406, "ymax": 61.60032653808594 }, "connector_id": null, "matched_data": null, "match_status": "Unmatched" }, "geometry": { "type": "Point", "coordinates": [ 9.7354561, 61.6003207 ] } },
{ "type": "Feature", "properties": { "id": "9fb493c1-1ab7-4f0b-a61f-4b4d7cb8aca6", "sources": "[{'property': '', 'dataset': 'OpenStreetMap', 'license': 'ODbL-1.0', 'record_id': 'n4593256879@3', 'update_time': '2024-05-08T19:47:54Z', 'confidence': None, 'between': None, 'provider': 'osm', 'resource': 'planet', 'version': '2026-08-05'}]", "version": 1, "bbox": { "xmin": 9.735410690307617, "xmax": 9.73541259765625, "ymin": 61.59770584106445, "ymax": 61.597713470458984 }, "connector_id": null, "matched_data": null, "match_status": "Unmatched" }, "geometry": { "type": "Point", "coordinates": [ 9.7354123, 61.597712 ] } },
{ "type": "Feature", "properties": { "id": "89581db0-3bc1-42ad-a0d4-869fd06c272c", "sources": "[{'property': '', 'dataset': 'OpenStreetMap', 'license': 'ODbL-1.0', 'record_id': 'n4729593225@3', 'update_time': '2024-05-08T19:47:54Z', 'confidence': None, 'between': None, 'provider': 'osm', 'resource': 'planet', 'version': '2026-08-05'}]", "version": 1, "bbox": { "xmin": 9.735952377319336, "xmax": 9.735953330993652, "ymin": 61.597869873046875, "ymax": 61.597877502441406 }, "connector_id": null, "matched_data": null, "match_status": "Unmatched" }, "geometry": { "type": "Point", "coordinates": [ 9.7359524, 61.5978762 ] } },
{ "type": "Feature", "properties": { "id": "c8458dec-0633-4b0b-aa10-1bca46511ad0", "sources": "[{'property': '', 'dataset': 'OpenStreetMap', 'license': 'ODbL-1.0', 'record_id': 'n11770723293@2', 'update_time': '2024-03-29T14:10:06Z', 'confidence': None, 'between': None, 'provider': 'osm', 'resource': 'planet', 'version': '2026-08-05'}]", "version": 1, "bbox": { "xmin": 9.740930557250977, "xmax": 9.74093246459961, "ymin": 61.60014724731445, "ymax": 61.600154876708984 }, "connector_id": null, "matched_data": null, "match_status": "Unmatched" }, "geometry": { "type": "Point", "coordinates": [ 9.740931, 61.6001532 ] } },
{ "type": "Feature", "properties": { "id": "eeb6e5b6-a3c3-4327-a83c-c057cee3e3aa", "sources": "[{'property': '', 'dataset': 'OpenStreetMap', 'license': 'ODbL-1.0', 'record_id': 'n11770723287@1', 'update_time': '2024-03-29T06:36:43Z', 'confidence': None, 'between': None, 'provider': 'osm', 'resource': 'planet', 'version': '2026-08-05'}]", "version": 1, "bbox": { "xmin": 9.740845680236816, "xmax": 9.74084758758545, "ymin": 61.60014343261719, "ymax": 61.60015106201172 }, "connector_id": null, "matched_data": null, "match_status": "Unmatched" }, "geometry": { "type": "Point", "coordinates": [ 9.7408472, 61.6001497 ] } },
{ "type": "Feature", "properties": { "id": "23cfba67-0ded-4816-b370-95755437998f", "sources": "[{'property': '', 'dataset': 'OpenStreetMap', 'license': 'ODbL-1.0', 'record_id': 'n11770723301@2', 'update_time': '2024-03-29T14:10:06Z', 'confidence': None, 'between': None, 'provider': 'osm', 'resource': 'planet', 'version': '2026-08-05'}]", "version": 1, "bbox": { "xmin": 9.740687370300293, "xmax": 9.74068832397461, "ymin": 61.599510192871094, "ymax": 61.599517822265625 }, "connector_id": null, "matched_data": null, "match_status": "Unmatched" }, "geometry": { "type": "Point", "coordinates": [ 9.7406882, 61.5995118 ] } },
{ "type": "Feature", "properties": { "id": "14b0d650-23ef-4e28-a6ed-990b4e93502a", "sources": "[{'property': '', 'dataset': 'OpenStreetMap', 'license': 'ODbL-1.0', 'record_id': 'n4786540728@6', 'update_time': '2022-08-01T21:15:12Z', 'confidence': None, 'between': None, 'provider': 'osm', 'resource': 'planet', 'version': '2026-08-05'}]", "version": 1, "bbox": { "xmin": 9.744003295898438, "xmax": 9.744004249572754, "ymin": 61.597103118896484, "ymax": 61.597110748291016 }, "connector_id": null, "matched_data": null, "match_status": "Unmatched" }, "geometry": { "type": "Point", "coordinates": [ 9.744004, 61.5971037 ] } },
{ "type": "Feature", "properties": { "id": "63b7d8b5-c3d7-4628-a549-6f68dd53781f", "sources": "[{'property': '', 'dataset': 'OpenStreetMap', 'license': 'ODbL-1.0', 'record_id': 'n1251022820@3', 'update_time': '2020-01-23T23:50:32Z', 'confidence': None, 'between': None, 'provider': 'osm', 'resource': 'planet', 'version': '2026-08-05'}]", "version": 1, "bbox": { "xmin": 9.742756843566895, "xmax": 9.742758750915527, "ymin": 61.599143981933594, "ymax": 61.599151611328125 }, "connector_id": null, "matched_data": null, "match_status": "Unmatched" }, "geometry": { "type": "Point", "coordinates": [ 9.7427573, 61.5991507 ] } },
{ "type": "Feature", "properties": { "id": "2448589f-8e85-4be7-9fb5-cacb8ec9db0a", "sources": "[{'property': '', 'dataset': 'OpenStreetMap', 'license': 'ODbL-1.0', 'record_id': 'n11179229057@1', 'update_time': '2023-09-09T19:04:08Z', 'confidence': None, 'between': None, 'provider': 'osm', 'resource': 'planet', 'version': '2026-08-05'}]", "version": 1, "bbox": { "xmin": 9.747440338134766, "xmax": 9.747442245483398, "ymin": 61.60029220581055, "ymax": 61.60029983520508 }, "connector_id": null, "matched_data": null, "match_status": "Unmatched" }, "geometry": { "type": "Point", "coordinates": [ 9.7474407, 61.6002939 ] } },
{ "type": "Feature", "properties": { "id": "17fb08a3-1a8e-435e-a2c9-e0ad1b804f68", "sources": "[{'property': '', 'dataset': 'OpenStreetMap', 'license': 'ODbL-1.0', 'record_id': 'n11179229053@1', 'update_time': '2023-09-09T19:04:08Z', 'confidence': None, 'between': None, 'provider': 'osm', 'resource': 'planet', 'version': '2026-08-05'}]", "version": 1, "bbox": { "xmin": 9.748001098632812, "xmax": 9.748003005981445, "ymin": 61.6002082824707, "ymax": 61.600215911865234 }, "connector_id": null, "matched_data": null, "match_status": "Unmatched" }, "geometry": { "type": "Point", "coordinates": [ 9.7480014, 61.6002157 ] } },
{ "type": "Feature", "properties": { "id": "735337c5-50ee-4efe-b207-4bddad893391", "sources": "[{'property': '', 'dataset': 'OpenStreetMap', 'license': 'ODbL-1.0', 'record_id': 'n11179229055@1', 'update_time': '2023-09-09T19:04:08Z', 'confidence': None, 'between': None, 'provider': 'osm', 'resource': 'planet', 'version': '2026-08-05'}]", "version": 1, "bbox": { "xmin": 9.748682975769043, "xmax": 9.74868392944336, "ymin": 61.60029220581055, "ymax": 61.60029983520508 }, "connector_id": null, "matched_data": null, "match_status": "Unmatched" }, "geometry": { "type": "Point", "coordinates": [ 9.7486839, 61.6002981 ] } },
{ "type": "Feature", "properties": { "id": "9f4de3f3-034b-4698-ad60-9d0b34d29c7e", "sources": "[{'property': '', 'dataset': 'OpenStreetMap', 'license': 'ODbL-1.0', 'record_id': 'n1251022588@4', 'update_time': '2020-01-23T23:50:32Z', 'confidence': None, 'between': None, 'provider': 'osm', 'resource': 'planet', 'version': '2026-08-05'}]", "version": 1, "bbox": { "xmin": 9.748346328735352, "xmax": 9.748348236083984, "ymin": 61.596378326416016, "ymax": 61.59638595581055 }, "connector_id": null, "matched_data": null, "match_status": "Unmatched" }, "geometry": { "type": "Point", "coordinates": [ 9.7483468, 61.5963844 ] } },
{ "type": "Feature", "properties": { "id": "78254576-62bd-4d7b-a4ed-16b5f7e6f2a3", "sources": "[{'property': '', 'dataset': 'OpenStreetMap', 'license': 'ODbL-1.0', 'record_id': 'n11887819879@1', 'update_time': '2024-05-07T23:52:45Z', 'confidence': None, 'between': None, 'provider': 'osm', 'resource': 'planet', 'version': '2026-08-05'}]", "version": 1, "bbox": { "xmin": 9.717544555664062, "xmax": 9.717546463012695, "ymin": 61.60321044921875, "ymax": 61.60321807861328 }, "connector_id": null, "matched_data": null, "match_status": "Unmatched" }, "geometry": { "type": "Point", "coordinates": [ 9.7175461, 61.6032105 ] } },
{ "type": "Feature", "properties": { "id": "a2836256-ceb5-45ce-9a1e-4899c5fa206f", "sources": "[{'property': '', 'dataset': 'OpenStreetMap', 'license': 'ODbL-1.0', 'record_id': 'n11887819826@1', 'update_time': '2024-05-07T23:52:45Z', 'confidence': None, 'between': None, 'provider': 'osm', 'resource': 'planet', 'version': '2026-08-05'}]", "version": 1, "bbox": { "xmin": 9.716835021972656, "xmax": 9.716836929321289, "ymin": 61.602996826171875, "ymax": 61.603004455566406 }, "connector_id": null, "matched_data": null, "match_status": "Unmatched" }, "geometry": { "type": "Point", "coordinates": [ 9.7168365, 61.6029987 ] } },
{ "type": "Feature", "properties": { "id": "f6581f6d-b6ac-423e-949f-f2ab9b3c0991", "sources": "[{'property': '', 'dataset': 'OpenStreetMap', 'license': 'ODbL-1.0', 'record_id': 'n11887819899@1', 'update_time': '2024-05-07T23:52:45Z', 'confidence': None, 'between': None, 'provider': 'osm', 'resource': 'planet', 'version': '2026-08-05'}]", "version": 1, "bbox": { "xmin": 9.71628189086914, "xmax": 9.716283798217773, "ymin": 61.6041145324707, "ymax": 61.604122161865234 }, "connector_id": null, "matched_data": null, "match_status": "Unmatched" }, "geometry": { "type": "Point", "coordinates": [ 9.7162835, 61.6041146 ] } },
{ "type": "Feature", "properties": { "id": "5d5f9483-350d-466e-b779-4966452b17b6", "sources": "[{'property': '', 'dataset': 'OpenStreetMap', 'license': 'ODbL-1.0', 'record_id': 'n4681420059@2', 'update_time': '2017-04-02T15:46:26Z', 'confidence': None, 'between': None, 'provider': 'osm', 'resource': 'planet', 'version': '2026-08-05'}]", "version": 1, "bbox": { "xmin": 9.72413158416748, "xmax": 9.724133491516113, "ymin": 61.60409927368164, "ymax": 61.60410690307617 }, "connector_id": null, "matched_data": null, "match_status": "Unmatched" }, "geometry": { "type": "Point", "coordinates": [ 9.7241332, 61.6041067 ] } },
{ "type": "Feature", "properties": { "id": "2e1beac5-69d5-4b76-904f-4662efbc7597", "sources": "[{'property': '', 'dataset': 'OpenStreetMap', 'license': 'ODbL-1.0', 'record_id': 'n1359953977@1', 'update_time': '2011-07-12T22:48:17Z', 'confidence': None, 'between': None, 'provider': 'osm', 'resource': 'planet', 'version': '2026-08-05'}]", "version": 1, "bbox": { "xmin": 9.722805976867676, "xmax": 9.722806930541992, "ymin": 61.598045349121094, "ymax": 61.598052978515625 }, "connector_id": null, "matched_data": null, "match_status": "Unmatched" }, "geometry": { "type": "Point", "coordinates": [ 9.7228067, 61.5980464 ] } },
{ "type": "Feature", "properties": { "id": "272c4173-1410-4449-96a4-9d3e9c89d678", "sources": "[{'property': '', 'dataset': 'OpenStreetMap', 'license': 'ODbL-1.0', 'record_id': 'n12500535539@1', 'update_time': '2025-01-14T10:31:16Z', 'confidence': None, 'between': None, 'provider': 'osm', 'resource': 'planet', 'version': '2026-08-05'}]", "version": 1, "bbox": { "xmin": 9.723294258117676, "xmax": 9.723296165466309, "ymin": 61.6033821105957, "ymax": 61.603389739990234 }, "connector_id": null, "matched_data": null, "match_status": "Unmatched" }, "geometry": { "type": "Point", "coordinates": [ 9.7232958, 61.6033886 ] } },
{ "type": "Feature", "properties": { "id": "cfed8aca-0363-4039-a61c-410419cad622", "sources": "[{'property': '', 'dataset': 'OpenStreetMap', 'license': 'ODbL-1.0', 'record_id': 'n1251022586@1', 'update_time': '2011-04-19T10:26:02Z', 'confidence': None, 'between': None, 'provider': 'osm', 'resource': 'planet', 'version': '2026-08-05'}]", "version": 1, "bbox": { "xmin": 9.726384162902832, "xmax": 9.726385116577148, "ymin": 61.60380554199219, "ymax": 61.60381317138672 }, "connector_id": null, "matched_data": null, "match_status": "Unmatched" }, "geometry": { "type": "Point", "coordinates": [ 9.7263842, 61.6038074 ] } },
{ "type": "Feature", "properties": { "id": "8e8b7064-23ec-43a8-8fc6-8de7df1f1cd0", "sources": "[{'property': '', 'dataset': 'OpenStreetMap', 'license': 'ODbL-1.0', 'record_id': 'n4681420064@2', 'update_time': '2017-04-02T15:46:26Z', 'confidence': None, 'between': None, 'provider': 'osm', 'resource': 'planet', 'version': '2026-08-05'}]", "version": 1, "bbox": { "xmin": 9.725228309631348, "xmax": 9.725229263305664, "ymin": 61.603919982910156, "ymax": 61.60392761230469 }, "connector_id": null, "matched_data": null, "match_status": "Unmatched" }, "geometry": { "type": "Point", "coordinates": [ 9.7252291, 61.6039271 ] } },
{ "type": "Feature", "properties": { "id": "c91411f4-2e96-4ffb-aaa0-a72ac7ddc7a2", "sources": "[{'property': '', 'dataset': 'OpenStreetMap', 'license': 'ODbL-1.0', 'record_id': 'n4776990912@3', 'update_time': '2021-08-26T21:31:52Z', 'confidence': None, 'between': None, 'provider': 'osm', 'resource': 'planet', 'version': '2026-08-05'}]", "version": 1, "bbox": { "xmin": 9.727396011352539, "xmax": 9.727396965026855, "ymin": 61.60042190551758, "ymax": 61.60042953491211 }, "connector_id": null, "matched_data": null, "match_status": "Unmatched" }, "geometry": { "type": "Point", "coordinates": [ 9.7273968, 61.6004287 ] } },
{ "type": "Feature", "properties": { "id": "76fd3854-049b-4021-8139-f07e070e34cc", "sources": "[{'property': '', 'dataset': 'OpenStreetMap', 'license': 'ODbL-1.0', 'record_id': 'n2337843964@2', 'update_time': '2016-08-29T07:54:14Z', 'confidence': None, 'between': None, 'provider': 'osm', 'resource': 'planet', 'version': '2026-08-05'}]", "version": 1, "bbox": { "xmin": 9.698305130004883, "xmax": 9.6983060836792, "ymin": 61.666603088378906, "ymax": 61.66661071777344 }, "connector_id": null, "matched_data": null, "match_status": "Unmatched" }, "geometry": { "type": "Point", "coordinates": [ 9.6983059, 61.6666049 ] } },
{ "type": "Feature", "properties": { "id": "346a4b15-9b55-4a4a-ad16-4043ec2c1ca3", "sources": "[{'property': '', 'dataset': 'OpenStreetMap', 'license': 'ODbL-1.0', 'record_id': 'n2337835743@2', 'update_time': '2016-08-29T07:54:14Z', 'confidence': None, 'between': None, 'provider': 'osm', 'resource': 'planet', 'version': '2026-08-05'}]", "version": 1, "bbox": { "xmin": 9.698410034179688, "xmax": 9.69841194152832, "ymin": 61.666603088378906, "ymax": 61.66661071777344 }, "connector_id": null, "matched_data": null, "match_status": "Unmatched" }, "geometry": { "type": "Point", "coordinates": [ 9.6984105, 61.66661 ] } },
{ "type": "Feature", "properties": { "id": "5251bb52-f296-49c1-8744-79d89d07bb2c", "sources": "[{'property': '', 'dataset': 'OpenStreetMap', 'license': 'ODbL-1.0', 'record_id': 'n6574234923@1', 'update_time': '2019-06-27T09:00:59Z', 'confidence': None, 'between': None, 'provider': 'osm', 'resource': 'planet', 'version': '2026-08-05'}]", "version": 1, "bbox": { "xmin": 9.687142372131348, "xmax": 9.687143325805664, "ymin": 61.66779327392578, "ymax": 61.66780090332031 }, "connector_id": null, "matched_data": null, "match_status": "Unmatched" }, "geometry": { "type": "Point", "coordinates": [ 9.6871425, 61.6677998 ] } },
{ "type": "Feature", "properties": { "id": "061941cc-1d8a-4f44-a4af-77f78503a6a9", "sources": "[{'property': '', 'dataset': 'OpenStreetMap', 'license': 'ODbL-1.0', 'record_id': 'n6574234697@1', 'update_time': '2019-06-27T09:00:59Z', 'confidence': None, 'between': None, 'provider': 'osm', 'resource': 'planet', 'version': '2026-08-05'}]", "version": 1, "bbox": { "xmin": 9.683878898620605, "xmax": 9.683879852294922, "ymin": 61.66461181640625, "ymax": 61.66461944580078 }, "connector_id": null, "matched_data": null, "match_status": "Unmatched" }, "geometry": { "type": "Point", "coordinates": [ 9.6838796, 61.6646186 ] } },
{ "type": "Feature", "properties": { "id": "50151cb0-299b-48cc-af67-6571e1250923", "sources": "[{'property': '', 'dataset': 'OpenStreetMap', 'license': 'ODbL-1.0', 'record_id': 'n6574234705@1', 'update_time': '2019-06-27T09:00:59Z', 'confidence': None, 'between': None, 'provider': 'osm', 'resource': 'planet', 'version': '2026-08-05'}]", "version": 1, "bbox": { "xmin": 9.68482494354248, "xmax": 9.684825897216797, "ymin": 61.66457748413086, "ymax": 61.66458511352539 }, "connector_id": null, "matched_data": null, "match_status": "Unmatched" }, "geometry": { "type": "Point", "coordinates": [ 9.6848251, 61.6645785 ] } },
{ "type": "Feature", "properties": { "id": "5bad9a8a-1af2-484f-ae61-b762457d297b", "sources": "[{'property': '', 'dataset': 'OpenStreetMap', 'license': 'ODbL-1.0', 'record_id': 'n2337832825@1', 'update_time': '2013-06-09T06:30:42Z', 'confidence': None, 'between': None, 'provider': 'osm', 'resource': 'planet', 'version': '2026-08-05'}]", "version": 1, "bbox": { "xmin": 9.681830406188965, "xmax": 9.681832313537598, "ymin": 61.66627883911133, "ymax": 61.66628646850586 }, "connector_id": null, "matched_data": null, "match_status": "Unmatched" }, "geometry": { "type": "Point", "coordinates": [ 9.6818307, 61.6662853 ] } },
{ "type": "Feature", "properties": { "id": "d493c510-4613-4fa5-b769-f0173c45c23c", "sources": "[{'property': '', 'dataset': 'OpenStreetMap', 'license': 'ODbL-1.0', 'record_id': 'n2337832821@1', 'update_time': '2013-06-09T06:30:42Z', 'confidence': None, 'between': None, 'provider': 'osm', 'resource': 'planet', 'version': '2026-08-05'}]", "version": 1, "bbox": { "xmin": 9.682619094848633, "xmax": 9.68262004852295, "ymin": 61.66864776611328, "ymax": 61.66865539550781 }, "connector_id": null, "matched_data": null, "match_status": "Unmatched" }, "geometry": { "type": "Point", "coordinates": [ 9.6826192, 61.6686479 ] } },
{ "type": "Feature", "properties": { "id": "44c54294-eba3-4656-ad7a-47d9ea394a2d", "sources": "[{'property': '', 'dataset': 'OpenStreetMap', 'license': 'ODbL-1.0', 'record_id': 'n2289041158@2', 'update_time': '2016-08-29T07:54:13Z', 'confidence': None, 'between': None, 'provider': 'osm', 'resource': 'planet', 'version': '2026-08-05'}]", "version": 1, "bbox": { "xmin": 9.682878494262695, "xmax": 9.682879447937012, "ymin": 61.664127349853516, "ymax": 61.66413497924805 }, "connector_id": null, "matched_data": null, "match_status": "Unmatched" }, "geometry": { "type": "Point", "coordinates": [ 9.6828793, 61.6641286 ] } },
{ "type": "Feature", "properties": { "id": "7e80d92b-d330-4b83-9814-d275195d8799", "sources": "[{'property': '', 'dataset': 'OpenStreetMap', 'license': 'ODbL-1.0', 'record_id': 'n6574228805@1', 'update_time': '2019-06-27T09:01:00Z', 'confidence': None, 'between': None, 'provider': 'osm', 'resource': 'planet', 'version': '2026-08-05'}]", "version": 1, "bbox": { "xmin": 9.68972396850586, "xmax": 9.689724922180176, "ymin": 61.669002532958984, "ymax": 61.669010162353516 }, "connector_id": null, "matched_data": null, "match_status": "Unmatched" }, "geometry": { "type": "Point", "coordinates": [ 9.6897248, 61.669003 ] } },
{ "type": "Feature", "properties": { "id": "12f5f5be-27f0-49e9-ad11-d1206bc0be84", "sources": "[{'property': '', 'dataset': 'OpenStreetMap', 'license': 'ODbL-1.0', 'record_id': 'n9462599511@1', 'update_time': '2022-01-31T09:48:12Z', 'confidence': None, 'between': None, 'provider': 'osm', 'resource': 'planet', 'version': '2026-08-05'}]", "version": 1, "bbox": { "xmin": 9.692435264587402, "xmax": 9.692436218261719, "ymin": 61.66692352294922, "ymax": 61.66693115234375 }, "connector_id": null, "matched_data": null, "match_status": "Unmatched" }, "geometry": { "type": "Point", "coordinates": [ 9.6924361, 61.6669309 ] } },
{ "type": "Feature", "properties": { "id": "7c87c412-3ae2-4157-8e9a-709651f34b2c", "sources": "[{'property': '', 'dataset': 'OpenStreetMap', 'license': 'ODbL-1.0', 'record_id': 'n2337832737@1', 'update_time': '2013-06-09T06:29:18Z', 'confidence': None, 'between': None, 'provider': 'osm', 'resource': 'planet', 'version': '2026-08-05'}]", "version": 1, "bbox": { "xmin": 9.678707122802734, "xmax": 9.678709030151367, "ymin": 61.66847610473633, "ymax": 61.66848373413086 }, "connector_id": null, "matched_data": null, "match_status": "Unmatched" }, "geometry": { "type": "Point", "coordinates": [ 9.6787086, 61.6684773 ] } },
{ "type": "Feature", "properties": { "id": "80829f3d-a214-457a-b74d-cb63ee5e9064", "sources": "[{'property': '', 'dataset': 'OpenStreetMap', 'license': 'ODbL-1.0', 'record_id': 'n2295541829@2', 'update_time': '2019-06-27T09:01:00Z', 'confidence': None, 'between': None, 'provider': 'osm', 'resource': 'planet', 'version': '2026-08-05'}]", "version": 1, "bbox": { "xmin": 9.679465293884277, "xmax": 9.679466247558594, "ymin": 61.66373825073242, "ymax": 61.66374588012695 }, "connector_id": null, "matched_data": null, "match_status": "Unmatched" }, "geometry": { "type": "Point", "coordinates": [ 9.679466, 61.6637389 ] } },
{ "type": "Feature", "properties": { "id": "d95919d7-48f7-4c7c-b639-6c7aef21f6b4", "sources": "[{'property': '', 'dataset': 'OpenStreetMap', 'license': 'ODbL-1.0', 'record_id': 'n2337831743@2', 'update_time': '2019-06-27T09:01:00Z', 'confidence': None, 'between': None, 'provider': 'osm', 'resource': 'planet', 'version': '2026-08-05'}]", "version": 1, "bbox": { "xmin": 9.674137115478516, "xmax": 9.674138069152832, "ymin": 61.664180755615234, "ymax": 61.664188385009766 }, "connector_id": null, "matched_data": null, "match_status": "Unmatched" }, "geometry": { "type": "Point", "coordinates": [ 9.6741378, 61.664187 ] } },
{ "type": "Feature", "properties": { "id": "711fbb5a-ea1e-4729-8ecb-68277b0d932c", "sources": "[{'property': '', 'dataset': 'OpenStreetMap', 'license': 'ODbL-1.0', 'record_id': 'n2337831739@2', 'update_time': '2019-06-27T09:01:00Z', 'confidence': None, 'between': None, 'provider': 'osm', 'resource': 'planet', 'version': '2026-08-05'}]", "version": 1, "bbox": { "xmin": 9.673954963684082, "xmax": 9.673956871032715, "ymin": 61.663352966308594, "ymax": 61.663360595703125 }, "connector_id": null, "matched_data": null, "match_status": "Unmatched" }, "geometry": { "type": "Point", "coordinates": [ 9.6739554, 61.6633532 ] } },
{ "type": "Feature", "properties": { "id": "523d0fca-95db-4acc-a89f-286cc83c768c", "sources": "[{'property': '', 'dataset': 'OpenStreetMap', 'license': 'ODbL-1.0', 'record_id': 'n7072843375@1', 'update_time': '2019-12-20T19:05:20Z', 'confidence': None, 'between': None, 'provider': 'osm', 'resource': 'planet', 'version': '2026-08-05'}]", "version": 1, "bbox": { "xmin": 9.91386604309082, "xmax": 9.913867950439453, "ymin": 61.56635665893555, "ymax": 61.56636428833008 }, "connector_id": null, "matched_data": null, "match_status": "Unmatched" }, "geometry": { "type": "Point", "coordinates": [ 9.9138664, 61.5663579 ] } },
{ "type": "Feature", "properties": { "id": "4a2ec833-5842-4018-9fb3-5e54b1d7a776", "sources": "[{'property': '', 'dataset': 'OpenStreetMap', 'license': 'ODbL-1.0', 'record_id': 'n10949244160@1', 'update_time': '2023-06-03T18:10:03Z', 'confidence': None, 'between': None, 'provider': 'osm', 'resource': 'planet', 'version': '2026-08-05'}]", "version": 1, "bbox": { "xmin": 9.881926536560059, "xmax": 9.881928443908691, "ymin": 61.5733528137207, "ymax": 61.573360443115234 }, "connector_id": null, "matched_data": null, "match_status": "Unmatched" }, "geometry": { "type": "Point", "coordinates": [ 9.8819281, 61.5733598 ] } },
{ "type": "Feature", "properties": { "id": "718fbebb-a13c-4fdd-880e-1474db2eb73b", "sources": "[{'property': '', 'dataset': 'OpenStreetMap', 'license': 'ODbL-1.0', 'record_id': 'n7072888832@1', 'update_time': '2019-12-20T19:05:32Z', 'confidence': None, 'between': None, 'provider': 'osm', 'resource': 'planet', 'version': '2026-08-05'}]", "version": 1, "bbox": { "xmin": 9.876562118530273, "xmax": 9.876564025878906, "ymin": 61.57541275024414, "ymax": 61.57542037963867 }, "connector_id": null, "matched_data": null, "match_status": "Unmatched" }, "geometry": { "type": "Point", "coordinates": [ 9.8765637, 61.5754144 ] } },
{ "type": "Feature", "properties": { "id": "3d7e8e47-163d-4db9-942f-4f9dad1bda7c", "sources": "[{'property': '', 'dataset': 'OpenStreetMap', 'license': 'ODbL-1.0', 'record_id': 'n11770804210@1', 'update_time': '2024-03-29T07:49:56Z', 'confidence': None, 'between': None, 'provider': 'osm', 'resource': 'planet', 'version': '2026-08-05'}]", "version": 1, "bbox": { "xmin": 9.786527633666992, "xmax": 9.786529541015625, "ymin": 61.58464431762695, "ymax": 61.584651947021484 }, "connector_id": null, "matched_data": null, "match_status": "Unmatched" }, "geometry": { "type": "Point", "coordinates": [ 9.7865291, 61.5846447 ] } },
{ "type": "Feature", "properties": { "id": "91f2712a-9f1c-48d7-a089-955b529b0bc5", "sources": "[{'property': '', 'dataset': 'OpenStreetMap', 'license': 'ODbL-1.0', 'record_id': 'n9776371783@1', 'update_time': '2022-05-28T06:41:32Z', 'confidence': None, 'between': None, 'provider': 'osm', 'resource': 'planet', 'version': '2026-08-05'}]", "version": 1, "bbox": { "xmin": 10.093254089355469, "xmax": 10.093255996704102, "ymin": 61.46400451660156, "ymax": 61.464012145996094 }, "connector_id": null, "matched_data": null, "match_status": "Unmatched" }, "geometry": { "type": "Point", "coordinates": [ 10.0932544, 61.464012 ] } },
{ "type": "Feature", "properties": { "id": "6cf3e7a4-62c2-4cb6-8386-97e76a53b667", "sources": "[{'property': '', 'dataset': 'OpenStreetMap', 'license': 'ODbL-1.0', 'record_id': 'n7078064967@1', 'update_time': '2019-12-22T18:12:48Z', 'confidence': None, 'between': None, 'provider': 'osm', 'resource': 'planet', 'version': '2026-08-05'}]", "version": 1, "bbox": { "xmin": 10.089948654174805, "xmax": 10.089950561523438, "ymin": 61.453670501708984, "ymax": 61.453678131103516 }, "connector_id": null, "matched_data": null, "match_status": "Unmatched" }, "geometry": { "type": "Point", "coordinates": [ 10.0899491, 61.453671 ] } },
{ "type": "Feature", "properties": { "id": "692473ca-0a30-439f-8269-6d0c5db6df6a", "sources": "[{'property': '', 'dataset': 'OpenStreetMap', 'license': 'ODbL-1.0', 'record_id': 'n10872943582@1', 'update_time': '2023-05-06T08:32:17Z', 'confidence': None, 'between': None, 'provider': 'osm', 'resource': 'planet', 'version': '2026-08-05'}]", "version": 1, "bbox": { "xmin": 10.133199691772461, "xmax": 10.133200645446777, "ymin": 61.44926452636719, "ymax": 61.44927215576172 }, "connector_id": null, "matched_data": null, "match_status": "Unmatched" }, "geometry": { "type": "Point", "coordinates": [ 10.1332006, 61.4492708 ] } },
{ "type": "Feature", "properties": { "id": "f979ea6d-e2d5-4eea-a36b-588a23b9f2ca", "sources": "[{'property': '', 'dataset': 'OpenStreetMap', 'license': 'ODbL-1.0', 'record_id': 'n7078148268@2', 'update_time': '2026-04-08T15:23:49Z', 'confidence': None, 'between': None, 'provider': 'osm', 'resource': 'planet', 'version': '2026-08-05'}]", "version": 1, "bbox": { "xmin": 10.130033493041992, "xmax": 10.130035400390625, "ymin": 61.44907760620117, "ymax": 61.4490852355957 }, "connector_id": null, "matched_data": null, "match_status": "Unmatched" }, "geometry": { "type": "Point", "coordinates": [ 10.1300339, 61.449078 ] } },
{ "type": "Feature", "properties": { "id": "87b515bc-131e-463c-b9e4-1b753c91546f", "sources": "[{'property': '', 'dataset': 'OpenStreetMap', 'license': 'ODbL-1.0', 'record_id': 'n10872943601@2', 'update_time': '2026-04-08T15:23:49Z', 'confidence': None, 'between': None, 'provider': 'osm', 'resource': 'planet', 'version': '2026-08-05'}]", "version": 1, "bbox": { "xmin": 10.129152297973633, "xmax": 10.12915325164795, "ymin": 61.448951721191406, "ymax": 61.44895935058594 }, "connector_id": null, "matched_data": null, "match_status": "Unmatched" }, "geometry": { "type": "Point", "coordinates": [ 10.1291531, 61.4489529 ] } },
{ "type": "Feature", "properties": { "id": "e246c814-02fc-4211-85cd-9e3c95bfaf68", "sources": "[{'property': '', 'dataset': 'OpenStreetMap', 'license': 'ODbL-1.0', 'record_id': 'n10872946128@1', 'update_time': '2023-05-06T08:32:17Z', 'confidence': None, 'between': None, 'provider': 'osm', 'resource': 'planet', 'version': '2026-08-05'}]", "version": 1, "bbox": { "xmin": 10.146442413330078, "xmax": 10.146443367004395, "ymin": 61.46576690673828, "ymax": 61.46577453613281 }, "connector_id": null, "matched_data": null, "match_status": "Unmatched" }, "geometry": { "type": "Point", "coordinates": [ 10.1464426, 61.4657674 ] } },
{ "type": "Feature", "properties": { "id": "a249ed1e-a259-474c-a515-ce4e39f35858", "sources": "[{'property': '', 'dataset': 'OpenStreetMap', 'license': 'ODbL-1.0', 'record_id': 'n7078060169@1', 'update_time': '2019-12-22T18:12:48Z', 'confidence': None, 'between': None, 'provider': 'osm', 'resource': 'planet', 'version': '2026-08-05'}]", "version": 1, "bbox": { "xmin": 10.20044231414795, "xmax": 10.200443267822266, "ymin": 61.4522705078125, "ymax": 61.45227813720703 }, "connector_id": null, "matched_data": null, "match_status": "Unmatched" }, "geometry": { "type": "Point", "coordinates": [ 10.2004424, 61.452271 ] } },
{ "type": "Feature", "properties": { "id": "eb9e7084-f4a4-422a-9762-0caba17eb2c3", "sources": "[{'property': '', 'dataset': 'OpenStreetMap', 'license': 'ODbL-1.0', 'record_id': 'n7078056872@1', 'update_time': '2019-12-22T18:12:48Z', 'confidence': None, 'between': None, 'provider': 'osm', 'resource': 'planet', 'version': '2026-08-05'}]", "version": 1, "bbox": { "xmin": 10.204307556152344, "xmax": 10.204309463500977, "ymin": 61.444732666015625, "ymax": 61.444740295410156 }, "connector_id": null, "matched_data": null, "match_status": "Unmatched" }, "geometry": { "type": "Point", "coordinates": [ 10.204309, 61.4447398 ] } },
{ "type": "Feature", "properties": { "id": "eff8c5ae-10b3-4f7d-b32f-743c940c9f87", "sources": "[{'property': '', 'dataset': 'OpenStreetMap', 'license': 'ODbL-1.0', 'record_id': 'n9017055078@1', 'update_time': '2021-08-18T11:37:52Z', 'confidence': None, 'between': None, 'provider': 'osm', 'resource': 'planet', 'version': '2026-08-05'}]", "version": 1, "bbox": { "xmin": 9.926081657409668, "xmax": 9.926082611083984, "ymin": 61.56844711303711, "ymax": 61.56845474243164 }, "connector_id": null, "matched_data": null, "match_status": "Unmatched" }, "geometry": { "type": "Point", "coordinates": [ 9.9260824, 61.5684547 ] } },
{ "type": "Feature", "properties": { "id": "cd57e04a-995f-4a8c-9e95-3fdc24ff2ccd", "sources": "[{'property': '', 'dataset': 'OpenStreetMap', 'license': 'ODbL-1.0', 'record_id': 'n9017055083@1', 'update_time': '2021-08-18T11:37:52Z', 'confidence': None, 'between': None, 'provider': 'osm', 'resource': 'planet', 'version': '2026-08-05'}]", "version": 1, "bbox": { "xmin": 9.926497459411621, "xmax": 9.926499366760254, "ymin": 61.568294525146484, "ymax": 61.568302154541016 }, "connector_id": null, "matched_data": null, "match_status": "Unmatched" }, "geometry": { "type": "Point", "coordinates": [ 9.9264991, 61.5683008 ] } },
{ "type": "Feature", "properties": { "id": "dc513f87-e366-4ef7-9633-0b5d49e6a25c", "sources": "[{'property': '', 'dataset': 'OpenStreetMap', 'license': 'ODbL-1.0', 'record_id': 'n7072880327@2', 'update_time': '2021-08-18T11:37:52Z', 'confidence': None, 'between': None, 'provider': 'osm', 'resource': 'planet', 'version': '2026-08-05'}]", "version": 1, "bbox": { "xmin": 9.925934791564941, "xmax": 9.925935745239258, "ymin": 61.56850814819336, "ymax": 61.56851577758789 }, "connector_id": null, "matched_data": null, "match_status": "Unmatched" }, "geometry": { "type": "Point", "coordinates": [ 9.9259348, 61.5685092 ] } },
{ "type": "Feature", "properties": { "id": "7ba50638-df0a-4caa-bd7c-1e40ddf3032a", "sources": "[{'property': '', 'dataset': 'OpenStreetMap', 'license': 'ODbL-1.0', 'record_id': 'n7072843271@1', 'update_time': '2019-12-20T19:05:20Z', 'confidence': None, 'between': None, 'provider': 'osm', 'resource': 'planet', 'version': '2026-08-05'}]", "version": 1, "bbox": { "xmin": 9.941679954528809, "xmax": 9.941680908203125, "ymin": 61.556396484375, "ymax": 61.55640411376953 }, "connector_id": null, "matched_data": null, "match_status": "Unmatched" }, "geometry": { "type": "Point", "coordinates": [ 9.9416808, 61.5564023 ] } },
{ "type": "Feature", "properties": { "id": "1779fe33-6d77-45ef-9c29-0d4219a1fd65", "sources": "[{'property': '', 'dataset': 'OpenStreetMap', 'license': 'ODbL-1.0', 'record_id': 'n7072866076@1', 'update_time': '2019-12-20T19:05:26Z', 'confidence': None, 'between': None, 'provider': 'osm', 'resource': 'planet', 'version': '2026-08-05'}]", "version": 1, "bbox": { "xmin": 9.943131446838379, "xmax": 9.943133354187012, "ymin": 61.5533447265625, "ymax": 61.55335235595703 }, "connector_id": null, "matched_data": null, "match_status": "Unmatched" }, "geometry": { "type": "Point", "coordinates": [ 9.9431318, 61.5533463 ] } },
{ "type": "Feature", "properties": { "id": "a8f3f93f-5708-407f-8b64-e2f781e0ea72", "sources": "[{'property': '', 'dataset': 'OpenStreetMap', 'license': 'ODbL-1.0', 'record_id': 'n7072868369@1', 'update_time': '2019-12-20T19:05:26Z', 'confidence': None, 'between': None, 'provider': 'osm', 'resource': 'planet', 'version': '2026-08-05'}]", "version": 1, "bbox": { "xmin": 9.94894790649414, "xmax": 9.948949813842773, "ymin": 61.55152130126953, "ymax": 61.55152893066406 }, "connector_id": null, "matched_data": null, "match_status": "Unmatched" }, "geometry": { "type": "Point", "coordinates": [ 9.9489483, 61.5515224 ] } },
{ "type": "Feature", "properties": { "id": "09613735-16d0-4fd5-8a61-221eeffd4578", "sources": "[{'property': '', 'dataset': 'OpenStreetMap', 'license': 'ODbL-1.0', 'record_id': 'n7072887606@1', 'update_time': '2019-12-20T19:05:32Z', 'confidence': None, 'between': None, 'provider': 'osm', 'resource': 'planet', 'version': '2026-08-05'}]", "version": 1, "bbox": { "xmin": 9.954194068908691, "xmax": 9.954195022583008, "ymin": 61.54741287231445, "ymax": 61.547420501708984 }, "connector_id": null, "matched_data": null, "match_status": "Unmatched" }, "geometry": { "type": "Point", "coordinates": [ 9.9541941, 61.5474193 ] } },
{ "type": "Feature", "properties": { "id": "2a5f8dbf-85cd-4ea2-a1e2-f6b94e7145fb", "sources": "[{'property': '', 'dataset': 'OpenStreetMap', 'license': 'ODbL-1.0', 'record_id': 'n7072841099@1', 'update_time': '2019-12-20T19:05:20Z', 'confidence': None, 'between': None, 'provider': 'osm', 'resource': 'planet', 'version': '2026-08-05'}]", "version": 1, "bbox": { "xmin": 9.981273651123047, "xmax": 9.98127555847168, "ymin": 61.537628173828125, "ymax": 61.537635803222656 }, "connector_id": null, "matched_data": null, "match_status": "Unmatched" }, "geometry": { "type": "Point", "coordinates": [ 9.9812751, 61.5376343 ] } },
{ "type": "Feature", "properties": { "id": "63fda27b-38eb-4358-b804-6ebce195491b", "sources": "[{'property': '', 'dataset': 'OpenStreetMap', 'license': 'ODbL-1.0', 'record_id': 'n14010810504@1', 'update_time': '2026-07-13T15:29:24Z', 'confidence': None, 'between': None, 'provider': 'osm', 'resource': 'planet', 'version': '2026-08-05'}]", "version": 1, "bbox": { "xmin": 9.979706764221191, "xmax": 9.979708671569824, "ymin": 61.54106903076172, "ymax": 61.54107666015625 }, "connector_id": null, "matched_data": null, "match_status": "Unmatched" }, "geometry": { "type": "Point", "coordinates": [ 9.9797072, 61.5410709 ] } },
{ "type": "Feature", "properties": { "id": "e3e3231b-68d6-4e08-8292-a9ab4db23bcb", "sources": "[{'property': '', 'dataset': 'OpenStreetMap', 'license': 'ODbL-1.0', 'record_id': 'n7072862880@1', 'update_time': '2019-12-20T19:05:26Z', 'confidence': None, 'between': None, 'provider': 'osm', 'resource': 'planet', 'version': '2026-08-05'}]", "version": 1, "bbox": { "xmin": 9.993185043334961, "xmax": 9.993186950683594, "ymin": 61.5346794128418, "ymax": 61.53468704223633 }, "connector_id": null, "matched_data": null, "match_status": "Unmatched" }, "geometry": { "type": "Point", "coordinates": [ 9.9931854, 61.5346866 ] } },
{ "type": "Feature", "properties": { "id": "2dff5171-628c-4888-90bd-4eba20548c8c", "sources": "[{'property': '', 'dataset': 'OpenStreetMap', 'license': 'ODbL-1.0', 'record_id': 'n7072862874@1', 'update_time': '2019-12-20T19:05:26Z', 'confidence': None, 'between': None, 'provider': 'osm', 'resource': 'planet', 'version': '2026-08-05'}]", "version": 1, "bbox": { "xmin": 9.992527961730957, "xmax": 9.992528915405273, "ymin": 61.53516387939453, "ymax": 61.53517150878906 }, "connector_id": null, "matched_data": null, "match_status": "Unmatched" }, "geometry": { "type": "Point", "coordinates": [ 9.9925289, 61.5351699 ] } },
{ "type": "Feature", "properties": { "id": "3b10474e-cbf2-437a-b906-95aa86f8414f", "sources": "[{'property': '', 'dataset': 'OpenStreetMap', 'license': 'ODbL-1.0', 'record_id': 'n7078124779@2', 'update_time': '2024-12-17T23:11:02Z', 'confidence': None, 'between': None, 'provider': 'osm', 'resource': 'planet', 'version': '2026-08-05'}]", "version": 1, "bbox": { "xmin": 10.127921104431152, "xmax": 10.127923011779785, "ymin": 61.534156799316406, "ymax": 61.53416442871094 }, "connector_id": null, "matched_data": null, "match_status": "Unmatched" }, "geometry": { "type": "Point", "coordinates": [ 10.1279215, 61.5341584 ] } },
{ "type": "Feature", "properties": { "id": "3c81fc81-8ab5-439c-8140-2ac0aaa8c08a", "sources": "[{'property': '', 'dataset': 'OpenStreetMap', 'license': 'ODbL-1.0', 'record_id': 'n12427774413@1', 'update_time': '2024-12-17T23:11:02Z', 'confidence': None, 'between': None, 'provider': 'osm', 'resource': 'planet', 'version': '2026-08-05'}]", "version": 1, "bbox": { "xmin": 10.131503105163574, "xmax": 10.13150405883789, "ymin": 61.532833099365234, "ymax": 61.532840728759766 }, "connector_id": null, "matched_data": null, "match_status": "Unmatched" }, "geometry": { "type": "Point", "coordinates": [ 10.1315033, 61.5328331 ] } },
{ "type": "Feature", "properties": { "id": "5979d077-fcf8-4b3a-a2e1-3e8185805bbb", "sources": "[{'property': '', 'dataset': 'OpenStreetMap', 'license': 'ODbL-1.0', 'record_id': 'n5900342807@2', 'update_time': '2019-12-22T18:17:20Z', 'confidence': None, 'between': None, 'provider': 'osm', 'resource': 'planet', 'version': '2026-08-05'}]", "version": 1, "bbox": { "xmin": 10.145668029785156, "xmax": 10.145669937133789, "ymin": 61.53608703613281, "ymax": 61.536094665527344 }, "connector_id": null, "matched_data": null, "match_status": "Unmatched" }, "geometry": { "type": "Point", "coordinates": [ 10.1456696, 61.5360871 ] } },
{ "type": "Feature", "properties": { "id": "f974a039-49e0-4dc4-b0f1-ae389b09648f", "sources": "[{'property': '', 'dataset': 'OpenStreetMap', 'license': 'ODbL-1.0', 'record_id': 'n5708123404@1', 'update_time': '2018-06-21T10:01:55Z', 'confidence': None, 'between': None, 'provider': 'osm', 'resource': 'planet', 'version': '2026-08-05'}]", "version": 1, "bbox": { "xmin": 10.148863792419434, "xmax": 10.14886474609375, "ymin": 61.525814056396484, "ymax": 61.525821685791016 }, "connector_id": null, "matched_data": null, "match_status": "Unmatched" }, "geometry": { "type": "Point", "coordinates": [ 10.1488647, 61.5258153 ] } }
]
}
