{"type":"FeatureCollection","features":[{"type":"Feature","properties":{},"geometry":{"coordinates":[[[10.744128941780502,59.38648746044035],[10.764572395789429,59.39748641046418],[10.726904217931576,59.416753907483894],[10.727288562828733,59.458339174001026],[10.766428981546312,59.507143548214714],[10.765649221778517,59.55770436412271],[10.777977300404814,59.60376691360685],[10.772225260294675,59.63154432190893],[10.662435998858115,59.63149608887608],[10.640498380640906,59.60948528821223],[10.627982317317276,59.52853467897171],[10.571850313950279,59.42264569006366],[10.613949252069006,59.385652804827714],[10.744128941780502,59.38648746044035]]],"type":"Polygon"}}]}