{
"type": "FeatureCollection",
"crs": { "type": "name", "properties": { "name": "urn:ogc:def:crs:EPSG::5973" } },
"features": [
{ "type": "Feature", "properties": { "segment_id": "8fe9658c-e46e-4947-a4fe-d66416dd9cf8", "from_om": 0.07752202, "to_om": 0.08120389, "linksequenceId": 971546, "from_nvdb": 0.11763249819456414, "to_nvdb": 0.11773861125113834, "access_type": "denied", "when": { "during": null, "heading": null, "using": null, "recognized": null, "mode": null, "vehicle": [ { "dimension": "height", "comparison": "greater_than", "value": 4.4, "unit": "m" } ] }, "when_during": null, "when_heading": null, "when_using": null, "when_recognized": null, "when_mode": null, "when_vehicle_dimension": "height", "when_vehicle_comparison": "greater_than", "when_vehicle_value": 4.4, "when_vehicle_unit": "m" }, "geometry": { "type": "LineString", "coordinates": [ [ 255502.106194314139429, 6592319.812119770795107 ], [ 255502.105544981342973, 6592319.810122956521809 ], [ 255501.699270488752518, 6592318.800541241653264 ] ] } },
{ "type": "Feature", "properties": { "segment_id": "a198eb13-f6bd-4853-8914-a6b3996bf173", "from_om": 0.85785147, "to_om": 0.85977918, "linksequenceId": 443734, "from_nvdb": 0.90227296074351515, "to_nvdb": 0.90311539732861901, "access_type": "denied", "when": { "during": null, "heading": null, "using": null, "recognized": null, "mode": null, "vehicle": [ { "dimension": "height", "comparison": "greater_than", "value": 5.3, "unit": "m" } ] }, "when_during": null, "when_heading": null, "when_using": null, "when_recognized": null, "when_mode": null, "when_vehicle_dimension": "height", "when_vehicle_comparison": "greater_than", "when_vehicle_value": 5.3, "when_vehicle_unit": "m" }, "geometry": { "type": "LineString", "coordinates": [ [ 256575.052373271319084, 6605854.424984709359705 ], [ 256575.05216731847031, 6605854.42718655988574 ], [ 256574.952495390432887, 6605855.427555343136191 ], [ 256574.952232948446181, 6605855.430337981320918 ] ] } },
{ "type": "Feature", "properties": { "segment_id": "b3f3b832-c9a3-45c1-b21d-3ed736e96381", "from_om": 0.5377518, "to_om": 0.58834589, "linksequenceId": 443720, "from_nvdb": 0.65801806091311588, "to_nvdb": 0.67878607926870493, "access_type": "denied", "when": { "during": null, "heading": null, "using": null, "recognized": null, "mode": null, "vehicle": [ { "dimension": "height", "comparison": "greater_than", "value": 4.9, "unit": "m" } ] }, "when_during": null, "when_heading": null, "when_using": null, "when_recognized": null, "when_mode": null, "when_vehicle_dimension": "height", "when_vehicle_comparison": "greater_than", "when_vehicle_value": 4.9, "when_vehicle_unit": "m" }, "geometry": { "type": "LineString", "coordinates": [ [ 257816.810645594348898, 6604362.390187858603895 ], [ 257816.810700539179379, 6604362.390280636958778 ], [ 257824.358660558646079, 6604374.600463011302054 ], [ 257830.627940964448499, 6604384.235353786498308 ], [ 257840.201829526136862, 6604398.023468787781894 ], [ 257854.67074364083237, 6604417.30282087251544 ], [ 257854.671051097335294, 6604417.303203238174319 ] ] } },
{ "type": "Feature", "properties": { "segment_id": "b856f7df-2eee-4a84-8934-1bf1ed0fe63c", "from_om": 0.25843809, "to_om": 0.4583344014671048, "linksequenceId": 971837, "from_nvdb": 0.48948386501381919, "to_nvdb": 0.4902207, "access_type": "denied", "when": { "during": null, "heading": null, "using": null, "recognized": null, "mode": null, "vehicle": [ { "dimension": "height", "comparison": "greater_than", "value": 2.8, "unit": "m" } ] }, "when_during": null, "when_heading": null, "when_using": null, "when_recognized": null, "when_mode": null, "when_vehicle_dimension": "height", "when_vehicle_comparison": "greater_than", "when_vehicle_value": 2.8, "when_vehicle_unit": "m" }, "geometry": { "type": "LineString", "coordinates": [ [ 254263.346847436652752, 6592791.729280043393373 ], [ 254264.518029806989944, 6592795.327048109844327 ] ] } },
{ "type": "Feature", "properties": { "segment_id": "b856f7df-2eee-4a84-8934-1bf1ed0fe63c", "from_om": 0.4583344014671048, "to_om": 0.55862794, "linksequenceId": 971837, "from_nvdb": 0.4902207, "to_nvdb": 0.49060043800772812, "access_type": "denied", "when": { "during": null, "heading": null, "using": null, "recognized": null, "mode": null, "vehicle": [ { "dimension": "height", "comparison": "greater_than", "value": 2.8, "unit": "m" } ] }, "when_during": null, "when_heading": null, "when_using": null, "when_recognized": null, "when_mode": null, "when_vehicle_dimension": "height", "when_vehicle_comparison": "greater_than", "when_vehicle_value": 2.8, "when_vehicle_unit": "m" }, "geometry": { "type": "LineString", "coordinates": [ [ 254264.518029806989944, 6592795.327048109844327 ], [ 254265.104925493214978, 6592797.129939454607666 ], [ 254265.105437831807649, 6592797.13220529537648 ] ] } }
]
}
