{"type":"FeatureCollection","features":[{"type":"Feature","properties":{},"geometry":{"coordinates":[[[11.145442292347212,60.756378016403374],[11.190186512058602,60.79281593802702],[11.19008715194488,60.8195656637254],[11.15872617660358,60.836528555849725],[11.112495814593672,60.84028103879169],[11.07758717625569,60.84060794390902],[11.010981750342694,60.81555597051255],[11.016867187670186,60.798363226386385],[11.072130930860737,60.762548400141355],[11.099474918608678,60.75423062718647],[11.145442292347212,60.756378016403374]]],"type":"Polygon"}}]}
