{
"type": "FeatureCollection",
"crs": { "type": "name", "properties": { "name": "urn:ogc:def:crs:EPSG::5973" } },
"features": [
{ "type": "Feature", "properties": { "segment_id": "02d6cd2f-5720-45b5-b3e6-a37e0d6430e5", "from_om": 0.96140472, "to_om": 1.0, "linksequenceId": 704811, "from_nvdb": 0.93276641630292489, "to_nvdb": 0.96733933, "access_type": "denied", "when": { "during": null, "heading": null, "using": null, "recognized": null, "mode": null, "vehicle": [ { "dimension": "height", "comparison": "greater_than", "value": 4.8, "unit": "m" } ] }, "class": "secondary", "when_during": null, "when_heading": null, "when_using": null, "when_recognized": null, "when_mode": null, "when_vehicle_dimension": "height", "when_vehicle_comparison": "greater_than", "when_vehicle_value": 4.8, "when_vehicle_unit": "m" }, "geometry": { "type": "LineString", "coordinates": [ [ 284220.684223364572972, 6752319.844164269976318 ], [ 284220.685065124125686, 6752319.845287582837045 ], [ 284237.865851534879766, 6752343.366489971056581 ] ] } },
{ "type": "Feature", "properties": { "segment_id": "108f05b8-5bb5-463f-be91-edc18872a5bf", "from_om": 0.0364832, "to_om": 0.03926989, "linksequenceId": 656945, "from_nvdb": 0.085779185227769061, "to_nvdb": 0.089609922431285544, "access_type": "denied", "when": { "during": null, "heading": null, "using": null, "recognized": null, "mode": null, "vehicle": [ { "dimension": "height", "comparison": "greater_than", "value": 3.3, "unit": "m" } ] }, "class": "residential", "when_during": null, "when_heading": null, "when_using": null, "when_recognized": null, "when_mode": null, "when_vehicle_dimension": "height", "when_vehicle_comparison": "greater_than", "when_vehicle_value": 3.3, "when_vehicle_unit": "m" }, "geometry": { "type": "LineString", "coordinates": [ [ 282937.257356625283137, 6749380.775934808887541 ], [ 282937.252744126832113, 6749380.775495535694063 ], [ 282931.848076072637923, 6749380.189568166621029 ] ] } },
{ "type": "Feature", "properties": { "segment_id": "108f05b8-5bb5-463f-be91-edc18872a5bf", "from_om": 0.94566885, "to_om": 0.945671402, "linksequenceId": 657658, "from_nvdb": 0.66807770700781655, "to_nvdb": 0.66809293, "access_type": "denied", "when": { "during": null, "heading": null, "using": null, "recognized": null, "mode": null, "vehicle": [ { "dimension": "height", "comparison": "greater_than", "value": 4.5, "unit": "m" } ] }, "class": "residential", "when_during": null, "when_heading": null, "when_using": null, "when_recognized": null, "when_mode": null, "when_vehicle_dimension": "height", "when_vehicle_comparison": "greater_than", "when_vehicle_value": 4.5, "when_vehicle_unit": "m" }, "geometry": { "type": "LineString", "coordinates": [ [ 281618.773030154407024, 6750510.179989257827401 ], [ 281618.772515507298522, 6750510.184591551311314 ], [ 281618.772619093302637, 6750510.184927715919912 ] ] } },
{ "type": "Feature", "properties": { "segment_id": "108f05b8-5bb5-463f-be91-edc18872a5bf", "from_om": 0.945671402, "to_om": 0.949860494, "linksequenceId": 657658, "from_nvdb": 0.66809293, "to_nvdb": 0.69919054605014119, "access_type": "denied", "when": { "during": null, "heading": null, "using": null, "recognized": null, "mode": null, "vehicle": [ { "dimension": "height", "comparison": "greater_than", "value": 4.5, "unit": "m" } ] }, "class": "residential", "when_during": null, "when_heading": null, "when_using": null, "when_recognized": null, "when_mode": null, "when_vehicle_dimension": "height", "when_vehicle_comparison": "greater_than", "when_vehicle_value": 4.5, "when_vehicle_unit": "m" }, "geometry": { "type": "LineString", "coordinates": [ [ 281618.772619093302637, 6750510.184927715919912 ], [ 281619.657229021773674, 6750513.055722854100168 ], [ 281622.516401321161538, 6750517.36894329637289 ], [ 281622.516588617407251, 6750517.369206075556576 ] ] } },
{ "type": "Feature", "properties": { "segment_id": "108f05b8-5bb5-463f-be91-edc18872a5bf", "from_om": 0.949860494, "to_om": 0.990608016, "linksequenceId": 657658, "from_nvdb": 0.69919054605014119, "to_nvdb": 0.94389458, "access_type": "denied", "when": { "during": null, "heading": null, "using": null, "recognized": null, "mode": null, "vehicle": [ { "dimension": "height", "comparison": "greater_than", "value": 4.5, "unit": "m" } ] }, "class": "residential", "when_during": null, "when_heading": null, "when_using": null, "when_recognized": null, "when_mode": null, "when_vehicle_dimension": "height", "when_vehicle_comparison": "greater_than", "when_vehicle_value": 4.5, "when_vehicle_unit": "m" }, "geometry": { "type": "LineString", "coordinates": [ [ 281622.516588617407251, 6750517.369206075556576 ], [ 281624.925901009584777, 6750520.74950107280165 ], [ 281627.716455588582903, 6750522.699821388348937 ], [ 281631.694887255027425, 6750524.465635114349425 ], [ 281635.516951086523477, 6750525.459449394606054 ], [ 281640.682713643065654, 6750525.254300193861127 ], [ 281645.814098241738975, 6750523.599736513569951 ], [ 281653.123961405362934, 6750520.136745454743505 ], [ 281668.713867265556473, 6750511.25316711422056 ], [ 281679.410880778334104, 6750507.024258484132588 ], [ 281684.291501903848257, 6750506.613346111029387 ], [ 281688.608871368283872, 6750506.795255548320711 ], [ 281694.718814786407165, 6750508.653760842978954 ], [ 281694.71886700502364, 6750508.653783665969968 ] ] } },
{ "type": "Feature", "properties": { "segment_id": "108f05b8-5bb5-463f-be91-edc18872a5bf", "from_om": 0.990608016, "to_om": 1.0, "linksequenceId": 657658, "from_nvdb": 0.94389458, "to_nvdb": 1.0, "access_type": "denied", "when": { "during": null, "heading": null, "using": null, "recognized": null, "mode": null, "vehicle": [ { "dimension": "height", "comparison": "greater_than", "value": 4.5, "unit": "m" } ] }, "class": "residential", "when_during": null, "when_heading": null, "when_using": null, "when_recognized": null, "when_mode": null, "when_vehicle_dimension": "height", "when_vehicle_comparison": "greater_than", "when_vehicle_value": 4.5, "when_vehicle_unit": "m" }, "geometry": { "type": "LineString", "coordinates": [ [ 281694.71886700502364, 6750508.653783665969968 ], [ 281711.521754410408903, 6750515.997785173356533 ] ] } },
{ "type": "Feature", "properties": { "segment_id": "10a0e4da-a88f-45eb-b0cd-21c9ff7900fd", "from_om": 0.0, "to_om": 0.34681498, "linksequenceId": 650072, "from_nvdb": 1.0, "to_nvdb": 0.85367049087437064, "access_type": "denied", "when": { "during": null, "heading": null, "using": null, "recognized": null, "mode": null, "vehicle": [ { "dimension": "height", "comparison": "greater_than", "value": 2.9, "unit": "m" } ] }, "class": "tertiary", "when_during": null, "when_heading": null, "when_using": null, "when_recognized": null, "when_mode": null, "when_vehicle_dimension": "height", "when_vehicle_comparison": "greater_than", "when_vehicle_value": 2.9, "when_vehicle_unit": "m" }, "geometry": { "type": "LineString", "coordinates": [ [ 286003.418683623080142, 6746199.475527425296605 ], [ 286010.502410459099337, 6746207.133490720763803 ], [ 286012.524836011580192, 6746214.012217995710671 ], [ 286013.867681518546306, 6746220.026220212690532 ] ] } },
{ "type": "Feature", "properties": { "segment_id": "4ca42f5b-7c8a-4813-bc53-7ebf39e5992f", "from_om": 0.53284785, "to_om": 0.55457519999002092, "linksequenceId": 1911208, "from_nvdb": 0.96078001445874817, "to_nvdb": 1.0, "access_type": "denied", "when": { "during": null, "heading": null, "using": null, "recognized": null, "mode": null, "vehicle": [ { "dimension": "height", "comparison": "greater_than", "value": 3.0, "unit": "m" } ] }, "class": "secondary", "when_during": null, "when_heading": null, "when_using": null, "when_recognized": null, "when_mode": null, "when_vehicle_dimension": "height", "when_vehicle_comparison": "greater_than", "when_vehicle_value": 3.0, "when_vehicle_unit": "m" }, "geometry": { "type": "LineString", "coordinates": [ [ 285539.893804696097504, 6746357.25270898360759 ], [ 285539.378753080207389, 6746356.522041177377105 ] ] } },
{ "type": "Feature", "properties": { "segment_id": "4ca42f5b-7c8a-4813-bc53-7ebf39e5992f", "from_om": 0.55457519999002092, "to_om": 0.69595957, "linksequenceId": 705290, "from_nvdb": 0.20743641, "to_nvdb": 0.20956408185869255, "access_type": "denied", "when": { "during": null, "heading": null, "using": null, "recognized": null, "mode": null, "vehicle": [ { "dimension": "height", "comparison": "greater_than", "value": 3.0, "unit": "m" } ] }, "class": "secondary", "when_during": null, "when_heading": null, "when_using": null, "when_recognized": null, "when_mode": null, "when_vehicle_dimension": "height", "when_vehicle_comparison": "greater_than", "when_vehicle_value": 3.0, "when_vehicle_unit": "m" }, "geometry": { "type": "LineString", "coordinates": [ [ 285539.378753080207389, 6746356.522041177377105 ], [ 285536.028698942507617, 6746351.769553009420633 ], [ 285536.0267904184293, 6746351.767798885703087 ] ] } },
{ "type": "Feature", "properties": { "segment_id": "6096a356-d51c-4415-8c7c-e6bb2beff93d", "from_om": 0.56973696, "to_om": 0.66380748, "linksequenceId": 705293, "from_nvdb": 0.53183901236199682, "to_nvdb": 0.53362920540086844, "access_type": "denied", "when": { "during": null, "heading": null, "using": null, "recognized": null, "mode": null, "vehicle": [ { "dimension": "height", "comparison": "greater_than", "value": 4.5, "unit": "m" } ] }, "class": "primary", "when_during": null, "when_heading": null, "when_using": null, "when_recognized": null, "when_mode": null, "when_vehicle_dimension": "height", "when_vehicle_comparison": "greater_than", "when_vehicle_value": 4.5, "when_vehicle_unit": "m" }, "geometry": { "type": "LineString", "coordinates": [ [ 283977.578126932494342, 6752540.178782097995281 ], [ 283977.577079317998141, 6752540.179350692778826 ], [ 283961.804590309970081, 6752548.604917631484568 ] ] } },
{ "type": "Feature", "properties": { "segment_id": "8ac11333-13f8-40ce-8df0-26ac8415a928", "from_om": 0.73862214, "to_om": 0.75202600868415015, "linksequenceId": 705306, "from_nvdb": 0.67328836378735946, "to_nvdb": 0.67370434, "access_type": "denied", "when": { "during": null, "heading": null, "using": null, "recognized": null, "mode": null, "vehicle": [ { "dimension": "height", "comparison": "greater_than", "value": 4.6, "unit": "m" } ] }, "class": "secondary", "when_during": null, "when_heading": null, "when_using": null, "when_recognized": null, "when_mode": null, "when_vehicle_dimension": "height", "when_vehicle_comparison": "greater_than", "when_vehicle_value": 4.6, "when_vehicle_unit": "m" }, "geometry": { "type": "LineString", "coordinates": [ [ 294147.54318357858574, 6743852.691652982495725 ], [ 294147.648446637904271, 6743856.242997425608337 ] ] } },
{ "type": "Feature", "properties": { "segment_id": "8ac11333-13f8-40ce-8df0-26ac8415a928", "from_om": 0.75202600868415015, "to_om": 0.76507157, "linksequenceId": 705306, "from_nvdb": 0.67370434, "to_nvdb": 0.67410543445218674, "access_type": "denied", "when": { "during": null, "heading": null, "using": null, "recognized": null, "mode": null, "vehicle": [ { "dimension": "height", "comparison": "greater_than", "value": 4.6, "unit": "m" } ] }, "class": "secondary", "when_during": null, "when_heading": null, "when_using": null, "when_recognized": null, "when_mode": null, "when_vehicle_dimension": "height", "when_vehicle_comparison": "greater_than", "when_vehicle_value": 4.6, "when_vehicle_unit": "m" }, "geometry": { "type": "LineString", "coordinates": [ [ 294147.648446637904271, 6743856.242997425608337 ], [ 294147.750846547889523, 6743859.697745499201119 ], [ 294147.750892853015102, 6743859.699408698827028 ] ] } },
{ "type": "Feature", "properties": { "segment_id": "8caab13c-2b6b-487c-9a2d-6fae98c57c0a", "from_om": 0.0, "to_om": 0.088699839, "linksequenceId": 2389472, "from_nvdb": 0.0, "to_nvdb": 0.26849093, "access_type": "denied", "when": { "during": null, "heading": null, "using": null, "recognized": null, "mode": null, "vehicle": [ { "dimension": "height", "comparison": "greater_than", "value": 3.0, "unit": "m" } ] }, "class": "tertiary", "when_during": null, "when_heading": null, "when_using": null, "when_recognized": null, "when_mode": null, "when_vehicle_dimension": "height", "when_vehicle_comparison": "greater_than", "when_vehicle_value": 3.0, "when_vehicle_unit": "m" }, "geometry": { "type": "LineString", "coordinates": [ [ 286371.583995135268196, 6746043.809835005551577 ], [ 286367.44147384876851, 6746040.697518076747656 ], [ 286367.441473358194344, 6746040.697517708875239 ] ] } },
{ "type": "Feature", "properties": { "segment_id": "8caab13c-2b6b-487c-9a2d-6fae98c57c0a", "from_om": 0.088699839, "to_om": 0.3141813672389252, "linksequenceId": 2389472, "from_nvdb": 0.26849093, "to_nvdb": 1.0, "access_type": "denied", "when": { "during": null, "heading": null, "using": null, "recognized": null, "mode": null, "vehicle": [ { "dimension": "height", "comparison": "greater_than", "value": 3.0, "unit": "m" } ] }, "class": "tertiary", "when_during": null, "when_heading": null, "when_using": null, "when_recognized": null, "when_mode": null, "when_vehicle_dimension": "height", "when_vehicle_comparison": "greater_than", "when_vehicle_value": 3.0, "when_vehicle_unit": "m" }, "geometry": { "type": "LineString", "coordinates": [ [ 286367.441473358194344, 6746040.697517708875239 ], [ 286358.477398472139612, 6746033.977686500176787 ], [ 286356.840418830630369, 6746032.884634271264076 ] ] } },
{ "type": "Feature", "properties": { "segment_id": "8caab13c-2b6b-487c-9a2d-6fae98c57c0a", "from_om": 0.3141813672389252, "to_om": 0.48980921369316754, "linksequenceId": 650293, "from_nvdb": 0.02046666, "to_nvdb": 0.03055655, "access_type": "denied", "when": { "during": null, "heading": null, "using": null, "recognized": null, "mode": null, "vehicle": [ { "dimension": "height", "comparison": "greater_than", "value": 3.0, "unit": "m" } ] }, "class": "tertiary", "when_during": null, "when_heading": null, "when_using": null, "when_recognized": null, "when_mode": null, "when_vehicle_dimension": "height", "when_vehicle_comparison": "greater_than", "when_vehicle_value": 3.0, "when_vehicle_unit": "m" }, "geometry": { "type": "LineString", "coordinates": [ [ 286356.840418830630369, 6746032.884634271264076 ], [ 286348.308320548501797, 6746027.187538959085941 ] ] } },
{ "type": "Feature", "properties": { "segment_id": "8caab13c-2b6b-487c-9a2d-6fae98c57c0a", "from_om": 0.48980921369316754, "to_om": 1.0, "linksequenceId": 650293, "from_nvdb": 0.03055655, "to_nvdb": 0.06234224, "access_type": "denied", "when": { "during": null, "heading": null, "using": null, "recognized": null, "mode": null, "vehicle": [ { "dimension": "height", "comparison": "greater_than", "value": 3.0, "unit": "m" } ] }, "class": "tertiary", "when_during": null, "when_heading": null, "when_using": null, "when_recognized": null, "when_mode": null, "when_vehicle_dimension": "height", "when_vehicle_comparison": "greater_than", "when_vehicle_value": 3.0, "when_vehicle_unit": "m" }, "geometry": { "type": "LineString", "coordinates": [ [ 286348.308320548501797, 6746027.187538959085941 ], [ 286339.236815503856633, 6746021.130268267355859 ], [ 286333.364297717460431, 6746017.742042614147067 ], [ 286323.653834020136856, 6746010.497625068761408 ] ] } },
{ "type": "Feature", "properties": { "segment_id": "93eba762-76cf-4c72-890e-e783e3b4ef91", "from_om": 0.66532827, "to_om": 0.74542495, "linksequenceId": 706099, "from_nvdb": 0.80932014617603454, "to_nvdb": -0.12371898105036751, "access_type": "denied", "when": { "during": null, "heading": null, "using": null, "recognized": null, "mode": null, "vehicle": [ { "dimension": "height", "comparison": "greater_than", "value": 5.0, "unit": "m" } ] }, "class": "primary", "when_during": null, "when_heading": null, "when_using": null, "when_recognized": null, "when_mode": null, "when_vehicle_dimension": "height", "when_vehicle_comparison": "greater_than", "when_vehicle_value": 5.0, "when_vehicle_unit": "m" }, "geometry": { "type": "LineString", "coordinates": [ [ 284372.302042109076865, 6752276.946531899273396 ], [ 284386.848528489354067, 6752268.027886036783457 ] ] } },
{ "type": "Feature", "properties": { "segment_id": "c18c302a-ddfe-42d8-a483-7f61b58b5ae3", "from_om": 0.55974385, "to_om": 0.559750253, "linksequenceId": 705290, "from_nvdb": 0.90550099464735989, "to_nvdb": 0.90550162, "access_type": "denied", "when": { "during": null, "heading": null, "using": null, "recognized": null, "mode": null, "vehicle": [ { "dimension": "height", "comparison": "greater_than", "value": 3.6, "unit": "m" } ] }, "class": "secondary", "when_during": null, "when_heading": null, "when_using": null, "when_recognized": null, "when_mode": null, "when_vehicle_dimension": "height", "when_vehicle_comparison": "greater_than", "when_vehicle_value": 3.6, "when_vehicle_unit": "m" }, "geometry": { "type": "LineString", "coordinates": [ [ 284757.297184958413709, 6746832.258478696458042 ], [ 284757.298083450528793, 6746832.259956950321794 ] ] } },
{ "type": "Feature", "properties": { "segment_id": "c18c302a-ddfe-42d8-a483-7f61b58b5ae3", "from_om": 0.559750253, "to_om": 0.684161605, "linksequenceId": 705290, "from_nvdb": 0.90550162, "to_nvdb": 0.92278, "access_type": "denied", "when": { "during": null, "heading": null, "using": null, "recognized": null, "mode": null, "vehicle": [ { "dimension": "height", "comparison": "greater_than", "value": 3.6, "unit": "m" } ] }, "class": "secondary", "when_during": null, "when_heading": null, "when_using": null, "when_recognized": null, "when_mode": null, "when_vehicle_dimension": "height", "when_vehicle_comparison": "greater_than", "when_vehicle_value": 3.6, "when_vehicle_unit": "m" }, "geometry": { "type": "LineString", "coordinates": [ [ 284757.298083450528793, 6746832.259956950321794 ], [ 284757.298094780591782, 6746832.259975591674447 ], [ 284765.526154687802773, 6746846.098769252188504 ], [ 284772.969968352233991, 6746861.949894447810948 ] ] } },
{ "type": "Feature", "properties": { "segment_id": "c18c302a-ddfe-42d8-a483-7f61b58b5ae3", "from_om": 0.684161605, "to_om": 0.68416839, "linksequenceId": 705290, "from_nvdb": 0.92278, "to_nvdb": 0.92278070852451166, "access_type": "denied", "when": { "during": null, "heading": null, "using": null, "recognized": null, "mode": null, "vehicle": [ { "dimension": "height", "comparison": "greater_than", "value": 3.6, "unit": "m" } ] }, "class": "secondary", "when_during": null, "when_heading": null, "when_using": null, "when_recognized": null, "when_mode": null, "when_vehicle_dimension": "height", "when_vehicle_comparison": "greater_than", "when_vehicle_value": 3.6, "when_vehicle_unit": "m" }, "geometry": { "type": "LineString", "coordinates": [ [ 284772.969968352233991, 6746861.949894447810948 ], [ 284772.969976401829626, 6746861.949911588802934 ], [ 284772.970747623941861, 6746861.951553656719625 ] ] } },
{ "type": "Feature", "properties": { "segment_id": "c2797bb2-9d49-4bf0-812e-165d468645ef", "from_om": 0.54993686, "to_om": 0.59641800854123417, "linksequenceId": 704822, "from_nvdb": 0.32697772967894834, "to_nvdb": 0.32946383, "access_type": "denied", "when": { "during": null, "heading": null, "using": null, "recognized": null, "mode": null, "vehicle": [ { "dimension": "height", "comparison": "greater_than", "value": 4.2, "unit": "m" } ] }, "class": "secondary", "when_during": null, "when_heading": null, "when_using": null, "when_recognized": null, "when_mode": null, "when_vehicle_dimension": "height", "when_vehicle_comparison": "greater_than", "when_vehicle_value": 4.2, "when_vehicle_unit": "m" }, "geometry": { "type": "LineString", "coordinates": [ [ 284040.397994755301625, 6747629.074523681774735 ], [ 284032.634485613438301, 6747623.965414711274207 ] ] } },
{ "type": "Feature", "properties": { "segment_id": "c2797bb2-9d49-4bf0-812e-165d468645ef", "from_om": 0.59641800854123417, "to_om": 0.60526069, "linksequenceId": 704822, "from_nvdb": 0.32946383, "to_nvdb": 0.32994382278947842, "access_type": "denied", "when": { "during": null, "heading": null, "using": null, "recognized": null, "mode": null, "vehicle": [ { "dimension": "height", "comparison": "greater_than", "value": 4.2, "unit": "m" } ] }, "class": "secondary", "when_during": null, "when_heading": null, "when_using": null, "when_recognized": null, "when_mode": null, "when_vehicle_dimension": "height", "when_vehicle_comparison": "greater_than", "when_vehicle_value": 4.2, "when_vehicle_unit": "m" }, "geometry": { "type": "LineString", "coordinates": [ [ 284032.634485613438301, 6747623.965414711274207 ], [ 284031.15755723870825, 6747622.993458876386285 ], [ 284031.15753897104878, 6747622.993444145657122 ] ] } },
{ "type": "Feature", "properties": { "segment_id": "d15bafd3-c8c1-4eb7-8c97-24491ff43453", "from_om": 0.68628829, "to_om": 0.691074533, "linksequenceId": 704884, "from_nvdb": 0.68097493095852879, "to_nvdb": 0.65345894, "access_type": "denied", "when": { "during": null, "heading": null, "using": null, "recognized": null, "mode": null, "vehicle": [ { "dimension": "height", "comparison": "greater_than", "value": 4.5, "unit": "m" } ] }, "class": "secondary", "when_during": null, "when_heading": null, "when_using": null, "when_recognized": null, "when_mode": null, "when_vehicle_dimension": "height", "when_vehicle_comparison": "greater_than", "when_vehicle_value": 4.5, "when_vehicle_unit": "m" }, "geometry": { "type": "LineString", "coordinates": [ [ 287791.57180588360643, 6742548.055336926132441 ], [ 287785.394967861939222, 6742543.333727695047855 ], [ 287785.394460437761154, 6742543.333322187885642 ] ] } },
{ "type": "Feature", "properties": { "segment_id": "d15bafd3-c8c1-4eb7-8c97-24491ff43453", "from_om": 0.691074533, "to_om": 0.700797833, "linksequenceId": 704884, "from_nvdb": 0.65345894, "to_nvdb": 0.65146305, "access_type": "denied", "when": { "during": null, "heading": null, "using": null, "recognized": null, "mode": null, "vehicle": [ { "dimension": "height", "comparison": "greater_than", "value": 4.5, "unit": "m" } ] }, "class": "secondary", "when_during": null, "when_heading": null, "when_using": null, "when_recognized": null, "when_mode": null, "when_vehicle_dimension": "height", "when_vehicle_comparison": "greater_than", "when_vehicle_value": 4.5, "when_vehicle_unit": "m" }, "geometry": { "type": "LineString", "coordinates": [ [ 287785.394460437761154, 6742543.333322187885642 ], [ 287773.055362866842188, 6742533.472553693689406 ], [ 287773.054859147348907, 6742533.472169769927859 ] ] } },
{ "type": "Feature", "properties": { "segment_id": "d15bafd3-c8c1-4eb7-8c97-24491ff43453", "from_om": 0.700797833, "to_om": 0.70079926, "linksequenceId": 704884, "from_nvdb": 0.65146305, "to_nvdb": 0.64847360555206401, "access_type": "denied", "when": { "during": null, "heading": null, "using": null, "recognized": null, "mode": null, "vehicle": [ { "dimension": "height", "comparison": "greater_than", "value": 4.5, "unit": "m" } ] }, "class": "secondary", "when_during": null, "when_heading": null, "when_using": null, "when_recognized": null, "when_mode": null, "when_vehicle_dimension": "height", "when_vehicle_comparison": "greater_than", "when_vehicle_value": 4.5, "when_vehicle_unit": "m" }, "geometry": { "type": "LineString", "coordinates": [ [ 287773.054859147348907, 6742533.472169769927859 ], [ 287773.053015412937384, 6742533.470764516852796 ] ] } },
{ "type": "Feature", "properties": { "segment_id": "d3ad881e-5569-448b-90a3-77260b72943b", "from_om": 0.71636178, "to_om": 0.71650394100198134, "linksequenceId": 704886, "from_nvdb": 0.27366197810696863, "to_nvdb": 0.26658907, "access_type": "denied", "when": { "during": null, "heading": null, "using": null, "recognized": null, "mode": null, "vehicle": [ { "dimension": "height", "comparison": "greater_than", "value": 4.6, "unit": "m" } ] }, "class": "secondary", "when_during": null, "when_heading": null, "when_using": null, "when_recognized": null, "when_mode": null, "when_vehicle_dimension": "height", "when_vehicle_comparison": "greater_than", "when_vehicle_value": 4.6, "when_vehicle_unit": "m" }, "geometry": { "type": "LineString", "coordinates": [ [ 289514.405702297342941, 6740894.799213698133826 ], [ 289514.385292864521034, 6740894.776088707149029 ] ] } },
{ "type": "Feature", "properties": { "segment_id": "d3ad881e-5569-448b-90a3-77260b72943b", "from_om": 0.71650394100198134, "to_om": 0.75854138, "linksequenceId": 704886, "from_nvdb": 0.26658907, "to_nvdb": 0.26462316383512124, "access_type": "denied", "when": { "during": null, "heading": null, "using": null, "recognized": null, "mode": null, "vehicle": [ { "dimension": "height", "comparison": "greater_than", "value": 4.6, "unit": "m" } ] }, "class": "secondary", "when_during": null, "when_heading": null, "when_using": null, "when_recognized": null, "when_mode": null, "when_vehicle_dimension": "height", "when_vehicle_comparison": "greater_than", "when_vehicle_value": 4.6, "when_vehicle_unit": "m" }, "geometry": { "type": "LineString", "coordinates": [ [ 289514.385292864521034, 6740894.776088707149029 ], [ 289508.350161746668164, 6740887.937958810478449 ] ] } },
{ "type": "Feature", "properties": { "segment_id": "e5e5a720-68a6-4c6b-91dc-e22e9bd4d4b3", "from_om": 0.24749474, "to_om": 0.32540976, "linksequenceId": 705596, "from_nvdb": 0.123425107099046, "to_nvdb": 0.16228116395150399, "access_type": "denied", "when": { "during": null, "heading": null, "using": null, "recognized": null, "mode": null, "vehicle": [ { "dimension": "height", "comparison": "greater_than", "value": 5.0, "unit": "m" } ] }, "class": "primary", "when_during": null, "when_heading": null, "when_using": null, "when_recognized": null, "when_mode": null, "when_vehicle_dimension": "height", "when_vehicle_comparison": "greater_than", "when_vehicle_value": 5.0, "when_vehicle_unit": "m" }, "geometry": { "type": "LineString", "coordinates": [ [ 284390.163965494080912, 6752273.294733095914125 ], [ 284390.160952038306277, 6752273.296736429445446 ], [ 284376.054341407725587, 6752282.782086227089167 ], [ 284376.054172200267203, 6752282.782197970896959 ] ] } }
]
}
