{
"type": "FeatureCollection",
"crs": { "type": "name", "properties": { "name": "urn:ogc:def:crs:OGC:1.3:CRS84" } },
"features": [
{ "type": "Feature", "properties": { "id": "e0d0955a-b08f-485d-84fe-dae18fd257fa", "bbox": { "xmin": 11.264619827270508, "xmax": 11.264620780944824, "ymin": 60.72518539428711, "ymax": 60.72519302368164 }, "version": 1, "sources": "[{'property': '', 'dataset': 'OpenStreetMap', 'license': 'ODbL-1.0', 'record_id': 'n394141533@3', 'update_time': '2020-09-04T15:13:36Z', 'confidence': None, 'between': None}]", "connector_id": null, "matched_data": null, "match_status": "Unmatched" }, "geometry": { "type": "Point", "coordinates": [ 11.2646199, 60.7251873 ] } },
{ "type": "Feature", "properties": { "id": "e3477e1e-e3bd-4551-ac4c-3eff25c1ac48", "bbox": { "xmin": 11.323068618774414, "xmax": 11.323070526123047, "ymin": 60.78986740112305, "ymax": 60.78987503051758 }, "version": 1, "sources": "[{'property': '', 'dataset': 'OpenStreetMap', 'license': 'ODbL-1.0', 'record_id': 'n9738606481@1', 'update_time': '2022-05-13T22:45:43Z', 'confidence': None, 'between': None}]", "connector_id": null, "matched_data": null, "match_status": "Unmatched" }, "geometry": { "type": "Point", "coordinates": [ 11.3230703, 60.7898691 ] } },
{ "type": "Feature", "properties": { "id": "127dc4f4-0dc4-4d4c-b36c-b2a8de7874f1", "bbox": { "xmin": 11.32908821105957, "xmax": 11.329090118408203, "ymin": 60.78867721557617, "ymax": 60.7886848449707 }, "version": 1, "sources": "[{'property': '', 'dataset': 'OpenStreetMap', 'license': 'ODbL-1.0', 'record_id': 'n7844210946@2', 'update_time': '2024-02-12T23:32:11Z', 'confidence': None, 'between': None}]", "connector_id": null, "matched_data": null, "match_status": "Unmatched" }, "geometry": { "type": "Point", "coordinates": [ 11.3290884, 60.7886844 ] } },
{ "type": "Feature", "properties": { "id": "68881f47-8787-4c70-b879-de60a6183061", "bbox": { "xmin": 11.329113960266113, "xmax": 11.32911491394043, "ymin": 60.788780212402344, "ymax": 60.788787841796875 }, "version": 1, "sources": "[{'property': '', 'dataset': 'OpenStreetMap', 'license': 'ODbL-1.0', 'record_id': 'n11617068761@1', 'update_time': '2024-02-12T23:32:11Z', 'confidence': None, 'between': None}]", "connector_id": null, "matched_data": null, "match_status": "Unmatched" }, "geometry": { "type": "Point", "coordinates": [ 11.3291149, 60.7887819 ] } },
{ "type": "Feature", "properties": { "id": "c613975a-d453-467e-90af-36e3a19581c2", "bbox": { "xmin": 11.309539794921875, "xmax": 11.309541702270508, "ymin": 60.78817367553711, "ymax": 60.78818130493164 }, "version": 1, "sources": "[{'property': '', 'dataset': 'OpenStreetMap', 'license': 'ODbL-1.0', 'record_id': 'n6955926474@1', 'update_time': '2019-11-07T20:44:27Z', 'confidence': None, 'between': None}]", "connector_id": null, "matched_data": null, "match_status": "Unmatched" }, "geometry": { "type": "Point", "coordinates": [ 11.3095414, 60.7881739 ] } },
{ "type": "Feature", "properties": { "id": "2b1a9d57-1212-4b26-8ba6-c3716c9ed9a3", "bbox": { "xmin": 11.309807777404785, "xmax": 11.309809684753418, "ymin": 60.78804397583008, "ymax": 60.78805160522461 }, "version": 1, "sources": "[{'property': '', 'dataset': 'OpenStreetMap', 'license': 'ODbL-1.0', 'record_id': 'n6955926470@1', 'update_time': '2019-11-07T20:44:27Z', 'confidence': None, 'between': None}]", "connector_id": null, "matched_data": null, "match_status": "Unmatched" }, "geometry": { "type": "Point", "coordinates": [ 11.3098095, 60.7880445 ] } },
{ "type": "Feature", "properties": { "id": "beefee32-1083-473a-aedb-f82e1360ccd7", "bbox": { "xmin": 11.323275566101074, "xmax": 11.323277473449707, "ymin": 60.79978942871094, "ymax": 60.79979705810547 }, "version": 1, "sources": "[{'property': '', 'dataset': 'OpenStreetMap', 'license': 'ODbL-1.0', 'record_id': 'n7844210419@1', 'update_time': '2020-08-25T19:04:42Z', 'confidence': None, 'between': None}]", "connector_id": null, "matched_data": null, "match_status": "Unmatched" }, "geometry": { "type": "Point", "coordinates": [ 11.323277, 60.799797 ] } },
{ "type": "Feature", "properties": { "id": "4aa882d8-1d50-4c5b-aca3-fd5a98dff92d", "bbox": { "xmin": 11.289546012878418, "xmax": 11.28954792022705, "ymin": 60.82280731201172, "ymax": 60.82281494140625 }, "version": 1, "sources": "[{'property': '', 'dataset': 'OpenStreetMap', 'license': 'ODbL-1.0', 'record_id': 'n1602143215@1', 'update_time': '2012-01-23T11:37:55Z', 'confidence': None, 'between': None}]", "connector_id": null, "matched_data": null, "match_status": "Unmatched" }, "geometry": { "type": "Point", "coordinates": [ 11.2895464, 60.822814 ] } },
{ "type": "Feature", "properties": { "id": "2ae9cf45-a421-4478-a4ef-e527840b00e0", "bbox": { "xmin": 11.309196472167969, "xmax": 11.309198379516602, "ymin": 60.83713150024414, "ymax": 60.83713912963867 }, "version": 1, "sources": "[{'property': '', 'dataset': 'OpenStreetMap', 'license': 'ODbL-1.0', 'record_id': 'n3383362446@1', 'update_time': '2015-03-04T19:12:13Z', 'confidence': None, 'between': None}]", "connector_id": null, "matched_data": null, "match_status": "Unmatched" }, "geometry": { "type": "Point", "coordinates": [ 11.3091969, 60.8371318 ] } },
{ "type": "Feature", "properties": { "id": "40b22482-d636-4a74-8030-c601a2d5b1b1", "bbox": { "xmin": 11.307633399963379, "xmax": 11.307635307312012, "ymin": 60.83259201049805, "ymax": 60.83259963989258 }, "version": 1, "sources": "[{'property': '', 'dataset': 'OpenStreetMap', 'license': 'ODbL-1.0', 'record_id': 'n1065914269@1', 'update_time': '2010-12-26T14:57:42Z', 'confidence': None, 'between': None}]", "connector_id": null, "matched_data": null, "match_status": "Unmatched" }, "geometry": { "type": "Point", "coordinates": [ 11.3076351, 60.8325921 ] } },
{ "type": "Feature", "properties": { "id": "3d8fbd0d-a5ac-4081-8a9c-9fe88b4d7a14", "bbox": { "xmin": 11.31003475189209, "xmax": 11.310036659240723, "ymin": 60.831520080566406, "ymax": 60.83152770996094 }, "version": 1, "sources": "[{'property': '', 'dataset': 'OpenStreetMap', 'license': 'ODbL-1.0', 'record_id': 'n777344243@1', 'update_time': '2010-06-19T20:44:53Z', 'confidence': None, 'between': None}]", "connector_id": null, "matched_data": null, "match_status": "Unmatched" }, "geometry": { "type": "Point", "coordinates": [ 11.3100362, 60.8315263 ] } },
{ "type": "Feature", "properties": { "id": "f616a5ff-35e9-47d4-8cc1-947d6016636b", "bbox": { "xmin": 11.309956550598145, "xmax": 11.309957504272461, "ymin": 60.834537506103516, "ymax": 60.83454513549805 }, "version": 1, "sources": "[{'property': '', 'dataset': 'OpenStreetMap', 'license': 'ODbL-1.0', 'record_id': 'n3417187099@3', 'update_time': '2022-05-28T16:21:11Z', 'confidence': None, 'between': None}]", "connector_id": null, "matched_data": null, "match_status": "Unmatched" }, "geometry": { "type": "Point", "coordinates": [ 11.3099566, 60.8345393 ] } },
{ "type": "Feature", "properties": { "id": "27846862-d13c-460c-80f9-ca0745aa0c96", "bbox": { "xmin": 11.311570167541504, "xmax": 11.311572074890137, "ymin": 60.832157135009766, "ymax": 60.8321647644043 }, "version": 1, "sources": "[{'property': '', 'dataset': 'OpenStreetMap', 'license': 'ODbL-1.0', 'record_id': 'n777344840@5', 'update_time': '2020-08-25T19:04:42Z', 'confidence': None, 'between': None}]", "connector_id": null, "matched_data": null, "match_status": "Unmatched" }, "geometry": { "type": "Point", "coordinates": [ 11.3115717, 60.8321634 ] } },
{ "type": "Feature", "properties": { "id": "81b85e5c-9660-4a43-b772-16973629615c", "bbox": { "xmin": 11.295270919799805, "xmax": 11.295271873474121, "ymin": 60.831153869628906, "ymax": 60.83116149902344 }, "version": 1, "sources": "[{'property': '', 'dataset': 'OpenStreetMap', 'license': 'ODbL-1.0', 'record_id': 'n5018571447@1', 'update_time': '2017-08-06T19:00:34Z', 'confidence': None, 'between': None}]", "connector_id": null, "matched_data": null, "match_status": "Unmatched" }, "geometry": { "type": "Point", "coordinates": [ 11.295271, 60.8311596 ] } },
{ "type": "Feature", "properties": { "id": "39d3a968-0a82-42cb-86a1-430e23956f70", "bbox": { "xmin": 10.9550199508667, "xmax": 10.955021858215332, "ymin": 60.85835647583008, "ymax": 60.85836410522461 }, "version": 1, "sources": "[{'property': '', 'dataset': 'OpenStreetMap', 'license': 'ODbL-1.0', 'record_id': 'n308428836@1', 'update_time': '2008-10-29T00:35:43Z', 'confidence': None, 'between': None}]", "connector_id": null, "matched_data": null, "match_status": "Unmatched" }, "geometry": { "type": "Point", "coordinates": [ 10.9550215, 60.8583574 ] } },
{ "type": "Feature", "properties": { "id": "86e84e05-bb5a-4285-9062-0d92eef59bb1", "bbox": { "xmin": 11.04755687713623, "xmax": 11.047558784484863, "ymin": 60.845970153808594, "ymax": 60.845977783203125 }, "version": 1, "sources": "[{'property': '', 'dataset': 'OpenStreetMap', 'license': 'ODbL-1.0', 'record_id': 'n9080061805@2', 'update_time': '2021-09-11T13:04:54Z', 'confidence': None, 'between': None}]", "connector_id": null, "matched_data": null, "match_status": "Unmatched" }, "geometry": { "type": "Point", "coordinates": [ 11.047557, 60.8459769 ] } },
{ "type": "Feature", "properties": { "id": "ceb04abe-a827-4f4a-92af-62b9e2a86918", "bbox": { "xmin": 11.045517921447754, "xmax": 11.045519828796387, "ymin": 60.84674835205078, "ymax": 60.84675598144531 }, "version": 1, "sources": "[{'property': '', 'dataset': 'OpenStreetMap', 'license': 'ODbL-1.0', 'record_id': 'n9080063596@1', 'update_time': '2021-09-10T16:07:07Z', 'confidence': None, 'between': None}]", "connector_id": null, "matched_data": null, "match_status": "Unmatched" }, "geometry": { "type": "Point", "coordinates": [ 11.0455195, 60.8467545 ] } },
{ "type": "Feature", "properties": { "id": "6357e3d4-b065-4946-bc2e-2294b1cf0dd3", "bbox": { "xmin": 11.051057815551758, "xmax": 11.05105972290039, "ymin": 60.843997955322266, "ymax": 60.8440055847168 }, "version": 1, "sources": "[{'property': '', 'dataset': 'OpenStreetMap', 'license': 'ODbL-1.0', 'record_id': 'n312870941@3', 'update_time': '2021-09-11T13:04:54Z', 'confidence': None, 'between': None}]", "connector_id": null, "matched_data": null, "match_status": "Unmatched" }, "geometry": { "type": "Point", "coordinates": [ 11.051058, 60.844004 ] } },
{ "type": "Feature", "properties": { "id": "32483fa5-eebd-4c55-89c4-4c9ef6825982", "bbox": { "xmin": 11.01969051361084, "xmax": 11.019692420959473, "ymin": 60.85651397705078, "ymax": 60.85652160644531 }, "version": 1, "sources": "[{'property': '', 'dataset': 'OpenStreetMap', 'license': 'ODbL-1.0', 'record_id': 'n9080061607@1', 'update_time': '2021-09-10T16:07:07Z', 'confidence': None, 'between': None}]", "connector_id": null, "matched_data": null, "match_status": "Unmatched" }, "geometry": { "type": "Point", "coordinates": [ 11.0196921, 60.8565146 ] } },
{ "type": "Feature", "properties": { "id": "e5ae3639-9320-4caa-bbfa-67ab2148168a", "bbox": { "xmin": 10.987497329711914, "xmax": 10.987499237060547, "ymin": 60.85639190673828, "ymax": 60.85639953613281 }, "version": 1, "sources": "[{'property': '', 'dataset': 'OpenStreetMap', 'license': 'ODbL-1.0', 'record_id': 'n9079987302@1', 'update_time': '2021-09-10T16:07:07Z', 'confidence': None, 'between': None}]", "connector_id": null, "matched_data": null, "match_status": "Unmatched" }, "geometry": { "type": "Point", "coordinates": [ 10.9874976, 60.8563932 ] } },
{ "type": "Feature", "properties": { "id": "354763b3-8710-4223-a075-a4b2b70b9c92", "bbox": { "xmin": 11.126471519470215, "xmax": 11.126473426818848, "ymin": 60.84445571899414, "ymax": 60.84446334838867 }, "version": 1, "sources": "[{'property': '', 'dataset': 'OpenStreetMap', 'license': 'ODbL-1.0', 'record_id': 'n8618091290@1', 'update_time': '2021-04-11T17:15:21Z', 'confidence': None, 'between': None}]", "connector_id": null, "matched_data": null, "match_status": "Unmatched" }, "geometry": { "type": "Point", "coordinates": [ 11.126473, 60.844456 ] } },
{ "type": "Feature", "properties": { "id": "296b7c30-5b89-40e0-85a0-038faca4ec4b", "bbox": { "xmin": 11.200891494750977, "xmax": 11.20089340209961, "ymin": 60.851192474365234, "ymax": 60.851200103759766 }, "version": 1, "sources": "[{'property': '', 'dataset': 'OpenStreetMap', 'license': 'ODbL-1.0', 'record_id': 'n334234447@2', 'update_time': '2021-04-10T07:44:56Z', 'confidence': None, 'between': None}]", "connector_id": null, "matched_data": null, "match_status": "Unmatched" }, "geometry": { "type": "Point", "coordinates": [ 11.2008918, 60.8511933 ] } },
{ "type": "Feature", "properties": { "id": "df5a1116-9ad6-4e77-85d9-a1b1123fa801", "bbox": { "xmin": 11.205422401428223, "xmax": 11.205424308776855, "ymin": 60.8493537902832, "ymax": 60.849361419677734 }, "version": 1, "sources": "[{'property': '', 'dataset': 'OpenStreetMap', 'license': 'ODbL-1.0', 'record_id': 'n1947594174@4', 'update_time': '2024-12-03T18:26:57Z', 'confidence': None, 'between': None}]", "connector_id": null, "matched_data": null, "match_status": "Unmatched" }, "geometry": { "type": "Point", "coordinates": [ 11.205424, 60.849355 ] } },
{ "type": "Feature", "properties": { "id": "76c3f9cf-0374-41d1-b34c-f202d12959bb", "bbox": { "xmin": 11.181024551391602, "xmax": 11.181026458740234, "ymin": 60.8176155090332, "ymax": 60.817623138427734 }, "version": 1, "sources": "[{'property': '', 'dataset': 'OpenStreetMap', 'license': 'ODbL-1.0', 'record_id': 'n8616953346@1', 'update_time': '2021-04-11T08:13:57Z', 'confidence': None, 'between': None}]", "connector_id": null, "matched_data": null, "match_status": "Unmatched" }, "geometry": { "type": "Point", "coordinates": [ 11.181025, 60.817623 ] } },
{ "type": "Feature", "properties": { "id": "052d8016-2163-4860-a230-8fde9c90b95e", "bbox": { "xmin": 11.205023765563965, "xmax": 11.205024719238281, "ymin": 60.78118896484375, "ymax": 60.78119659423828 }, "version": 1, "sources": "[{'property': '', 'dataset': 'OpenStreetMap', 'license': 'ODbL-1.0', 'record_id': 'n1892886037@3', 'update_time': '2021-04-11T08:13:57Z', 'confidence': None, 'between': None}]", "connector_id": null, "matched_data": null, "match_status": "Unmatched" }, "geometry": { "type": "Point", "coordinates": [ 11.2050247, 60.7811897 ] } },
{ "type": "Feature", "properties": { "id": "5bb0a27f-32ae-4f14-9530-023e720e987c", "bbox": { "xmin": 11.16904354095459, "xmax": 11.169045448303223, "ymin": 60.769203186035156, "ymax": 60.76921081542969 }, "version": 1, "sources": "[{'property': '', 'dataset': 'OpenStreetMap', 'license': 'ODbL-1.0', 'record_id': 'n845190759@2', 'update_time': '2011-06-08T21:19:05Z', 'confidence': None, 'between': None}]", "connector_id": null, "matched_data": null, "match_status": "Unmatched" }, "geometry": { "type": "Point", "coordinates": [ 11.1690437, 60.7692032 ] } },
{ "type": "Feature", "properties": { "id": "a1d3b3d4-f843-4689-b1de-fd3a44c1a8b3", "bbox": { "xmin": 11.167218208312988, "xmax": 11.167220115661621, "ymin": 60.76716995239258, "ymax": 60.76717758178711 }, "version": 1, "sources": "[{'property': '', 'dataset': 'OpenStreetMap', 'license': 'ODbL-1.0', 'record_id': 'n845190616@2', 'update_time': '2011-06-08T21:19:06Z', 'confidence': None, 'between': None}]", "connector_id": null, "matched_data": null, "match_status": "Unmatched" }, "geometry": { "type": "Point", "coordinates": [ 11.1672198, 60.7671757 ] } },
{ "type": "Feature", "properties": { "id": "1a6c5c20-10b5-49ad-a193-2339198a2ad1", "bbox": { "xmin": 11.133597373962402, "xmax": 11.133599281311035, "ymin": 60.77094650268555, "ymax": 60.77095413208008 }, "version": 1, "sources": "[{'property': '', 'dataset': 'OpenStreetMap', 'license': 'ODbL-1.0', 'record_id': 'n2482982915@3', 'update_time': '2022-05-24T12:27:43Z', 'confidence': None, 'between': None}]", "connector_id": null, "matched_data": null, "match_status": "Unmatched" }, "geometry": { "type": "Point", "coordinates": [ 11.133599, 60.7709537 ] } },
{ "type": "Feature", "properties": { "id": "ddc475e2-a878-45c7-a596-08a06cc17281", "bbox": { "xmin": 11.133540153503418, "xmax": 11.13354206085205, "ymin": 60.77104187011719, "ymax": 60.77104949951172 }, "version": 1, "sources": "[{'property': '', 'dataset': 'OpenStreetMap', 'license': 'ODbL-1.0', 'record_id': 'n355661193@2', 'update_time': '2009-03-04T21:25:35Z', 'confidence': None, 'between': None}]", "connector_id": null, "matched_data": null, "match_status": "Unmatched" }, "geometry": { "type": "Point", "coordinates": [ 11.1335406, 60.7710477 ] } },
{ "type": "Feature", "properties": { "id": "b8f1da6a-8620-4f7f-9860-72fdaebe7b88", "bbox": { "xmin": 11.133251190185547, "xmax": 11.133252143859863, "ymin": 60.771453857421875, "ymax": 60.771461486816406 }, "version": 1, "sources": "[{'property': '', 'dataset': 'OpenStreetMap', 'license': 'ODbL-1.0', 'record_id': 'n355661191@5', 'update_time': '2020-09-06T07:57:34Z', 'confidence': None, 'between': None}]", "connector_id": null, "matched_data": null, "match_status": "Unmatched" }, "geometry": { "type": "Point", "coordinates": [ 11.1332512, 60.7714601 ] } },
{ "type": "Feature", "properties": { "id": "2e2e5dab-afa4-4976-bd03-16c63093e0ee", "bbox": { "xmin": 11.1294527053833, "xmax": 11.129454612731934, "ymin": 60.77165985107422, "ymax": 60.77166748046875 }, "version": 1, "sources": "[{'property': '', 'dataset': 'OpenStreetMap', 'license': 'ODbL-1.0', 'record_id': 'n347328318@2', 'update_time': '2013-11-01T17:45:21Z', 'confidence': None, 'between': None}]", "connector_id": null, "matched_data": null, "match_status": "Unmatched" }, "geometry": { "type": "Point", "coordinates": [ 11.1294545, 60.7716668 ] } },
{ "type": "Feature", "properties": { "id": "a47e13a3-d0e8-422a-a045-84ec61213ed1", "bbox": { "xmin": 11.126150131225586, "xmax": 11.126152038574219, "ymin": 60.77346420288086, "ymax": 60.77347183227539 }, "version": 1, "sources": "[{'property': '', 'dataset': 'OpenStreetMap', 'license': 'ODbL-1.0', 'record_id': 'n3112910924@1', 'update_time': '2014-10-05T15:22:54Z', 'confidence': None, 'between': None}]", "connector_id": null, "matched_data": null, "match_status": "Unmatched" }, "geometry": { "type": "Point", "coordinates": [ 11.1261503, 60.773471 ] } },
{ "type": "Feature", "properties": { "id": "d5dab3da-69e1-4d29-abcc-71de89e0a4cd", "bbox": { "xmin": 11.127382278442383, "xmax": 11.127384185791016, "ymin": 60.766841888427734, "ymax": 60.766849517822266 }, "version": 1, "sources": "[{'property': '', 'dataset': 'OpenStreetMap', 'license': 'ODbL-1.0', 'record_id': 'n674775092@2', 'update_time': '2013-10-06T10:26:24Z', 'confidence': None, 'between': None}]", "connector_id": null, "matched_data": null, "match_status": "Unmatched" }, "geometry": { "type": "Point", "coordinates": [ 11.1273824, 60.766849 ] } },
{ "type": "Feature", "properties": { "id": "a1289eb6-f035-4833-b5db-c60eb4254475", "bbox": { "xmin": 11.12753677368164, "xmax": 11.127537727355957, "ymin": 60.76694107055664, "ymax": 60.76694869995117 }, "version": 1, "sources": "[{'property': '', 'dataset': 'OpenStreetMap', 'license': 'ODbL-1.0', 'record_id': 'n2484848765@1', 'update_time': '2013-10-06T10:26:17Z', 'confidence': None, 'between': None}]", "connector_id": null, "matched_data": null, "match_status": "Unmatched" }, "geometry": { "type": "Point", "coordinates": [ 11.1275368, 60.766948 ] } },
{ "type": "Feature", "properties": { "id": "0c60f80f-84a0-4c5d-8698-9b4e5ab4dc5b", "bbox": { "xmin": 11.128506660461426, "xmax": 11.128508567810059, "ymin": 60.756629943847656, "ymax": 60.75663757324219 }, "version": 1, "sources": "[{'property': '', 'dataset': 'OpenStreetMap', 'license': 'ODbL-1.0', 'record_id': 'n1277277536@1', 'update_time': '2011-05-08T16:28:57Z', 'confidence': None, 'between': None}]", "connector_id": null, "matched_data": null, "match_status": "Unmatched" }, "geometry": { "type": "Point", "coordinates": [ 11.128507, 60.7566311 ] } },
{ "type": "Feature", "properties": { "id": "1771a0d5-bd2a-4261-ad4e-3861b4ac0694", "bbox": { "xmin": 11.158848762512207, "xmax": 11.15885066986084, "ymin": 60.765193939208984, "ymax": 60.765201568603516 }, "version": 1, "sources": "[{'property': '', 'dataset': 'OpenStreetMap', 'license': 'ODbL-1.0', 'record_id': 'n870056738@2', 'update_time': '2011-05-31T15:47:54Z', 'confidence': None, 'between': None}]", "connector_id": null, "matched_data": null, "match_status": "Unmatched" }, "geometry": { "type": "Point", "coordinates": [ 11.158849, 60.7651958 ] } },
{ "type": "Feature", "properties": { "id": "cb2c959d-a609-4f3b-8f84-072cf4a8e6e0", "bbox": { "xmin": 11.116064071655273, "xmax": 11.116065979003906, "ymin": 60.77458953857422, "ymax": 60.77459716796875 }, "version": 1, "sources": "[{'property': '', 'dataset': 'OpenStreetMap', 'license': 'ODbL-1.0', 'record_id': 'n9560644730@1', 'update_time': '2022-03-07T15:01:56Z', 'confidence': None, 'between': None}]", "connector_id": null, "matched_data": null, "match_status": "Unmatched" }, "geometry": { "type": "Point", "coordinates": [ 11.1160656, 60.7745955 ] } },
{ "type": "Feature", "properties": { "id": "ff0529bc-65d1-492a-9446-0cceee67955d", "bbox": { "xmin": 11.116076469421387, "xmax": 11.11607837677002, "ymin": 60.7745475769043, "ymax": 60.77455520629883 }, "version": 1, "sources": "[{'property': '', 'dataset': 'OpenStreetMap', 'license': 'ODbL-1.0', 'record_id': 'n347328005@3', 'update_time': '2013-12-30T22:03:36Z', 'confidence': None, 'between': None}]", "connector_id": null, "matched_data": null, "match_status": "Unmatched" }, "geometry": { "type": "Point", "coordinates": [ 11.1160769, 60.7745542 ] } },
{ "type": "Feature", "properties": { "id": "fa6d6ed7-15f5-4f41-a649-535b5e42c0e9", "bbox": { "xmin": 11.115975379943848, "xmax": 11.11597728729248, "ymin": 60.77507781982422, "ymax": 60.77508544921875 }, "version": 1, "sources": "[{'property': '', 'dataset': 'OpenStreetMap', 'license': 'ODbL-1.0', 'record_id': 'n9560644731@1', 'update_time': '2022-03-07T15:01:56Z', 'confidence': None, 'between': None}]", "connector_id": null, "matched_data": null, "match_status": "Unmatched" }, "geometry": { "type": "Point", "coordinates": [ 11.115977, 60.7750796 ] } },
{ "type": "Feature", "properties": { "id": "013c1562-8c47-404f-92dd-b35ea66c482a", "bbox": { "xmin": 11.11594009399414, "xmax": 11.115942001342773, "ymin": 60.77521514892578, "ymax": 60.77522277832031 }, "version": 1, "sources": "[{'property': '', 'dataset': 'OpenStreetMap', 'license': 'ODbL-1.0', 'record_id': 'n736472930@3', 'update_time': '2013-12-30T22:03:36Z', 'confidence': None, 'between': None}]", "connector_id": null, "matched_data": null, "match_status": "Unmatched" }, "geometry": { "type": "Point", "coordinates": [ 11.1159404, 60.7752155 ] } },
{ "type": "Feature", "properties": { "id": "aef1334f-7caf-4c3f-98f7-509cdec0fb3a", "bbox": { "xmin": 11.115832328796387, "xmax": 11.11583423614502, "ymin": 60.775611877441406, "ymax": 60.77561950683594 }, "version": 1, "sources": "[{'property': '', 'dataset': 'OpenStreetMap', 'license': 'ODbL-1.0', 'record_id': 'n347328006@3', 'update_time': '2013-10-03T16:18:55Z', 'confidence': None, 'between': None}]", "connector_id": null, "matched_data": null, "match_status": "Unmatched" }, "geometry": { "type": "Point", "coordinates": [ 11.1158327, 60.7756183 ] } },
{ "type": "Feature", "properties": { "id": "8dafc126-6227-475e-bca3-5c49d6834512", "bbox": { "xmin": 11.094934463500977, "xmax": 11.09493637084961, "ymin": 60.773685455322266, "ymax": 60.7736930847168 }, "version": 1, "sources": "[{'property': '', 'dataset': 'OpenStreetMap', 'license': 'ODbL-1.0', 'record_id': 'n9767036312@1', 'update_time': '2022-05-24T12:27:41Z', 'confidence': None, 'between': None}]", "connector_id": null, "matched_data": null, "match_status": "Unmatched" }, "geometry": { "type": "Point", "coordinates": [ 11.0949346, 60.7736923 ] } },
{ "type": "Feature", "properties": { "id": "0022f42e-7c4f-4762-9d1b-2c8f3e6dccc9", "bbox": { "xmin": 11.089298248291016, "xmax": 11.089300155639648, "ymin": 60.7713508605957, "ymax": 60.771358489990234 }, "version": 1, "sources": "[{'property': '', 'dataset': 'OpenStreetMap', 'license': 'ODbL-1.0', 'record_id': 'n314997008@3', 'update_time': '2020-09-06T07:57:34Z', 'confidence': None, 'between': None}]", "connector_id": null, "matched_data": null, "match_status": "Unmatched" }, "geometry": { "type": "Point", "coordinates": [ 11.0892984, 60.771351 ] } },
{ "type": "Feature", "properties": { "id": "67f2c88f-a207-49e3-a78e-02ddbaf80cb7", "bbox": { "xmin": 11.09409236907959, "xmax": 11.094094276428223, "ymin": 60.77339553833008, "ymax": 60.77340316772461 }, "version": 1, "sources": "[{'property': '', 'dataset': 'OpenStreetMap', 'license': 'ODbL-1.0', 'record_id': 'n2399610318@4', 'update_time': '2013-09-27T19:07:30Z', 'confidence': None, 'between': None}]", "connector_id": null, "matched_data": null, "match_status": "Unmatched" }, "geometry": { "type": "Point", "coordinates": [ 11.0940928, 60.7734018 ] } },
{ "type": "Feature", "properties": { "id": "ff8aabf7-5426-465b-8ed5-aa8c60f3fb84", "bbox": { "xmin": 11.08934211730957, "xmax": 11.089344024658203, "ymin": 60.770137786865234, "ymax": 60.770145416259766 }, "version": 1, "sources": "[{'property': '', 'dataset': 'OpenStreetMap', 'license': 'ODbL-1.0', 'record_id': 'n2475048191@1', 'update_time': '2013-09-28T10:46:47Z', 'confidence': None, 'between': None}]", "connector_id": null, "matched_data": null, "match_status": "Unmatched" }, "geometry": { "type": "Point", "coordinates": [ 11.0893437, 60.7701453 ] } },
{ "type": "Feature", "properties": { "id": "c6985dbc-24b1-4431-9992-42ef8dfc5721", "bbox": { "xmin": 11.0833101272583, "xmax": 11.083312034606934, "ymin": 60.77322006225586, "ymax": 60.77322769165039 }, "version": 1, "sources": "[{'property': '', 'dataset': 'OpenStreetMap', 'license': 'ODbL-1.0', 'record_id': 'n2464214672@2', 'update_time': '2020-09-06T07:57:34Z', 'confidence': None, 'between': None}]", "connector_id": null, "matched_data": null, "match_status": "Unmatched" }, "geometry": { "type": "Point", "coordinates": [ 11.0833116, 60.7732265 ] } },
{ "type": "Feature", "properties": { "id": "2e73884e-c16d-4466-ab20-2c0865e6b54d", "bbox": { "xmin": 11.083307266235352, "xmax": 11.083309173583984, "ymin": 60.77321243286133, "ymax": 60.77322006225586 }, "version": 1, "sources": "[{'property': '', 'dataset': 'OpenStreetMap', 'license': 'ODbL-1.0', 'record_id': None, 'update_time': None, 'confidence': None, 'between': None}]", "connector_id": null, "matched_data": null, "match_status": "Unmatched" }, "geometry": { "type": "Point", "coordinates": [ 11.0833074, 60.7732196 ] } },
{ "type": "Feature", "properties": { "id": "7bdbd25e-5de5-46e6-900e-839c9cfe9c66", "bbox": { "xmin": 11.08757209777832, "xmax": 11.087573051452637, "ymin": 60.77639389038086, "ymax": 60.77640151977539 }, "version": 1, "sources": "[{'property': '', 'dataset': 'OpenStreetMap', 'license': 'ODbL-1.0', 'record_id': 'n9767032531@1', 'update_time': '2022-05-24T12:27:38Z', 'confidence': None, 'between': None}]", "connector_id": null, "matched_data": null, "match_status": "Unmatched" }, "geometry": { "type": "Point", "coordinates": [ 11.0875721, 60.7763946 ] } },
{ "type": "Feature", "properties": { "id": "336ecb25-32f1-413b-a98c-33eea69ba603", "bbox": { "xmin": 11.091755867004395, "xmax": 11.091757774353027, "ymin": 60.77771759033203, "ymax": 60.77772521972656 }, "version": 1, "sources": "[{'property': '', 'dataset': 'OpenStreetMap', 'license': 'ODbL-1.0', 'record_id': 'n2466542539@2', 'update_time': '2013-09-22T14:55:44Z', 'confidence': None, 'between': None}]", "connector_id": null, "matched_data": null, "match_status": "Unmatched" }, "geometry": { "type": "Point", "coordinates": [ 11.0917561, 60.7777177 ] } },
{ "type": "Feature", "properties": { "id": "e474699d-b32f-47a8-ba97-3515eb291198", "bbox": { "xmin": 11.091971397399902, "xmax": 11.091973304748535, "ymin": 60.77777099609375, "ymax": 60.77777862548828 }, "version": 1, "sources": "[{'property': '', 'dataset': 'OpenStreetMap', 'license': 'ODbL-1.0', 'record_id': 'n2466542547@2', 'update_time': '2013-09-22T14:55:44Z', 'confidence': None, 'between': None}]", "connector_id": null, "matched_data": null, "match_status": "Unmatched" }, "geometry": { "type": "Point", "coordinates": [ 11.091973, 60.7777768 ] } },
{ "type": "Feature", "properties": { "id": "41675036-28dc-4ee5-9d07-29cebc88c8f7", "bbox": { "xmin": 11.084667205810547, "xmax": 11.08466911315918, "ymin": 60.79387283325195, "ymax": 60.793880462646484 }, "version": 1, "sources": "[{'property': '', 'dataset': 'OpenStreetMap', 'license': 'ODbL-1.0', 'record_id': 'n448196823@2', 'update_time': '2010-12-06T16:46:05Z', 'confidence': None, 'between': None}]", "connector_id": null, "matched_data": null, "match_status": "Unmatched" }, "geometry": { "type": "Point", "coordinates": [ 11.0846676, 60.7938802 ] } },
{ "type": "Feature", "properties": { "id": "1bbed79c-a6e4-41d5-b565-a1b08eefb167", "bbox": { "xmin": 11.090843200683594, "xmax": 11.090845108032227, "ymin": 60.795738220214844, "ymax": 60.795745849609375 }, "version": 1, "sources": "[{'property': '', 'dataset': 'OpenStreetMap', 'license': 'ODbL-1.0', 'record_id': 'n6311919389@1', 'update_time': '2019-03-02T01:24:19Z', 'confidence': None, 'between': None}]", "connector_id": null, "matched_data": null, "match_status": "Unmatched" }, "geometry": { "type": "Point", "coordinates": [ 11.0908436, 60.7957456 ] } },
{ "type": "Feature", "properties": { "id": "7d7aaca2-dad7-4bbc-81ce-90d6be117e03", "bbox": { "xmin": 11.09091567993164, "xmax": 11.090917587280273, "ymin": 60.795711517333984, "ymax": 60.795719146728516 }, "version": 1, "sources": "[{'property': '', 'dataset': 'OpenStreetMap', 'license': 'ODbL-1.0', 'record_id': 'n6311919391@1', 'update_time': '2019-03-02T01:24:19Z', 'confidence': None, 'between': None}]", "connector_id": null, "matched_data": null, "match_status": "Unmatched" }, "geometry": { "type": "Point", "coordinates": [ 11.0909158, 60.795718 ] } },
{ "type": "Feature", "properties": { "id": "11c06140-580e-418b-aee0-089ccf9fb357", "bbox": { "xmin": 11.09672737121582, "xmax": 11.096729278564453, "ymin": 60.796104431152344, "ymax": 60.796112060546875 }, "version": 2, "sources": "[{'property': '', 'dataset': 'OpenStreetMap', 'license': 'ODbL-1.0', 'record_id': 'n255113514@6', 'update_time': '2025-06-19T10:05:20Z', 'confidence': None, 'between': None}]", "connector_id": null, "matched_data": null, "match_status": "Unmatched" }, "geometry": { "type": "Point", "coordinates": [ 11.0967275, 60.7961057 ] } },
{ "type": "Feature", "properties": { "id": "22a6aace-b01e-4102-a42f-21c651eddb19", "bbox": { "xmin": 11.096681594848633, "xmax": 11.096683502197266, "ymin": 60.796077728271484, "ymax": 60.796085357666016 }, "version": 1, "sources": "[{'property': '', 'dataset': 'OpenStreetMap', 'license': 'ODbL-1.0', 'record_id': 'n12925551939@1', 'update_time': '2025-06-19T10:05:20Z', 'confidence': None, 'between': None}]", "connector_id": null, "matched_data": null, "match_status": "Unmatched" }, "geometry": { "type": "Point", "coordinates": [ 11.0966832, 60.796079 ] } },
{ "type": "Feature", "properties": { "id": "4a034219-32b7-453c-b38f-e25962f1f7db", "bbox": { "xmin": 11.100457191467285, "xmax": 11.100459098815918, "ymin": 60.77992630004883, "ymax": 60.77993392944336 }, "version": 1, "sources": "[{'property': '', 'dataset': 'OpenStreetMap', 'license': 'ODbL-1.0', 'record_id': 'n355650872@5', 'update_time': '2022-05-24T12:27:41Z', 'confidence': None, 'between': None}]", "connector_id": null, "matched_data": null, "match_status": "Unmatched" }, "geometry": { "type": "Point", "coordinates": [ 11.1004575, 60.7799334 ] } },
{ "type": "Feature", "properties": { "id": "855942ad-c36a-4d6f-8bb4-56beb42d0b49", "bbox": { "xmin": 11.101499557495117, "xmax": 11.10150146484375, "ymin": 60.77653121948242, "ymax": 60.77653884887695 }, "version": 1, "sources": "[{'property': '', 'dataset': 'OpenStreetMap', 'license': 'ODbL-1.0', 'record_id': 'n1121877172@2', 'update_time': '2013-10-05T09:39:06Z', 'confidence': None, 'between': None}]", "connector_id": null, "matched_data": null, "match_status": "Unmatched" }, "geometry": { "type": "Point", "coordinates": [ 11.1014997, 60.7765313 ] } },
{ "type": "Feature", "properties": { "id": "af2e5075-77a9-453d-a13d-d3ee4cf70321", "bbox": { "xmin": 11.123486518859863, "xmax": 11.123488426208496, "ymin": 60.78545379638672, "ymax": 60.78546142578125 }, "version": 1, "sources": "[{'property': '', 'dataset': 'OpenStreetMap', 'license': 'ODbL-1.0', 'record_id': 'n312856417@4', 'update_time': '2013-10-06T09:52:42Z', 'confidence': None, 'between': None}]", "connector_id": null, "matched_data": null, "match_status": "Unmatched" }, "geometry": { "type": "Point", "coordinates": [ 11.1234883, 60.7854553 ] } },
{ "type": "Feature", "properties": { "id": "676e5534-0b92-485e-91c1-4a740c050d0c", "bbox": { "xmin": 11.120955467224121, "xmax": 11.120957374572754, "ymin": 60.78548049926758, "ymax": 60.78548812866211 }, "version": 1, "sources": "[{'property': '', 'dataset': 'OpenStreetMap', 'license': 'ODbL-1.0', 'record_id': 'n338409961@2', 'update_time': '2020-09-06T07:57:34Z', 'confidence': None, 'between': None}]", "connector_id": null, "matched_data": null, "match_status": "Unmatched" }, "geometry": { "type": "Point", "coordinates": [ 11.1209558, 60.7854869 ] } },
{ "type": "Feature", "properties": { "id": "35ad0fe0-86bc-4c98-b409-60f3fc8480eb", "bbox": { "xmin": 11.124171257019043, "xmax": 11.124173164367676, "ymin": 60.785186767578125, "ymax": 60.785194396972656 }, "version": 1, "sources": "[{'property': '', 'dataset': 'OpenStreetMap', 'license': 'ODbL-1.0', 'record_id': 'n312860295@7', 'update_time': '2023-12-26T15:12:44Z', 'confidence': None, 'between': None}]", "connector_id": null, "matched_data": null, "match_status": "Unmatched" }, "geometry": { "type": "Point", "coordinates": [ 11.1241728, 60.785187 ] } },
{ "type": "Feature", "properties": { "id": "75462308-d131-4aa5-8442-94e0fe61eacc", "bbox": { "xmin": 11.128419876098633, "xmax": 11.128421783447266, "ymin": 60.78693389892578, "ymax": 60.78694152832031 }, "version": 1, "sources": "[{'property': '', 'dataset': 'OpenStreetMap', 'license': 'ODbL-1.0', 'record_id': 'n6070479447@3', 'update_time': '2019-12-03T10:13:23Z', 'confidence': None, 'between': None}]", "connector_id": null, "matched_data": null, "match_status": "Unmatched" }, "geometry": { "type": "Point", "coordinates": [ 11.1284216, 60.7869348 ] } },
{ "type": "Feature", "properties": { "id": "ebfeeca9-97c3-431a-9626-d0ab8eec42c8", "bbox": { "xmin": 11.146782875061035, "xmax": 11.146784782409668, "ymin": 60.789527893066406, "ymax": 60.78953552246094 }, "version": 1, "sources": "[{'property': '', 'dataset': 'OpenStreetMap', 'license': 'ODbL-1.0', 'record_id': 'n369013537@3', 'update_time': '2023-05-16T04:22:26Z', 'confidence': None, 'between': None}]", "connector_id": null, "matched_data": null, "match_status": "Unmatched" }, "geometry": { "type": "Point", "coordinates": [ 11.1467832, 60.789534 ] } },
{ "type": "Feature", "properties": { "id": "c5a7201a-679a-4979-9e6b-e9f311954480", "bbox": { "xmin": 11.14770221710205, "xmax": 11.147704124450684, "ymin": 60.788902282714844, "ymax": 60.788909912109375 }, "version": 1, "sources": "[{'property': '', 'dataset': 'OpenStreetMap', 'license': 'ODbL-1.0', 'record_id': 'n369013668@2', 'update_time': '2021-04-11T08:13:57Z', 'confidence': None, 'between': None}]", "connector_id": null, "matched_data": null, "match_status": "Unmatched" }, "geometry": { "type": "Point", "coordinates": [ 11.147704, 60.788903 ] } },
{ "type": "Feature", "properties": { "id": "694450d6-3528-4952-9aba-ee2434d49f09", "bbox": { "xmin": 11.155601501464844, "xmax": 11.155603408813477, "ymin": 60.78951644897461, "ymax": 60.78952407836914 }, "version": 1, "sources": "[{'property': '', 'dataset': 'OpenStreetMap', 'license': 'ODbL-1.0', 'record_id': 'n347041317@4', 'update_time': '2022-04-26T12:38:48Z', 'confidence': None, 'between': None}]", "connector_id": null, "matched_data": null, "match_status": "Unmatched" }, "geometry": { "type": "Point", "coordinates": [ 11.155603, 60.7895168 ] } },
{ "type": "Feature", "properties": { "id": "77bba632-2479-4fd9-b26a-28a2f9dfb562", "bbox": { "xmin": 11.120473861694336, "xmax": 11.120475769042969, "ymin": 60.788597106933594, "ymax": 60.788604736328125 }, "version": 1, "sources": "[{'property': '', 'dataset': 'OpenStreetMap', 'license': 'ODbL-1.0', 'record_id': 'n862927210@2', 'update_time': '2013-10-03T18:59:21Z', 'confidence': None, 'between': None}]", "connector_id": null, "matched_data": null, "match_status": "Unmatched" }, "geometry": { "type": "Point", "coordinates": [ 11.1204742, 60.7885972 ] } },
{ "type": "Feature", "properties": { "id": "ff277b9c-8b73-4c3b-bb9f-94b1d75fd44c", "bbox": { "xmin": 11.119560241699219, "xmax": 11.119562149047852, "ymin": 60.788761138916016, "ymax": 60.78876876831055 }, "version": 1, "sources": "[{'property': '', 'dataset': 'OpenStreetMap', 'license': 'ODbL-1.0', 'record_id': 'n862926861@3', 'update_time': '2020-09-06T07:57:34Z', 'confidence': None, 'between': None}]", "connector_id": null, "matched_data": null, "match_status": "Unmatched" }, "geometry": { "type": "Point", "coordinates": [ 11.1195604, 60.7887619 ] } },
{ "type": "Feature", "properties": { "id": "5f00695e-c81e-4b5a-bd47-b3818558321b", "bbox": { "xmin": 11.123870849609375, "xmax": 11.123871803283691, "ymin": 60.79556655883789, "ymax": 60.79557418823242 }, "version": 1, "sources": "[{'property': '', 'dataset': 'OpenStreetMap', 'license': 'ODbL-1.0', 'record_id': 'n1036636905@2', 'update_time': '2017-12-16T22:52:41Z', 'confidence': None, 'between': None}]", "connector_id": null, "matched_data": null, "match_status": "Unmatched" }, "geometry": { "type": "Point", "coordinates": [ 11.1238718, 60.7955666 ] } },
{ "type": "Feature", "properties": { "id": "2e7b9d8e-6748-453b-bb1c-fbdf7fc95795", "bbox": { "xmin": 11.126845359802246, "xmax": 11.126847267150879, "ymin": 60.79767990112305, "ymax": 60.79768753051758 }, "version": 1, "sources": "[{'property': '', 'dataset': 'OpenStreetMap', 'license': 'ODbL-1.0', 'record_id': 'n434515158@2', 'update_time': '2010-12-13T00:02:16Z', 'confidence': None, 'between': None}]", "connector_id": null, "matched_data": null, "match_status": "Unmatched" }, "geometry": { "type": "Point", "coordinates": [ 11.1268458, 60.7976805 ] } },
{ "type": "Feature", "properties": { "id": "3e49a63a-0aa9-4ca5-9040-4ba55ca99ac3", "bbox": { "xmin": 11.128162384033203, "xmax": 11.128164291381836, "ymin": 60.798980712890625, "ymax": 60.798988342285156 }, "version": 1, "sources": "[{'property': '', 'dataset': 'OpenStreetMap', 'license': 'ODbL-1.0', 'record_id': 'n5288433679@1', 'update_time': '2017-12-16T22:52:38Z', 'confidence': None, 'between': None}]", "connector_id": null, "matched_data": null, "match_status": "Unmatched" }, "geometry": { "type": "Point", "coordinates": [ 11.1281641, 60.7989868 ] } },
{ "type": "Feature", "properties": { "id": "f452a1c8-ba7b-48fb-a5e4-30e04d56c169", "bbox": { "xmin": 11.126230239868164, "xmax": 11.126232147216797, "ymin": 60.805843353271484, "ymax": 60.805850982666016 }, "version": 1, "sources": "[{'property': '', 'dataset': 'OpenStreetMap', 'license': 'ODbL-1.0', 'record_id': 'n432903945@2', 'update_time': '2010-12-14T22:12:48Z', 'confidence': None, 'between': None}]", "connector_id": null, "matched_data": null, "match_status": "Unmatched" }, "geometry": { "type": "Point", "coordinates": [ 11.1262307, 60.8058496 ] } },
{ "type": "Feature", "properties": { "id": "2ba8f232-b9e5-4943-b4e2-7f760af49470", "bbox": { "xmin": 11.134193420410156, "xmax": 11.134194374084473, "ymin": 60.80529022216797, "ymax": 60.8052978515625 }, "version": 1, "sources": "[{'property': '', 'dataset': 'OpenStreetMap', 'license': 'ODbL-1.0', 'record_id': 'n432904388@2', 'update_time': '2010-12-14T11:58:26Z', 'confidence': None, 'between': None}]", "connector_id": null, "matched_data": null, "match_status": "Unmatched" }, "geometry": { "type": "Point", "coordinates": [ 11.1341935, 60.8052917 ] } },
{ "type": "Feature", "properties": { "id": "4c7fa825-9841-484f-b57a-681633be6ec5", "bbox": { "xmin": 11.133570671081543, "xmax": 11.133572578430176, "ymin": 60.80745315551758, "ymax": 60.80746078491211 }, "version": 1, "sources": "[{'property': '', 'dataset': 'OpenStreetMap', 'license': 'ODbL-1.0', 'record_id': 'n8620464315@1', 'update_time': '2021-04-12T05:13:13Z', 'confidence': None, 'between': None}]", "connector_id": null, "matched_data": null, "match_status": "Unmatched" }, "geometry": { "type": "Point", "coordinates": [ 11.133571, 60.807459 ] } },
{ "type": "Feature", "properties": { "id": "0c6dde7e-df77-4b29-9e87-ffc1e8c5de1e", "bbox": { "xmin": 11.138298034667969, "xmax": 11.138299942016602, "ymin": 60.807125091552734, "ymax": 60.807132720947266 }, "version": 1, "sources": "[{'property': '', 'dataset': 'OpenStreetMap', 'license': 'ODbL-1.0', 'record_id': 'n1038152799@1', 'update_time': '2010-12-14T11:58:18Z', 'confidence': None, 'between': None}]", "connector_id": null, "matched_data": null, "match_status": "Unmatched" }, "geometry": { "type": "Point", "coordinates": [ 11.1382995, 60.8071323 ] } },
{ "type": "Feature", "properties": { "id": "0d5faf92-ab95-41b5-829e-189f1d68a129", "bbox": { "xmin": 11.137982368469238, "xmax": 11.137984275817871, "ymin": 60.80669403076172, "ymax": 60.80670166015625 }, "version": 1, "sources": "[{'property': '', 'dataset': 'OpenStreetMap', 'license': 'ODbL-1.0', 'record_id': 'n432904403@4', 'update_time': '2021-04-12T05:13:13Z', 'confidence': None, 'between': None}]", "connector_id": null, "matched_data": null, "match_status": "Unmatched" }, "geometry": { "type": "Point", "coordinates": [ 11.1379839, 60.8066943 ] } },
{ "type": "Feature", "properties": { "id": "a7dcf0ae-c7d8-4149-973d-063ec0ed34ac", "bbox": { "xmin": 11.139429092407227, "xmax": 11.13943099975586, "ymin": 60.804561614990234, "ymax": 60.804569244384766 }, "version": 1, "sources": "[{'property': '', 'dataset': 'OpenStreetMap', 'license': 'ODbL-1.0', 'record_id': 'n432904501@3', 'update_time': '2021-04-12T05:13:13Z', 'confidence': None, 'between': None}]", "connector_id": null, "matched_data": null, "match_status": "Unmatched" }, "geometry": { "type": "Point", "coordinates": [ 11.1394307, 60.804569 ] } },
{ "type": "Feature", "properties": { "id": "add78f35-61c3-4562-aa7b-db0c5b99eb06", "bbox": { "xmin": 11.148893356323242, "xmax": 11.148895263671875, "ymin": 60.79841232299805, "ymax": 60.79841995239258 }, "version": 1, "sources": "[{'property': '', 'dataset': 'OpenStreetMap', 'license': 'ODbL-1.0', 'record_id': 'n434527536@3', 'update_time': '2021-10-04T20:41:27Z', 'confidence': None, 'between': None}]", "connector_id": null, "matched_data": null, "match_status": "Unmatched" }, "geometry": { "type": "Point", "coordinates": [ 11.1488948, 60.7984197 ] } },
{ "type": "Feature", "properties": { "id": "d779c44c-a693-4bb4-a565-2b216efff89a", "bbox": { "xmin": 11.157987594604492, "xmax": 11.157989501953125, "ymin": 60.805458068847656, "ymax": 60.80546569824219 }, "version": 1, "sources": "[{'property': '', 'dataset': 'OpenStreetMap', 'license': 'ODbL-1.0', 'record_id': 'n1128097240@2', 'update_time': '2021-04-11T08:13:57Z', 'confidence': None, 'between': None}]", "connector_id": null, "matched_data": null, "match_status": "Unmatched" }, "geometry": { "type": "Point", "coordinates": [ 11.1579878, 60.805465 ] } },
{ "type": "Feature", "properties": { "id": "c08e294f-21bd-4c46-8054-32a7d505007f", "bbox": { "xmin": 11.149209976196289, "xmax": 11.149210929870605, "ymin": 60.814598083496094, "ymax": 60.814605712890625 }, "version": 1, "sources": "[{'property': '', 'dataset': 'OpenStreetMap', 'license': 'ODbL-1.0', 'record_id': 'n1901272509@2', 'update_time': '2021-04-11T08:13:57Z', 'confidence': None, 'between': None}]", "connector_id": null, "matched_data": null, "match_status": "Unmatched" }, "geometry": { "type": "Point", "coordinates": [ 11.14921, 60.814604 ] } },
{ "type": "Feature", "properties": { "id": "54cb9bd5-898a-4a14-bbe9-48457e878f90", "bbox": { "xmin": 11.148310661315918, "xmax": 11.14831256866455, "ymin": 60.811981201171875, "ymax": 60.811988830566406 }, "version": 1, "sources": "[{'property': '', 'dataset': 'OpenStreetMap', 'license': 'ODbL-1.0', 'record_id': 'n8616954479@1', 'update_time': '2021-04-11T08:13:57Z', 'confidence': None, 'between': None}]", "connector_id": null, "matched_data": null, "match_status": "Unmatched" }, "geometry": { "type": "Point", "coordinates": [ 11.148311, 60.811988 ] } },
{ "type": "Feature", "properties": { "id": "7e2d7c6e-4d56-46f3-8c42-b5527abc3764", "bbox": { "xmin": 11.083086967468262, "xmax": 11.083088874816895, "ymin": 60.804603576660156, "ymax": 60.80461120605469 }, "version": 1, "sources": "[{'property': '', 'dataset': 'OpenStreetMap', 'license': 'ODbL-1.0', 'record_id': 'n304997386@4', 'update_time': '2018-09-13T21:09:16Z', 'confidence': None, 'between': None}]", "connector_id": null, "matched_data": null, "match_status": "Unmatched" }, "geometry": { "type": "Point", "coordinates": [ 11.0830874, 60.8046046 ] } },
{ "type": "Feature", "properties": { "id": "4615244b-7210-4143-82ba-6763f68e81fe", "bbox": { "xmin": 11.079155921936035, "xmax": 11.079156875610352, "ymin": 60.80929946899414, "ymax": 60.80930709838867 }, "version": 1, "sources": "[{'property': '', 'dataset': 'OpenStreetMap', 'license': 'ODbL-1.0', 'record_id': 'n304882555@1', 'update_time': '2008-10-15T22:51:55Z', 'confidence': None, 'between': None}]", "connector_id": null, "matched_data": null, "match_status": "Unmatched" }, "geometry": { "type": "Point", "coordinates": [ 11.0791568, 60.8093053 ] } },
{ "type": "Feature", "properties": { "id": "b2ed44b4-6b18-4fb4-b43f-46468a65f36f", "bbox": { "xmin": 11.079157829284668, "xmax": 11.0791597366333, "ymin": 60.809417724609375, "ymax": 60.809425354003906 }, "version": 1, "sources": "[{'property': '', 'dataset': 'OpenStreetMap', 'license': 'ODbL-1.0', 'record_id': 'n304882556@2', 'update_time': '2021-04-12T17:06:31Z', 'confidence': None, 'between': None}]", "connector_id": null, "matched_data": null, "match_status": "Unmatched" }, "geometry": { "type": "Point", "coordinates": [ 11.0791595, 60.8094196 ] } },
{ "type": "Feature", "properties": { "id": "951ad4cd-a80b-4e9d-9c04-5b41a677ac92", "bbox": { "xmin": 11.079153060913086, "xmax": 11.079154968261719, "ymin": 60.80982971191406, "ymax": 60.809837341308594 }, "version": 1, "sources": "[{'property': '', 'dataset': 'OpenStreetMap', 'license': 'ODbL-1.0', 'record_id': 'n8622738488@1', 'update_time': '2021-04-12T17:06:31Z', 'confidence': None, 'between': None}]", "connector_id": null, "matched_data": null, "match_status": "Unmatched" }, "geometry": { "type": "Point", "coordinates": [ 11.0791547, 60.8098305 ] } },
{ "type": "Feature", "properties": { "id": "4d93fd9e-00b5-4289-96c0-717f60b5d7cf", "bbox": { "xmin": 11.079194068908691, "xmax": 11.079195976257324, "ymin": 60.80985641479492, "ymax": 60.80986404418945 }, "version": 1, "sources": "[{'property': '', 'dataset': 'OpenStreetMap', 'license': 'ODbL-1.0', 'record_id': 'n8622738486@1', 'update_time': '2021-04-12T17:06:31Z', 'confidence': None, 'between': None}]", "connector_id": null, "matched_data": null, "match_status": "Unmatched" }, "geometry": { "type": "Point", "coordinates": [ 11.0791942, 60.8098625 ] } },
{ "type": "Feature", "properties": { "id": "537f5bfe-bb0b-468c-942b-f57ae6a76908", "bbox": { "xmin": 11.082167625427246, "xmax": 11.082168579101562, "ymin": 60.81003952026367, "ymax": 60.8100471496582 }, "version": 1, "sources": "[{'property': '', 'dataset': 'OpenStreetMap', 'license': 'ODbL-1.0', 'record_id': 'n304882566@2', 'update_time': '2021-04-12T17:06:31Z', 'confidence': None, 'between': None}]", "connector_id": null, "matched_data": null, "match_status": "Unmatched" }, "geometry": { "type": "Point", "coordinates": [ 11.0821685, 60.8100465 ] } },
{ "type": "Feature", "properties": { "id": "befca500-fef2-484d-84e9-b5bc92a99192", "bbox": { "xmin": 11.088204383850098, "xmax": 11.08820629119873, "ymin": 60.811500549316406, "ymax": 60.81150817871094 }, "version": 1, "sources": "[{'property': '', 'dataset': 'OpenStreetMap', 'license': 'ODbL-1.0', 'record_id': 'n7620859470@1', 'update_time': '2020-06-14T23:30:08Z', 'confidence': None, 'between': None}]", "connector_id": null, "matched_data": null, "match_status": "Unmatched" }, "geometry": { "type": "Point", "coordinates": [ 11.0882045, 60.8115075 ] } },
{ "type": "Feature", "properties": { "id": "f503601d-8e5a-4ba5-b7a2-519269a65dd1", "bbox": { "xmin": 11.094259262084961, "xmax": 11.094260215759277, "ymin": 60.81088638305664, "ymax": 60.81089401245117 }, "version": 1, "sources": "[{'property': '', 'dataset': 'OpenStreetMap', 'license': 'ODbL-1.0', 'record_id': 'n5010095289@1', 'update_time': '2017-08-02T19:28:01Z', 'confidence': None, 'between': None}]", "connector_id": null, "matched_data": null, "match_status": "Unmatched" }, "geometry": { "type": "Point", "coordinates": [ 11.0942602, 60.8108933 ] } },
{ "type": "Feature", "properties": { "id": "db7972f5-6b05-41b9-b052-ef7127fb62d5", "bbox": { "xmin": 11.060776710510254, "xmax": 11.060778617858887, "ymin": 60.813941955566406, "ymax": 60.81394958496094 }, "version": 1, "sources": "[{'property': '', 'dataset': 'OpenStreetMap', 'license': 'ODbL-1.0', 'record_id': 'n7359312383@2', 'update_time': '2021-04-12T06:36:58Z', 'confidence': None, 'between': None}]", "connector_id": null, "matched_data": null, "match_status": "Unmatched" }, "geometry": { "type": "Point", "coordinates": [ 11.0607769, 60.813943 ] } },
{ "type": "Feature", "properties": { "id": "1cec4f4d-90f0-4f7a-bbdc-ddb3b16b082c", "bbox": { "xmin": 11.06188678741455, "xmax": 11.061888694763184, "ymin": 60.81490707397461, "ymax": 60.81491470336914 }, "version": 1, "sources": "[{'property': '', 'dataset': 'OpenStreetMap', 'license': 'ODbL-1.0', 'record_id': 'n7620859465@2', 'update_time': '2021-04-12T06:36:58Z', 'confidence': None, 'between': None}]", "connector_id": null, "matched_data": null, "match_status": "Unmatched" }, "geometry": { "type": "Point", "coordinates": [ 11.0618872, 60.8149076 ] } },
{ "type": "Feature", "properties": { "id": "434657eb-e582-4704-b193-41fb4c0c44b7", "bbox": { "xmin": 11.059499740600586, "xmax": 11.059501647949219, "ymin": 60.81892013549805, "ymax": 60.81892776489258 }, "version": 1, "sources": "[{'property': '', 'dataset': 'OpenStreetMap', 'license': 'ODbL-1.0', 'record_id': 'n10780953175@1', 'update_time': '2023-04-03T05:41:30Z', 'confidence': None, 'between': None}]", "connector_id": null, "matched_data": null, "match_status": "Unmatched" }, "geometry": { "type": "Point", "coordinates": [ 11.0595015, 60.818922 ] } },
{ "type": "Feature", "properties": { "id": "31898284-907c-42e7-ba3b-a31bfa358e9d", "bbox": { "xmin": 11.061542510986328, "xmax": 11.061543464660645, "ymin": 60.81898880004883, "ymax": 60.81899642944336 }, "version": 1, "sources": "[{'property': '', 'dataset': 'OpenStreetMap', 'license': 'ODbL-1.0', 'record_id': 'n10780953169@1', 'update_time': '2023-04-03T05:41:30Z', 'confidence': None, 'between': None}]", "connector_id": null, "matched_data": null, "match_status": "Unmatched" }, "geometry": { "type": "Point", "coordinates": [ 11.0615426, 60.8189946 ] } },
{ "type": "Feature", "properties": { "id": "78e7e8ad-416e-4b23-a735-ab7ba2ff42c3", "bbox": { "xmin": 11.049221992492676, "xmax": 11.049223899841309, "ymin": 60.8201904296875, "ymax": 60.82019805908203 }, "version": 1, "sources": "[{'property': '', 'dataset': 'OpenStreetMap', 'license': 'ODbL-1.0', 'record_id': 'n430938952@1', 'update_time': '2009-06-29T21:20:42Z', 'confidence': None, 'between': None}]", "connector_id": null, "matched_data": null, "match_status": "Unmatched" }, "geometry": { "type": "Point", "coordinates": [ 11.0492237, 60.8201965 ] } },
{ "type": "Feature", "properties": { "id": "cefb93a5-c62f-4f18-b6d7-7d11ba3152f4", "bbox": { "xmin": 11.03780460357666, "xmax": 11.037806510925293, "ymin": 60.81138610839844, "ymax": 60.81139373779297 }, "version": 1, "sources": "[{'property': '', 'dataset': 'OpenStreetMap', 'license': 'ODbL-1.0', 'record_id': 'n440777148@2', 'update_time': '2010-12-04T22:13:27Z', 'confidence': None, 'between': None}]", "connector_id": null, "matched_data": null, "match_status": "Unmatched" }, "geometry": { "type": "Point", "coordinates": [ 11.0378048, 60.8113867 ] } },
{ "type": "Feature", "properties": { "id": "281c91d2-d25e-4b25-b74a-50f29d406241", "bbox": { "xmin": 11.03875732421875, "xmax": 11.038759231567383, "ymin": 60.81186294555664, "ymax": 60.81187057495117 }, "version": 1, "sources": "[{'property': '', 'dataset': 'OpenStreetMap', 'license': 'ODbL-1.0', 'record_id': 'n430931426@2', 'update_time': '2010-12-05T23:04:09Z', 'confidence': None, 'between': None}]", "connector_id": null, "matched_data": null, "match_status": "Unmatched" }, "geometry": { "type": "Point", "coordinates": [ 11.0387589, 60.8118635 ] } },
{ "type": "Feature", "properties": { "id": "79b281bd-eec2-4020-bbc6-160525de2052", "bbox": { "xmin": 11.038902282714844, "xmax": 11.038904190063477, "ymin": 60.811859130859375, "ymax": 60.811866760253906 }, "version": 1, "sources": "[{'property': '', 'dataset': 'OpenStreetMap', 'license': 'ODbL-1.0', 'record_id': 'n335962755@2', 'update_time': '2010-12-05T23:04:09Z', 'confidence': None, 'between': None}]", "connector_id": null, "matched_data": null, "match_status": "Unmatched" }, "geometry": { "type": "Point", "coordinates": [ 11.0389024, 60.8118603 ] } },
{ "type": "Feature", "properties": { "id": "93435d09-0578-45ab-b032-3efbe7a81dbb", "bbox": { "xmin": 11.046585083007812, "xmax": 11.046586990356445, "ymin": 60.81172180175781, "ymax": 60.811729431152344 }, "version": 1, "sources": "[{'property': '', 'dataset': 'OpenStreetMap', 'license': 'ODbL-1.0', 'record_id': 'n304625788@4', 'update_time': '2010-12-05T23:44:09Z', 'confidence': None, 'between': None}]", "connector_id": null, "matched_data": null, "match_status": "Unmatched" }, "geometry": { "type": "Point", "coordinates": [ 11.0465854, 60.8117232 ] } },
{ "type": "Feature", "properties": { "id": "2f3903e9-7823-433c-bdfe-cfb63d1f03ea", "bbox": { "xmin": 11.06061840057373, "xmax": 11.060620307922363, "ymin": 60.79943084716797, "ymax": 60.7994384765625 }, "version": 1, "sources": "[{'property': '', 'dataset': 'OpenStreetMap', 'license': 'ODbL-1.0', 'record_id': 'n8622737368@1', 'update_time': '2021-04-12T17:06:31Z', 'confidence': None, 'between': None}]", "connector_id": null, "matched_data": null, "match_status": "Unmatched" }, "geometry": { "type": "Point", "coordinates": [ 11.0606199, 60.7994382 ] } },
{ "type": "Feature", "properties": { "id": "cb0c058b-ad1d-44bd-91b7-1e218949e135", "bbox": { "xmin": 11.05817985534668, "xmax": 11.058181762695312, "ymin": 60.79825210571289, "ymax": 60.79825973510742 }, "version": 1, "sources": "[{'property': '', 'dataset': 'OpenStreetMap', 'license': 'ODbL-1.0', 'record_id': 'n8388512882@1', 'update_time': '2021-02-02T20:34:39Z', 'confidence': None, 'between': None}]", "connector_id": null, "matched_data": null, "match_status": "Unmatched" }, "geometry": { "type": "Point", "coordinates": [ 11.0581801, 60.7982592 ] } },
{ "type": "Feature", "properties": { "id": "940ae08b-4c80-4916-817e-40452d77200c", "bbox": { "xmin": 11.059623718261719, "xmax": 11.059625625610352, "ymin": 60.79458236694336, "ymax": 60.79458999633789 }, "version": 1, "sources": "[{'property': '', 'dataset': 'OpenStreetMap', 'license': 'ODbL-1.0', 'record_id': 'n3120437944@1', 'update_time': '2014-10-09T11:36:20Z', 'confidence': None, 'between': None}]", "connector_id": null, "matched_data": null, "match_status": "Unmatched" }, "geometry": { "type": "Point", "coordinates": [ 11.059624, 60.7945825 ] } },
{ "type": "Feature", "properties": { "id": "1a1ad92f-ffd5-40c8-8ddd-b6507c4ad7ed", "bbox": { "xmin": 11.059571266174316, "xmax": 11.05957317352295, "ymin": 60.794673919677734, "ymax": 60.794681549072266 }, "version": 1, "sources": "[{'property': '', 'dataset': 'OpenStreetMap', 'license': 'ODbL-1.0', 'record_id': 'n2510094610@2', 'update_time': '2014-10-09T11:36:23Z', 'confidence': None, 'between': None}]", "connector_id": null, "matched_data": null, "match_status": "Unmatched" }, "geometry": { "type": "Point", "coordinates": [ 11.0595715, 60.794675 ] } },
{ "type": "Feature", "properties": { "id": "3c350b55-b68d-4214-bcf8-fe237731d41b", "bbox": { "xmin": 11.035934448242188, "xmax": 11.03593635559082, "ymin": 60.798065185546875, "ymax": 60.798072814941406 }, "version": 1, "sources": "[{'property': '', 'dataset': 'OpenStreetMap', 'license': 'ODbL-1.0', 'record_id': 'n1022461691@2', 'update_time': '2022-11-05T19:19:57Z', 'confidence': None, 'between': None}]", "connector_id": null, "matched_data": null, "match_status": "Unmatched" }, "geometry": { "type": "Point", "coordinates": [ 11.0359362, 60.7980719 ] } },
{ "type": "Feature", "properties": { "id": "034fb77a-6373-467d-ba26-4398db77d1c2", "bbox": { "xmin": 11.028018951416016, "xmax": 11.028020858764648, "ymin": 60.805328369140625, "ymax": 60.805335998535156 }, "version": 1, "sources": "[{'property': '', 'dataset': 'OpenStreetMap', 'license': 'ODbL-1.0', 'record_id': 'n5658756775@1', 'update_time': '2018-06-02T14:02:32Z', 'confidence': None, 'between': None}]", "connector_id": null, "matched_data": null, "match_status": "Unmatched" }, "geometry": { "type": "Point", "coordinates": [ 11.0280204, 60.8053347 ] } },
{ "type": "Feature", "properties": { "id": "f5e76bd9-ef1e-4734-be95-e1985b915065", "bbox": { "xmin": 11.026759147644043, "xmax": 11.026761054992676, "ymin": 60.809303283691406, "ymax": 60.80931091308594 }, "version": 1, "sources": "[{'property': '', 'dataset': 'OpenStreetMap', 'license': 'ODbL-1.0', 'record_id': 'n1242157930@1', 'update_time': '2011-04-12T17:08:49Z', 'confidence': None, 'between': None}]", "connector_id": null, "matched_data": null, "match_status": "Unmatched" }, "geometry": { "type": "Point", "coordinates": [ 11.0267593, 60.8093093 ] } },
{ "type": "Feature", "properties": { "id": "7d1b5ee6-1f93-4271-9257-830782fc5c0d", "bbox": { "xmin": 11.02611255645752, "xmax": 11.026114463806152, "ymin": 60.8102912902832, "ymax": 60.810298919677734 }, "version": 1, "sources": "[{'property': '', 'dataset': 'OpenStreetMap', 'license': 'ODbL-1.0', 'record_id': 'n334261133@2', 'update_time': '2010-12-05T19:09:36Z', 'confidence': None, 'between': None}]", "connector_id": null, "matched_data": null, "match_status": "Unmatched" }, "geometry": { "type": "Point", "coordinates": [ 11.0261142, 60.8102913 ] } },
{ "type": "Feature", "properties": { "id": "2723d4bc-033a-48f8-86a7-b8314147906c", "bbox": { "xmin": 11.026422500610352, "xmax": 11.026423454284668, "ymin": 60.8111572265625, "ymax": 60.81116485595703 }, "version": 1, "sources": "[{'property': '', 'dataset': 'OpenStreetMap', 'license': 'ODbL-1.0', 'record_id': 'n334259688@2', 'update_time': '2010-12-05T19:09:38Z', 'confidence': None, 'between': None}]", "connector_id": null, "matched_data": null, "match_status": "Unmatched" }, "geometry": { "type": "Point", "coordinates": [ 11.0264226, 60.811159 ] } },
{ "type": "Feature", "properties": { "id": "93500a94-80cd-4158-9e5c-258afdc5c290", "bbox": { "xmin": 11.026609420776367, "xmax": 11.026611328125, "ymin": 60.811161041259766, "ymax": 60.8111686706543 }, "version": 1, "sources": "[{'property': '', 'dataset': 'OpenStreetMap', 'license': 'ODbL-1.0', 'record_id': 'n516663988@1', 'update_time': '2009-10-01T21:18:25Z', 'confidence': None, 'between': None}]", "connector_id": null, "matched_data": null, "match_status": "Unmatched" }, "geometry": { "type": "Point", "coordinates": [ 11.0266098, 60.8111614 ] } },
{ "type": "Feature", "properties": { "id": "61c7599c-1793-4cc6-a123-583fbb75e0f3", "bbox": { "xmin": 11.025012969970703, "xmax": 11.02501392364502, "ymin": 60.81899642944336, "ymax": 60.81900405883789 }, "version": 1, "sources": "[{'property': '', 'dataset': 'OpenStreetMap', 'license': 'ODbL-1.0', 'record_id': 'n6651945093@1', 'update_time': '2019-07-26T21:04:19Z', 'confidence': None, 'between': None}]", "connector_id": null, "matched_data": null, "match_status": "Unmatched" }, "geometry": { "type": "Point", "coordinates": [ 11.025013, 60.8189981 ] } },
{ "type": "Feature", "properties": { "id": "de402d30-f4fe-4292-890f-605e83bdb809", "bbox": { "xmin": 11.194095611572266, "xmax": 11.194097518920898, "ymin": 60.710819244384766, "ymax": 60.7108268737793 }, "version": 1, "sources": "[{'property': '', 'dataset': 'OpenStreetMap', 'license': 'ODbL-1.0', 'record_id': 'n674124011@3', 'update_time': '2022-08-24T13:27:32Z', 'confidence': None, 'between': None}]", "connector_id": null, "matched_data": null, "match_status": "Unmatched" }, "geometry": { "type": "Point", "coordinates": [ 11.1940974, 60.7108196 ] } },
{ "type": "Feature", "properties": { "id": "4602100b-a287-4b0d-a59b-c3342a8166f8", "bbox": { "xmin": 11.229774475097656, "xmax": 11.229775428771973, "ymin": 60.722747802734375, "ymax": 60.722755432128906 }, "version": 1, "sources": "[{'property': '', 'dataset': 'OpenStreetMap', 'license': 'ODbL-1.0', 'record_id': 'n3376485273@1', 'update_time': '2015-02-28T14:44:57Z', 'confidence': None, 'between': None}]", "connector_id": null, "matched_data": null, "match_status": "Unmatched" }, "geometry": { "type": "Point", "coordinates": [ 11.2297754, 60.7227536 ] } }
]
}
