{
"type": "FeatureCollection",
"name": "inspection_df",
"crs": { "type": "name", "properties": { "name": "urn:ogc:def:crs:OGC:1.3:CRS84" } },
"features": [
{"type":"Feature","properties":{"Area":"Bergen","Unnamed: 0":26959,"segment_id":"daa941b6-fc03-4bb0-ad81-6a043995b709","class":"residential","connector_id":"12482fea-98e9-42ba-83e1-093603c84fc4","at":1.0,"nodeid":"818029","linksequenceId":755984,"position":0.21228546,"distance_to_segment":0.028010094456910221,"distance_class":"0-1","id":"12482fea-98e9-42ba-83e1-093603c84fc4","Area_connector":"Bergen","Validation":true},"geometry":{"type":"Point","coordinates":[5.3543664,60.3868526]}},
{"type":"Feature","properties":{"Area":"Bergen","Unnamed: 0":1511,"segment_id":"4e152afc-fdc7-489d-96ff-3e96078120ba","class":"residential","connector_id":"e590ba3f-86e7-43c7-819b-51e606504e9f","at":1.0,"nodeid":null,"linksequenceId":2613073,"position":0.2901482621151531,"distance_to_segment":0.24530858734315919,"distance_class":"0-1","id":"e590ba3f-86e7-43c7-819b-51e606504e9f","Area_connector":"Bergen","Validation":true},"geometry":{"type":"Point","coordinates":[5.2386828,60.3597523]}},
{"type":"Feature","properties":{"Area":"Bergen","Unnamed: 0":14751,"segment_id":"2d1927de-6ab2-4070-a28a-836e4d67c0ae","class":"residential","connector_id":"6c4a4c73-8e09-41ac-b720-581b4a581e63","at":0.792559697,"nodeid":null,"linksequenceId":755726,"position":0.78847955227253863,"distance_to_segment":0.58879103382243536,"distance_class":"0-1","id":"6c4a4c73-8e09-41ac-b720-581b4a581e63","Area_connector":"Bergen","Validation":true},"geometry":{"type":"Point","coordinates":[5.3677861,60.3136824]}},
{"type":"Feature","properties":{"Area":"Bergen","Unnamed: 0":19425,"segment_id":"87c0d03f-6885-4c83-8f27-4ac894659eff","class":"tertiary","connector_id":"0761ba77-4402-483f-991a-00ca2af32da9","at":0.06104035,"nodeid":"3523664","linksequenceId":805002,"position":0.89778624,"distance_to_segment":0.25053465144756759,"distance_class":"0-1","id":"0761ba77-4402-483f-991a-00ca2af32da9","Area_connector":"Bergen","Validation":true},"geometry":{"type":"Point","coordinates":[5.322347,60.3942329]}},
{"type":"Feature","properties":{"Area":"Bergen","Unnamed: 0":13804,"segment_id":"732c07d5-c61c-4eb6-9abb-afcdbb617bc5","class":"residential","connector_id":"c4ec049c-2fe3-4240-8d36-4bb814dd5713","at":0.0,"nodeid":"823503","linksequenceId":767883,"position":0.47990692,"distance_to_segment":0.36789007713464472,"distance_class":"0-1","id":"c4ec049c-2fe3-4240-8d36-4bb814dd5713","Area_connector":"Bergen","Validation":true},"geometry":{"type":"Point","coordinates":[5.3452026,60.302635]}},
{"type":"Feature","properties":{"Area":"Bergen","Unnamed: 0":3265,"segment_id":"bf1faac2-dd5c-40c2-93d5-c35904cb8af3","class":"secondary","connector_id":"16c24b1e-ac66-41e9-8c25-4c1904ebe824","at":0.969603869,"nodeid":null,"linksequenceId":805301,"position":0.18295484664678641,"distance_to_segment":0.069037953102790581,"distance_class":"0-1","id":"16c24b1e-ac66-41e9-8c25-4c1904ebe824","Area_connector":"Bergen","Validation":true},"geometry":{"type":"Point","coordinates":[5.2598109,60.3127122]}},
{"type":"Feature","properties":{"Area":"Bergen","Unnamed: 0":7845,"segment_id":"0cafba41-373c-4fc8-9e3d-71680f788e24","class":"primary","connector_id":"37a03880-3069-4a68-be25-a1c3d763dbf3","at":0.0,"nodeid":"3368531","linksequenceId":3368544,"position":0.35910828,"distance_to_segment":0.057980938384687979,"distance_class":"0-1","id":"37a03880-3069-4a68-be25-a1c3d763dbf3","Area_connector":"Bergen","Validation":true},"geometry":{"type":"Point","coordinates":[5.286857,60.348789]}},
{"type":"Feature","properties":{"Area":"Bergen","Unnamed: 0":14649,"segment_id":"0d166325-5744-4b6a-beb9-fe5ba4c18272","class":"secondary","connector_id":"e395eb67-abde-40f1-8b71-0d2c4ef1e740","at":0.499644206,"nodeid":"1763233","linksequenceId":805795,"position":0.97341826,"distance_to_segment":0.13064151300896429,"distance_class":"0-1","id":"e395eb67-abde-40f1-8b71-0d2c4ef1e740","Area_connector":"Bergen","Validation":true},"geometry":{"type":"Point","coordinates":[5.3622255,60.3103818]}},
{"type":"Feature","properties":{"Area":"Bergen","Unnamed: 0":25013,"segment_id":"801b3fef-3c7a-4b62-9604-f2a81fddc2fa","class":"residential","connector_id":"59c10fc2-b9f6-4f69-93a3-aa9d39b7e162","at":1.0,"nodeid":"820415","linksequenceId":756184,"position":0.46608527,"distance_to_segment":1.672267930444173,"distance_class":"1-2","id":"59c10fc2-b9f6-4f69-93a3-aa9d39b7e162","Area_connector":"Bergen","Validation":true},"geometry":{"type":"Point","coordinates":[5.3489095,60.3436887]}},
{"type":"Feature","properties":{"Area":"Bergen","Unnamed: 0":9079,"segment_id":"2645f10c-187d-4b45-8e63-35adcfa07000","class":"residential","connector_id":"b3e47898-2602-4b71-8bb8-809535569dde","at":1.0,"nodeid":"1517352","linksequenceId":768240,"position":1.0,"distance_to_segment":1.1372607919322859,"distance_class":"1-2","id":"b3e47898-2602-4b71-8bb8-809535569dde","Area_connector":"Bergen","Validation":true},"geometry":{"type":"Point","coordinates":[5.2921645,60.3056372]}},
{"type":"Feature","properties":{"Area":"Bergen","Unnamed: 0":18352,"segment_id":"3700e682-84e1-4da5-a60b-70e7ae535bbc","class":"primary","connector_id":"899862cb-8a84-4371-9f84-0e75535be819","at":1.0,"nodeid":null,"linksequenceId":805142,"position":0.26245967926896541,"distance_to_segment":1.360273029224208,"distance_class":"1-2","id":"899862cb-8a84-4371-9f84-0e75535be819","Area_connector":"Bergen","Validation":true},"geometry":{"type":"Point","coordinates":[5.3182369,60.3814335]}},
{"type":"Feature","properties":{"Area":"Bergen","Unnamed: 0":24930,"segment_id":"4e0caa21-f22d-4a81-b618-10746b84be92","class":"residential","connector_id":"0dff3039-7d78-4876-bc7c-026404e9779c","at":0.0,"nodeid":"819658","linksequenceId":756613,"position":0.80049393,"distance_to_segment":1.989181005281657,"distance_class":"1-2","id":"0dff3039-7d78-4876-bc7c-026404e9779c","Area_connector":"Bergen","Validation":true},"geometry":{"type":"Point","coordinates":[5.3488494,60.362462]}},
{"type":"Feature","properties":{"Area":"Bergen","Unnamed: 0":22839,"segment_id":"cab52cc4-5ee9-465d-b40b-f81ed32c4dd7","class":"residential","connector_id":"e7cc37be-604d-4f72-81c2-b0971b393a4f","at":0.015588504,"nodeid":"2745507","linksequenceId":755962,"position":0.08470657,"distance_to_segment":1.6761459027129879,"distance_class":"1-2","id":"e7cc37be-604d-4f72-81c2-b0971b393a4f","Area_connector":"Bergen","Validation":true},"geometry":{"type":"Point","coordinates":[5.3417669,60.3409455]}},
{"type":"Feature","properties":{"Area":"Bergen","Unnamed: 0":30310,"segment_id":"1a7abd6b-573f-4c0d-a1f7-d7f77bddd7fb","class":"residential","connector_id":"77363f95-5ecf-4d69-9301-764689ba9837","at":1.0,"nodeid":"817427","linksequenceId":768034,"position":0.0,"distance_to_segment":1.65043981238993,"distance_class":"1-2","id":"77363f95-5ecf-4d69-9301-764689ba9837","Area_connector":"Bergen","Validation":true},"geometry":{"type":"Point","coordinates":[5.3760299,60.3288589]}},
{"type":"Feature","properties":{"Area":"Bergen","Unnamed: 0":25787,"segment_id":"7ad6ed31-6759-468a-9f31-1effba3c3720","class":"tertiary","connector_id":"0c6f1ee5-273a-443c-9c74-5d41e29f38dd","at":0.288653061,"nodeid":"820024","linksequenceId":805309,"position":0.89416411,"distance_to_segment":1.2686198409166181,"distance_class":"1-2","id":"0c6f1ee5-273a-443c-9c74-5d41e29f38dd","Area_connector":"Bergen","Validation":true},"geometry":{"type":"Point","coordinates":[5.3538797,60.3368871]}},
{"type":"Feature","properties":{"Area":"Bergen","Unnamed: 0":8797,"segment_id":"db8f7d3b-fb80-4002-9534-da54f57ae0e5","class":"residential","connector_id":"c5ab592c-1c16-4e98-8a3d-ea021a809a65","at":0.0,"nodeid":"829002","linksequenceId":768030,"position":0.0,"distance_to_segment":1.3755842071313009,"distance_class":"1-2","id":"c5ab592c-1c16-4e98-8a3d-ea021a809a65","Area_connector":"Bergen","Validation":true},"geometry":{"type":"Point","coordinates":[5.2926074,60.3249254]}},
{"type":"Feature","properties":{"Area":"Bergen","Unnamed: 0":14632,"segment_id":"cecbc030-e978-4a3e-8b22-7ee9201c1060","class":"residential","connector_id":"3c569aca-e1df-4860-ade4-9928eafdf18c","at":0.0,"nodeid":"820118","linksequenceId":756574,"position":0.0,"distance_to_segment":2.5677353949277868,"distance_class":"2-5","id":"3c569aca-e1df-4860-ade4-9928eafdf18c","Area_connector":"Bergen","Validation":true},"geometry":{"type":"Point","coordinates":[5.3620196,60.306631]}},
{"type":"Feature","properties":{"Area":"Bergen","Unnamed: 0":30329,"segment_id":"e1a9957f-8f55-470a-b5c3-12228fe4b117","class":"residential","connector_id":"341c4ceb-d8c7-413a-b79d-a230241b159e","at":0.0,"nodeid":"817186","linksequenceId":756568,"position":0.75577134,"distance_to_segment":2.2431794534353888,"distance_class":"2-5","id":"341c4ceb-d8c7-413a-b79d-a230241b159e","Area_connector":"Bergen","Validation":true},"geometry":{"type":"Point","coordinates":[5.3743619,60.3418084]}},
{"type":"Feature","properties":{"Area":"Bergen","Unnamed: 0":16362,"segment_id":"154cc015-d7db-40e1-a3a4-09c24263a790","class":"secondary","connector_id":"4d88150d-40d4-46ed-8226-726c2c7a5199","at":0.0,"nodeid":"825789","linksequenceId":805812,"position":0.11288868,"distance_to_segment":3.478692346492215,"distance_class":"2-5","id":"4d88150d-40d4-46ed-8226-726c2c7a5199","Area_connector":"Bergen","Validation":true},"geometry":{"type":"Point","coordinates":[5.30428,60.3818526]}},
{"type":"Feature","properties":{"Area":"Bergen","Unnamed: 0":26160,"segment_id":"56056849-603c-489b-9308-4f54a3b09979","class":"residential","connector_id":"472df296-0a06-4c1b-8eda-a9a617e84541","at":1.0,"nodeid":"4054549","linksequenceId":756308,"position":1.0,"distance_to_segment":3.6269376567933089,"distance_class":"2-5","id":"472df296-0a06-4c1b-8eda-a9a617e84541","Area_connector":"Bergen","Validation":true},"geometry":{"type":"Point","coordinates":[5.356529,60.3315455]}},
{"type":"Feature","properties":{"Area":"Bergen","Unnamed: 0":8404,"segment_id":"b96d2614-146d-467a-9f26-2d33ad705947","class":"tertiary","connector_id":"363c6a42-2bdb-4dee-8463-661ade2745e8","at":0.451645393,"nodeid":"3943906","linksequenceId":806572,"position":0.41302199,"distance_to_segment":2.1461991549316339,"distance_class":"2-5","id":"363c6a42-2bdb-4dee-8463-661ade2745e8","Area_connector":"Bergen","Validation":true},"geometry":{"type":"Point","coordinates":[5.289507,60.2972275]}},
{"type":"Feature","properties":{"Area":"Bergen","Unnamed: 0":21606,"segment_id":"f93b30ae-bc21-4fc8-b96f-c3411eb83c67","class":"primary","connector_id":"bf744b50-48f5-4c85-9b0c-3111c581432c","at":0.0,"nodeid":"822982","linksequenceId":805059,"position":0.0,"distance_to_segment":3.7430999035699419,"distance_class":"2-5","id":"bf744b50-48f5-4c85-9b0c-3111c581432c","Area_connector":"Bergen","Validation":true},"geometry":{"type":"Point","coordinates":[5.3348183,60.3468317]}},
{"type":"Feature","properties":{"Area":"Bergen","Unnamed: 0":5302,"segment_id":"b39e929e-1573-4a57-93c0-0903dc63b6f6","class":"residential","connector_id":"c49e36fc-d57e-47c6-8481-98ee1f54e279","at":0.393142525,"nodeid":"2630944","linksequenceId":761609,"position":0.10380026,"distance_to_segment":2.2145969203343978,"distance_class":"2-5","id":"c49e36fc-d57e-47c6-8481-98ee1f54e279","Area_connector":"Bergen","Validation":true},"geometry":{"type":"Point","coordinates":[5.2717946,60.3467158]}},
{"type":"Feature","properties":{"Area":"Bergen","Unnamed: 0":1821,"segment_id":"84836aa9-ba25-435b-8106-119d62cbe09c","class":"primary","connector_id":"14b206a7-d560-4982-92d0-9ccd1e348db7","at":0.0,"nodeid":"832970","linksequenceId":805718,"position":0.58446318,"distance_to_segment":2.8292932510973121,"distance_class":"2-5","id":"14b206a7-d560-4982-92d0-9ccd1e348db7","Area_connector":"Bergen","Validation":true},"geometry":{"type":"Point","coordinates":[5.2436193,60.3510871]}},
{"type":"Feature","properties":{"Area":"Bergen","Unnamed: 0":6684,"segment_id":"0cf0a480-a487-468c-9eab-f9bb91a7ee76","class":"residential","connector_id":"1d50f3f9-86af-4182-b520-cbbd58a0a395","at":1.0,"nodeid":"830798","linksequenceId":756062,"position":0.79643573,"distance_to_segment":3.786009567027377,"distance_class":"2-5","id":"1d50f3f9-86af-4182-b520-cbbd58a0a395","Area_connector":"Bergen","Validation":true},"geometry":{"type":"Point","coordinates":[5.2801269,60.3057477]}},
{"type":"Feature","properties":{"Area":"Bergen","Unnamed: 0":18779,"segment_id":"cb771014-a573-4fe7-9aea-e8de040e87c4","class":"residential","connector_id":"2d4d0ac2-b901-4eae-8559-92a089815f66","at":0.0,"nodeid":"823149","linksequenceId":755989,"position":0.3403305,"distance_to_segment":2.4284775282360611,"distance_class":"2-5","id":"2d4d0ac2-b901-4eae-8559-92a089815f66","Area_connector":"Bergen","Validation":true},"geometry":{"type":"Point","coordinates":[5.3220157,60.3865511]}},
{"type":"Feature","properties":{"Area":"Bergen","Unnamed: 0":8806,"segment_id":"55e5e6e0-789b-4787-8478-f860ba738496","class":"residential","connector_id":"34a99195-aa6e-42cb-8e7a-08c9dd4da9f0","at":0.0,"nodeid":"829616","linksequenceId":761583,"position":0.51120946,"distance_to_segment":2.663721773543084,"distance_class":"2-5","id":"34a99195-aa6e-42cb-8e7a-08c9dd4da9f0","Area_connector":"Bergen","Validation":true},"geometry":{"type":"Point","coordinates":[5.2899035,60.3148793]}},
{"type":"Feature","properties":{"Area":"Bergen","Unnamed: 0":23041,"segment_id":"08e26ffb-3b6f-4999-b454-2eda5697e0db","class":"secondary","connector_id":"ea141681-4028-4b87-a3a6-6cb7b049ec26","at":0.0,"nodeid":"3447910","linksequenceId":3448018,"position":0.46648147,"distance_to_segment":3.2895479891321959,"distance_class":"2-5","id":"ea141681-4028-4b87-a3a6-6cb7b049ec26","Area_connector":"Bergen","Validation":true},"geometry":{"type":"Point","coordinates":[5.3423857,60.3698128]}},
{"type":"Feature","properties":{"Area":"Bergen","Unnamed: 0":12261,"segment_id":"15ea9cfc-8a40-4d49-a13b-672e4f18574f","class":"motorway","connector_id":"9eed2b1f-3629-44a0-9c36-6fbb2a46b7f3","at":1.0,"nodeid":null,"linksequenceId":3144568,"position":0.62044598641397097,"distance_to_segment":6.5755703156844891,"distance_class":"5-10","id":"9eed2b1f-3629-44a0-9c36-6fbb2a46b7f3","Area_connector":"Bergen","Validation":true},"geometry":{"type":"Point","coordinates":[5.325062,60.289687]}},
{"type":"Feature","properties":{"Area":"Bergen","Unnamed: 0":22629,"segment_id":"03a6b03f-c3a6-4c62-87ce-da0af9170aa4","class":"residential","connector_id":"14a063ea-1419-433a-b5ee-dfee54d08f8f","at":1.0,"nodeid":"3251228","linksequenceId":765749,"position":0.4891437,"distance_to_segment":5.5880539607303277,"distance_class":"5-10","id":"14a063ea-1419-433a-b5ee-dfee54d08f8f","Area_connector":"Bergen","Validation":true},"geometry":{"type":"Point","coordinates":[5.3387557,60.3487318]}},
{"type":"Feature","properties":{"Area":"Bergen","Unnamed: 0":12204,"segment_id":"1ccd7041-fbf7-4024-ba31-9111b821ac3e","class":"trunk","connector_id":"8f6db0de-cee7-43df-9e7e-a89a8b594e61","at":1.0,"nodeid":"3495733","linksequenceId":3144569,"position":0.53828639,"distance_to_segment":5.5150045063717181,"distance_class":"5-10","id":"8f6db0de-cee7-43df-9e7e-a89a8b594e61","Area_connector":"Bergen","Validation":true},"geometry":{"type":"Point","coordinates":[5.3254902,60.2880586]}},
{"type":"Feature","properties":{"Area":"Bergen","Unnamed: 0":27720,"segment_id":"e59321df-9737-4749-a95e-5539941f6d3b","class":"primary","connector_id":"9e0fb499-8fcf-4eab-931c-d01da7da129d","at":1.0,"nodeid":"817754","linksequenceId":805748,"position":0.53106562,"distance_to_segment":9.290083448015567,"distance_class":"5-10","id":"9e0fb499-8fcf-4eab-931c-d01da7da129d","Area_connector":"Bergen","Validation":true},"geometry":{"type":"Point","coordinates":[5.3593121,60.3766267]}},
{"type":"Feature","properties":{"Area":"Bergen","Unnamed: 0":21047,"segment_id":"6f65d5d6-15ff-4b33-8226-25575dfb79b4","class":"primary","connector_id":"d17fd1d6-8098-4e79-810e-696ec8bf5764","at":0.0,"nodeid":"821049","linksequenceId":1691695,"position":1.0,"distance_to_segment":5.8644938235252724,"distance_class":"5-10","id":"d17fd1d6-8098-4e79-810e-696ec8bf5764","Area_connector":"Bergen","Validation":true},"geometry":{"type":"Point","coordinates":[5.336146,60.376148]}},
{"type":"Feature","properties":{"Area":"Bergen","Unnamed: 0":29198,"segment_id":"6ee555f2-874f-4b3f-ba95-2d236b3c0f4b","class":"residential","connector_id":"fda8b29c-5551-4196-8683-ac2886fb9870","at":1.0,"nodeid":"817462","linksequenceId":755519,"position":0.0,"distance_to_segment":6.3254546559893594,"distance_class":"5-10","id":"fda8b29c-5551-4196-8683-ac2886fb9870","Area_connector":"Bergen","Validation":true},"geometry":{"type":"Point","coordinates":[5.3686185,60.3529735]}},
{"type":"Feature","properties":{"Area":"Bergen","Unnamed: 0":17751,"segment_id":"7e4b5837-765c-42ff-8c8c-4d7c2b1b3333","class":"trunk","connector_id":"8a3a6ee5-fd03-4ee4-a839-22391548cb08","at":0.0,"nodeid":"824832","linksequenceId":804949,"position":0.004138,"distance_to_segment":8.1536389092161201,"distance_class":"5-10","id":"8a3a6ee5-fd03-4ee4-a839-22391548cb08","Area_connector":"Bergen","Validation":true},"geometry":{"type":"Point","coordinates":[5.313498,60.3813685]}},
{"type":"Feature","properties":{"Area":"Bergen","Unnamed: 0":499,"segment_id":"a0ce5243-c133-4462-b7d5-311fce85a80a","class":"residential","connector_id":"fd11744f-2068-4bfa-8791-91c62d7c9de8","at":1.0,"nodeid":"1513426","linksequenceId":768592,"position":1.0,"distance_to_segment":9.5519907131835833,"distance_class":"5-10","id":"fd11744f-2068-4bfa-8791-91c62d7c9de8","Area_connector":"Bergen","Validation":true},"geometry":{"type":"Point","coordinates":[5.2274597,60.3717002]}},
{"type":"Feature","properties":{"Area":"Bergen","Unnamed: 0":28097,"segment_id":"db0f93fb-742b-40f4-bfd1-feb63ee4ec3f","class":"residential","connector_id":"f08e44c1-081a-427f-a321-ebdf159a1dd6","at":1.0,"nodeid":"2103379","linksequenceId":2103172,"position":1.0,"distance_to_segment":8.4967703496299318,"distance_class":"5-10","id":"f08e44c1-081a-427f-a321-ebdf159a1dd6","Area_connector":"Bergen","Validation":true},"geometry":{"type":"Point","coordinates":[5.3592489,60.3436065]}},
{"type":"Feature","properties":{"Area":"Bergen","Unnamed: 0":7825,"segment_id":"1fb2b737-a399-43c7-9b8b-890d8aa25a17","class":"residential","connector_id":"7fefdb15-234f-4746-adaa-ba013b694631","at":1.0,"nodeid":"2899526","linksequenceId":762414,"position":0.67051137,"distance_to_segment":5.1933285438677768,"distance_class":"5-10","id":"7fefdb15-234f-4746-adaa-ba013b694631","Area_connector":"Bergen","Validation":true},"geometry":{"type":"Point","coordinates":[5.2869827,60.3572223]}},
{"type":"Feature","properties":{"Area":"Bergen","Unnamed: 0":26606,"segment_id":"d4fdea79-d095-4f23-ab41-d3f2ddb82629","class":"residential","connector_id":"a627ac4c-cc16-4d25-99ca-ce429120b782","at":1.0,"nodeid":"1516746","linksequenceId":766824,"position":1.0,"distance_to_segment":9.0153657299477192,"distance_class":"5-10","id":"a627ac4c-cc16-4d25-99ca-ce429120b782","Area_connector":"Bergen","Validation":true},"geometry":{"type":"Point","coordinates":[5.3531685,60.3586966]}},
{"type":"Feature","properties":{"Area":"Bergen","Unnamed: 0":18176,"segment_id":"4f0a809f-c7bb-4167-b2ba-971ea370d828","class":"trunk","connector_id":"a3fe005b-fc97-4abe-b7e4-bdbbce6e537e","at":1.0,"nodeid":null,"linksequenceId":807446,"position":0.089380881267795059,"distance_to_segment":5.4297846957222369,"distance_class":"5-10","id":"a3fe005b-fc97-4abe-b7e4-bdbbce6e537e","Area_connector":"Bergen","Validation":false},"geometry":{"type":"Point","coordinates":[5.3162122,60.3872128]}},
{"type":"Feature","properties":{"Area":"Narvik","Unnamed: 0":4482,"segment_id":"be68fd5d-096e-4fcf-9fb2-1541cdad949e","class":"trunk","connector_id":"caef1e75-2087-4f9d-bc66-cc1154ebd5a3","at":0.403884566,"nodeid":"920087","linksequenceId":885156,"position":0.83744689,"distance_to_segment":0.002418647169478259,"distance_class":"0-1","id":"caef1e75-2087-4f9d-bc66-cc1154ebd5a3","Area_connector":"Narvik","Validation":true},"geometry":{"type":"Point","coordinates":[17.5433705,68.4999991]}},
{"type":"Feature","properties":{"Area":"Narvik","Unnamed: 0":3459,"segment_id":"350c3ea4-d6df-478f-a953-7fe013f8f022","class":"trunk","connector_id":"f8ba20c7-66db-45d9-a02a-1b1fe14119c8","at":0.923776705,"nodeid":"918993","linksequenceId":885939,"position":0.92958984,"distance_to_segment":0.60345280724539319,"distance_class":"0-1","id":"f8ba20c7-66db-45d9-a02a-1b1fe14119c8","Area_connector":"Narvik","Validation":true},"geometry":{"type":"Point","coordinates":[17.3130562,68.4107723]}},
{"type":"Feature","properties":{"Area":"Narvik","Unnamed: 0":2236,"segment_id":"6fe591eb-8c20-4b98-b557-3723b073854b","class":"residential","connector_id":"55274309-bc40-4ed3-ac93-e8ac565cbb1f","at":0.0,"nodeid":"919486","linksequenceId":854956,"position":0.51156222,"distance_to_segment":0.090220551875296359,"distance_class":"0-1","id":"55274309-bc40-4ed3-ac93-e8ac565cbb1f","Area_connector":"Narvik","Validation":true},"geometry":{"type":"Point","coordinates":[17.4237368,68.441206]}},
{"type":"Feature","properties":{"Area":"Narvik","Unnamed: 0":2077,"segment_id":"37bcf627-47e7-47a7-97f5-8d0aa970699f","class":"residential","connector_id":"7d2d7cf4-ae92-42ba-97ae-887a6372cb94","at":1.0,"nodeid":"919456","linksequenceId":886254,"position":0.42848127,"distance_to_segment":0.98566495477061944,"distance_class":"0-1","id":"7d2d7cf4-ae92-42ba-97ae-887a6372cb94","Area_connector":"Narvik","Validation":true},"geometry":{"type":"Point","coordinates":[17.4216858,68.4433274]}},
{"type":"Feature","properties":{"Area":"Narvik","Unnamed: 0":316,"segment_id":"4b67a020-a014-4fa9-8a09-730ffbf80a4e","class":"residential","connector_id":"e5ebd07d-6e38-4341-ae41-27effb1eac64","at":1.0,"nodeid":"2515541","linksequenceId":855089,"position":0.88243093,"distance_to_segment":0.30999635063037179,"distance_class":"0-1","id":"e5ebd07d-6e38-4341-ae41-27effb1eac64","Area_connector":"Narvik","Validation":true},"geometry":{"type":"Point","coordinates":[17.4392759,68.4463435]}},
{"type":"Feature","properties":{"Area":"Narvik","Unnamed: 0":795,"segment_id":"7d0f6867-18e1-4d78-9bc9-2a6d0cd5a98c","class":"residential","connector_id":"fd2ecaed-a206-4bf3-b858-215f0e15dcef","at":0.910326665,"nodeid":"919841","linksequenceId":886113,"position":0.1255986,"distance_to_segment":0.002223810282061553,"distance_class":"0-1","id":"fd2ecaed-a206-4bf3-b858-215f0e15dcef","Area_connector":"Narvik","Validation":true},"geometry":{"type":"Point","coordinates":[17.4481486,68.4085002]}},
{"type":"Feature","properties":{"Area":"Narvik","Unnamed: 0":775,"segment_id":"e456369b-038a-4d8c-b546-001b10c8f4fe","class":"secondary","connector_id":"5d0d8582-2917-41cd-99a4-fd1d93570972","at":0.0,"nodeid":"919841","linksequenceId":886113,"position":0.1255986,"distance_to_segment":0.17784557577082691,"distance_class":"0-1","id":"5d0d8582-2917-41cd-99a4-fd1d93570972","Area_connector":"Narvik","Validation":true},"geometry":{"type":"Point","coordinates":[17.4480417,68.4084933]}},
{"type":"Feature","properties":{"Area":"Narvik","Unnamed: 0":4540,"segment_id":"5e511617-1118-43ed-96bc-9b1ca525dda8","class":"residential","connector_id":"8e2390ff-ef53-4b73-b859-2ba3247e051d","at":1.0,"nodeid":"2514588","linksequenceId":854988,"position":0.42291481,"distance_to_segment":0.90836662185617389,"distance_class":"0-1","id":"8e2390ff-ef53-4b73-b859-2ba3247e051d","Area_connector":"Narvik","Validation":true},"geometry":{"type":"Point","coordinates":[17.5466102,68.5537914]}},
{"type":"Feature","properties":{"Area":"Narvik","Unnamed: 0":484,"segment_id":"0647b81a-bfc0-4be9-9f22-3110b78d7ff9","class":"residential","connector_id":"9adfb6df-87ee-48d3-b283-b7b1b63fa4a2","at":1.0,"nodeid":"919794","linksequenceId":855031,"position":1.0,"distance_to_segment":1.4575035014152711,"distance_class":"1-2","id":"9adfb6df-87ee-48d3-b283-b7b1b63fa4a2","Area_connector":"Narvik","Validation":true},"geometry":{"type":"Point","coordinates":[17.4456252,68.443708]}},
{"type":"Feature","properties":{"Area":"Narvik","Unnamed: 0":4818,"segment_id":"a8063a56-75e5-4ec8-a53b-5e353e09324b","class":"trunk","connector_id":"48fccfc1-898c-4dfe-a613-7a262b21d14a","at":0.0,"nodeid":"3979653","linksequenceId":3979661,"position":0.50776469,"distance_to_segment":1.0100640303947741,"distance_class":"1-2","id":"48fccfc1-898c-4dfe-a613-7a262b21d14a","Area_connector":"Narvik","Validation":true},"geometry":{"type":"Point","coordinates":[17.5838327,68.5758104]}},
{"type":"Feature","properties":{"Area":"Narvik","Unnamed: 0":1499,"segment_id":"ec24a0ce-1479-4e9b-83c2-e8d555e2ae0e","class":"residential","connector_id":"e8803911-370e-4488-83ad-0d6434dab248","at":1.0,"nodeid":"919321","linksequenceId":855182,"position":0.0,"distance_to_segment":1.610823018073241,"distance_class":"1-2","id":"e8803911-370e-4488-83ad-0d6434dab248","Area_connector":"Narvik","Validation":true},"geometry":{"type":"Point","coordinates":[17.4037937,68.412248]}},
{"type":"Feature","properties":{"Area":"Narvik","Unnamed: 0":16,"segment_id":"c1323474-4f52-49c4-ba5b-3bf417c4056d","class":"residential","connector_id":"d6185a62-0bf3-49c2-94d9-a40a097e9829","at":0.0,"nodeid":"2232636","linksequenceId":855089,"position":0.03217692,"distance_to_segment":1.281235089184541,"distance_class":"1-2","id":"d6185a62-0bf3-49c2-94d9-a40a097e9829","Area_connector":"Narvik","Validation":true},"geometry":{"type":"Point","coordinates":[17.4376069,68.4430197]}},
{"type":"Feature","properties":{"Area":"Narvik","Unnamed: 0":4346,"segment_id":"c55678fb-36d9-484e-a376-838581c4c1f1","class":"residential","connector_id":"463b7be6-8242-4bff-bd96-6be32895f4bc","at":0.0,"nodeid":null,"linksequenceId":855018,"position":0.92325108972222636,"distance_to_segment":1.213232778548849,"distance_class":"1-2","id":"463b7be6-8242-4bff-bd96-6be32895f4bc","Area_connector":"Narvik","Validation":true},"geometry":{"type":"Point","coordinates":[17.5569113,68.5528016]}},
{"type":"Feature","properties":{"Area":"Narvik","Unnamed: 0":516,"segment_id":"aa93071c-6f03-47c8-83de-ee48fb2d7650","class":"residential","connector_id":"b1762cfd-9840-4c13-9448-840bde2e1ede","at":0.0,"nodeid":"919778","linksequenceId":862805,"position":1.0,"distance_to_segment":1.481310226549831,"distance_class":"1-2","id":"b1762cfd-9840-4c13-9448-840bde2e1ede","Area_connector":"Narvik","Validation":true},"geometry":{"type":"Point","coordinates":[17.4444007,68.4473679]}},
{"type":"Feature","properties":{"Area":"Narvik","Unnamed: 0":2229,"segment_id":"79d56fdb-8bde-453d-8ead-e8f2470b0fd5","class":"residential","connector_id":"c09f04ea-a8e8-4bed-ad58-8116477b70ca","at":0.0,"nodeid":"919497","linksequenceId":855058,"position":1.0,"distance_to_segment":1.3551847230631211,"distance_class":"1-2","id":"c09f04ea-a8e8-4bed-ad58-8116477b70ca","Area_connector":"Narvik","Validation":true},"geometry":{"type":"Point","coordinates":[17.4252632,68.4441589]}},
{"type":"Feature","properties":{"Area":"Narvik","Unnamed: 0":4700,"segment_id":"4e0ff88c-9795-4b64-bafe-f45fa7a580b2","class":"residential","connector_id":"db27afe5-6fd0-4097-84ca-be11b65f2e5f","at":1.0,"nodeid":"1861422","linksequenceId":862190,"position":0.43737819,"distance_to_segment":1.452264633585441,"distance_class":"1-2","id":"db27afe5-6fd0-4097-84ca-be11b65f2e5f","Area_connector":"Narvik","Validation":true},"geometry":{"type":"Point","coordinates":[17.601434,68.368098]}},
{"type":"Feature","properties":{"Area":"Narvik","Unnamed: 0":1717,"segment_id":"705789a4-e392-4715-897d-34971a2eb800","class":"residential","connector_id":"abe71a70-c4da-4222-8fcd-0a6be479568b","at":0.0,"nodeid":"919349","linksequenceId":854940,"position":0.27059741,"distance_to_segment":3.35953350253026,"distance_class":"2-5","id":"abe71a70-c4da-4222-8fcd-0a6be479568b","Area_connector":"Narvik","Validation":true},"geometry":{"type":"Point","coordinates":[17.4109903,68.4457943]}},
{"type":"Feature","properties":{"Area":"Narvik","Unnamed: 0":3074,"segment_id":"da0260d1-8656-4917-b3fd-3595380dda81","class":"residential","connector_id":"4ccefd4e-3f00-4a22-8b73-f2bbe25050dc","at":1.0,"nodeid":"919623","linksequenceId":854842,"position":1.0,"distance_to_segment":2.6084405304085632,"distance_class":"2-5","id":"4ccefd4e-3f00-4a22-8b73-f2bbe25050dc","Area_connector":"Narvik","Validation":true},"geometry":{"type":"Point","coordinates":[17.4326845,68.4447307]}},
{"type":"Feature","properties":{"Area":"Narvik","Unnamed: 0":2650,"segment_id":"f88b6097-a637-4c02-aab5-add6009e7908","class":"trunk","connector_id":"98ea8c3b-bea3-47be-93e7-d3bacc8e47fc","at":0.0,"nodeid":"3436038","linksequenceId":885178,"position":0.38991847,"distance_to_segment":4.4467882687538882,"distance_class":"2-5","id":"98ea8c3b-bea3-47be-93e7-d3bacc8e47fc","Area_connector":"Narvik","Validation":true},"geometry":{"type":"Point","coordinates":[17.427476,68.4112396]}},
{"type":"Feature","properties":{"Area":"Narvik","Unnamed: 0":1352,"segment_id":"867666c1-49c3-492f-aec2-9e72337d645a","class":"residential","connector_id":"ae259195-46d2-46ab-88f9-b97e1e737413","at":1.0,"nodeid":"919266","linksequenceId":854891,"position":1.0,"distance_to_segment":2.4217272800937582,"distance_class":"2-5","id":"ae259195-46d2-46ab-88f9-b97e1e737413","Area_connector":"Narvik","Validation":true},"geometry":{"type":"Point","coordinates":[17.3943226,68.4142979]}},
{"type":"Feature","properties":{"Area":"Narvik","Unnamed: 0":1755,"segment_id":"38b95ddd-c5d5-4c03-b17d-f792384ba54d","class":"trunk","connector_id":"5143f435-df28-41c8-8d43-be64861fa278","at":0.0,"nodeid":"1203663","linksequenceId":1203653,"position":1.0,"distance_to_segment":4.8744484066157607,"distance_class":"2-5","id":"5143f435-df28-41c8-8d43-be64861fa278","Area_connector":"Narvik","Validation":true},"geometry":{"type":"Point","coordinates":[17.4146182,68.4061058]}},
{"type":"Feature","properties":{"Area":"Narvik","Unnamed: 0":1053,"segment_id":"8fec6ecb-650f-4034-837a-0ba45e3d9baf","class":"residential","connector_id":"ca07cfbf-7868-4d5a-a3ab-f860a6f3b2d7","at":1.0,"nodeid":"919883","linksequenceId":855049,"position":0.0,"distance_to_segment":4.7550383883269358,"distance_class":"2-5","id":"ca07cfbf-7868-4d5a-a3ab-f860a6f3b2d7","Area_connector":"Narvik","Validation":true},"geometry":{"type":"Point","coordinates":[17.4599374,68.4458056]}},
{"type":"Feature","properties":{"Area":"Narvik","Unnamed: 0":281,"segment_id":"5b2794c4-e475-4e0d-b2a9-b2e23b9b9d16","class":"tertiary","connector_id":"1c910da3-25b9-400c-b5c7-7e816ea04bea","at":0.0,"nodeid":"919761","linksequenceId":855051,"position":1.0,"distance_to_segment":2.564709593395385,"distance_class":"2-5","id":"1c910da3-25b9-400c-b5c7-7e816ea04bea","Area_connector":"Narvik","Validation":false},"geometry":{"type":"Point","coordinates":[17.440941,68.438562]}},
{"type":"Feature","properties":{"Area":"Narvik","Unnamed: 0":2608,"segment_id":"75088c17-15a4-4f9c-9f79-1ac632ee17c2","class":"trunk","connector_id":"afb20812-f81e-4cee-ace3-0fed7f81b36c","at":0.0,"nodeid":"3436054","linksequenceId":3436067,"position":1.0,"distance_to_segment":4.1870798729811343,"distance_class":"2-5","id":"afb20812-f81e-4cee-ace3-0fed7f81b36c","Area_connector":"Narvik","Validation":true},"geometry":{"type":"Point","coordinates":[17.426881,68.4098536]}},
{"type":"Feature","properties":{"Area":"Narvik","Unnamed: 0":2063,"segment_id":"82a71a1d-0c71-4ce8-b6dc-ebbcfd45a61b","class":"tertiary","connector_id":"fd173a34-6e5d-4fdd-9b65-975c356375ac","at":0.0,"nodeid":"2517247","linksequenceId":2517261,"position":1.0,"distance_to_segment":4.6638866359504849,"distance_class":"2-5","id":"fd173a34-6e5d-4fdd-9b65-975c356375ac","Area_connector":"Narvik","Validation":true},"geometry":{"type":"Point","coordinates":[17.4197793,68.4371832]}},
{"type":"Feature","properties":{"Area":"Narvik","Unnamed: 0":2371,"segment_id":"de1c86a9-3ebc-4a70-a908-ed58b48f774d","class":"residential","connector_id":"03cc9364-9a14-486f-aa9b-c599bc3229e4","at":0.061311307,"nodeid":"3986443","linksequenceId":854914,"position":0.96787464,"distance_to_segment":4.0977156138934694,"distance_class":"2-5","id":"03cc9364-9a14-486f-aa9b-c599bc3229e4","Area_connector":"Narvik","Validation":true},"geometry":{"type":"Point","coordinates":[17.4280599,68.4414367]}},
{"type":"Feature","properties":{"Area":"Narvik","Unnamed: 0":764,"segment_id":"37e33e66-b912-40fd-9b12-e22fbf217f17","class":"secondary","connector_id":"f2e9ce8b-43c5-409c-a0f3-947944350d76","at":0.205578112,"nodeid":"1861418","linksequenceId":886113,"position":0.10802379,"distance_to_segment":2.1481587833607652,"distance_class":"2-5","id":"f2e9ce8b-43c5-409c-a0f3-947944350d76","Area_connector":"Narvik","Validation":true},"geometry":{"type":"Point","coordinates":[17.4472714,68.4099182]}},
{"type":"Feature","properties":{"Area":"Narvik","Unnamed: 0":1149,"segment_id":"6204500e-6552-4d15-981b-cc8de006aeda","class":"trunk","connector_id":"f549fb7c-699a-4196-824b-4674bc225fd7","at":0.0,"nodeid":null,"linksequenceId":2486029,"position":0.095400856303371626,"distance_to_segment":2.15299574743177,"distance_class":"2-5","id":"f549fb7c-699a-4196-824b-4674bc225fd7","Area_connector":"Narvik","Validation":true},"geometry":{"type":"Point","coordinates":[17.4841484,68.4720196]}},
{"type":"Feature","properties":{"Area":"Narvik","Unnamed: 0":2550,"segment_id":"e0bcdd96-68dc-4387-b0f0-e3c450b216f1","class":"residential","connector_id":"cc7d1711-a2ca-4dcf-a0bc-c264e0104286","at":1.0,"nodeid":"919511","linksequenceId":854882,"position":0.4795306,"distance_to_segment":6.6516687729103436,"distance_class":"5-10","id":"cc7d1711-a2ca-4dcf-a0bc-c264e0104286","Area_connector":"Narvik","Validation":true},"geometry":{"type":"Point","coordinates":[17.4260733,68.4437204]}},
{"type":"Feature","properties":{"Area":"Narvik","Unnamed: 0":3235,"segment_id":"af79141b-f17d-47b1-aaf8-b84a2bbfdd65","class":"residential","connector_id":"cddb617c-ed38-4255-ae62-3cf8a6d39ab5","at":0.0,"nodeid":"2232577","linksequenceId":2232573,"position":0.0,"distance_to_segment":5.3008225612932094,"distance_class":"5-10","id":"cddb617c-ed38-4255-ae62-3cf8a6d39ab5","Area_connector":"Narvik","Validation":false},"geometry":{"type":"Point","coordinates":[17.3567299,68.4239819]}},
{"type":"Feature","properties":{"Area":"Narvik","Unnamed: 0":604,"segment_id":"749a74b6-9fbb-45bb-875e-86a0cb4e86b8","class":"tertiary","connector_id":"9349d57f-28bd-4581-943e-f8eb2896c452","at":0.0,"nodeid":"2517002","linksequenceId":855012,"position":0.04954427,"distance_to_segment":6.1845095236501102,"distance_class":"5-10","id":"9349d57f-28bd-4581-943e-f8eb2896c452","Area_connector":"Narvik","Validation":true},"geometry":{"type":"Point","coordinates":[17.4422857,68.4414226]}},
{"type":"Feature","properties":{"Area":"Narvik","Unnamed: 0":3541,"segment_id":"ea737e0f-eab9-4394-be84-8ba758dfbcc6","class":"residential","connector_id":"c43cf94a-15b6-4fe7-8cea-7bfb91fc3014","at":0.0,"nodeid":"919007","linksequenceId":862559,"position":0.0,"distance_to_segment":6.3451211944756558,"distance_class":"5-10","id":"c43cf94a-15b6-4fe7-8cea-7bfb91fc3014","Area_connector":"Narvik","Validation":true},"geometry":{"type":"Point","coordinates":[17.3170381,68.4113881]}},
{"type":"Feature","properties":{"Area":"Narvik","Unnamed: 0":1299,"segment_id":"aee0b673-e670-416b-93a8-9981041814a0","class":"residential","connector_id":"8d1a9e1a-e9b1-4e58-b950-2e4098042d7a","at":0.0,"nodeid":"2847898","linksequenceId":886161,"position":0.39632336,"distance_to_segment":5.2931307738129387,"distance_class":"5-10","id":"8d1a9e1a-e9b1-4e58-b950-2e4098042d7a","Area_connector":"Narvik","Validation":false},"geometry":{"type":"Point","coordinates":[17.3883163,68.4194677]}},
{"type":"Feature","properties":{"Area":"Narvik","Unnamed: 0":4127,"segment_id":"41214f36-e210-4e5e-854a-32f4cd45f6cc","class":"residential","connector_id":"72749ca0-f1e1-4d35-8b68-c5958f6b86f2","at":0.0,"nodeid":"2063637","linksequenceId":855109,"position":0.06000995,"distance_to_segment":6.3781577434181562,"distance_class":"5-10","id":"72749ca0-f1e1-4d35-8b68-c5958f6b86f2","Area_connector":"Narvik","Validation":true},"geometry":{"type":"Point","coordinates":[17.5631128,68.5487856]}},
{"type":"Feature","properties":{"Area":"Narvik","Unnamed: 0":808,"segment_id":"c607f978-08fb-4bac-af7b-307b1435d7b4","class":"residential","connector_id":"6e194d48-f827-4ec1-904a-46dcff9186c1","at":0.0,"nodeid":"2513866","linksequenceId":854926,"position":0.69048071,"distance_to_segment":5.0315445059179478,"distance_class":"5-10","id":"6e194d48-f827-4ec1-904a-46dcff9186c1","Area_connector":"Narvik","Validation":true},"geometry":{"type":"Point","coordinates":[17.4495636,68.4076509]}},
{"type":"Feature","properties":{"Area":"Narvik","Unnamed: 0":1726,"segment_id":"8fb96702-f442-497a-93f4-ac10b978eae0","class":"trunk","connector_id":"3a338a62-d048-4d55-bea1-779a2440975b","at":0.0,"nodeid":"2232553","linksequenceId":2232552,"position":1.0,"distance_to_segment":6.521194450057366,"distance_class":"5-10","id":"3a338a62-d048-4d55-bea1-779a2440975b","Area_connector":"Narvik","Validation":true},"geometry":{"type":"Point","coordinates":[17.4116335,68.4085436]}},
{"type":"Feature","properties":{"Area":"Narvik","Unnamed: 0":955,"segment_id":"298032b2-d199-41d5-8364-e31d7354692f","class":"tertiary","connector_id":"deb142a6-b249-459d-8663-d86f6db64f32","at":0.0,"nodeid":"2485971","linksequenceId":2486018,"position":1.0,"distance_to_segment":7.4402219359607189,"distance_class":"5-10","id":"deb142a6-b249-459d-8663-d86f6db64f32","Area_connector":"Narvik","Validation":true},"geometry":{"type":"Point","coordinates":[17.4579,68.4476735]}},
{"type":"Feature","properties":{"Area":"Narvik","Unnamed: 0":196,"segment_id":"407f4645-381c-4521-8dad-73f78e6f6f35","class":"tertiary","connector_id":"51db00d0-dbb3-47e9-a87c-c3ace656a943","at":0.0,"nodeid":"919685","linksequenceId":3123997,"position":0.0,"distance_to_segment":5.2307724207337509,"distance_class":"5-10","id":"51db00d0-dbb3-47e9-a87c-c3ace656a943","Area_connector":"Narvik","Validation":false},"geometry":{"type":"Point","coordinates":[17.4366893,68.4424646]}},
{"type":"Feature","properties":{"Area":"Narvik","Unnamed: 0":2854,"segment_id":"3b5578fc-9c8e-4203-80ee-db4fcb3a15f2","class":"residential","connector_id":"11436205-277a-4525-9e6d-ddccc742cebb","at":0.0,"nodeid":"919595","linksequenceId":855038,"position":0.0,"distance_to_segment":7.2688384898141543,"distance_class":"5-10","id":"11436205-277a-4525-9e6d-ddccc742cebb","Area_connector":"Narvik","Validation":true},"geometry":{"type":"Point","coordinates":[17.4301676,68.4339847]}},
{"type":"Feature","properties":{"Area":"Narvik","Unnamed: 0":3231,"segment_id":"a94332e9-879c-4706-949d-03889adc6ffa","class":"residential","connector_id":"f636244f-3683-42b6-8adf-81360ba347eb","at":0.0,"nodeid":"1548434","linksequenceId":854942,"position":1.0,"distance_to_segment":8.0388181801375769,"distance_class":"5-10","id":"f636244f-3683-42b6-8adf-81360ba347eb","Area_connector":"Narvik","Validation":true},"geometry":{"type":"Point","coordinates":[17.3576151,68.4209641]}},
{"type":"Feature","properties":{"Area":"Hamar","Unnamed: 0":12670,"segment_id":"834a37b0-4b07-45ed-bf8a-a34bdbd8c929","class":"secondary","connector_id":"ebb04ed4-712b-40af-9153-6d4239b861d9","at":0.0,"nodeid":"722360","linksequenceId":705298,"position":0.71737886,"distance_to_segment":0.22644056105791169,"distance_class":"0-1","id":"ebb04ed4-712b-40af-9153-6d4239b861d9","Area_connector":"Hamar","Validation":true},"geometry":{"type":"Point","coordinates":[11.152556,60.786243]}},
{"type":"Feature","properties":{"Area":"Hamar","Unnamed: 0":9026,"segment_id":"d0672f98-fc44-4415-bc1d-e66b5a41ea47","class":"residential","connector_id":"f6daf0ac-38c6-4512-9a0c-3a8ccbdc3c69","at":1.0,"nodeid":"3244924","linksequenceId":2284908,"position":0.94602952,"distance_to_segment":0.31517297069864092,"distance_class":"0-1","id":"f6daf0ac-38c6-4512-9a0c-3a8ccbdc3c69","Area_connector":"Hamar","Validation":true},"geometry":{"type":"Point","coordinates":[11.0923149,60.7678182]}},
{"type":"Feature","properties":{"Area":"Moss","Unnamed: 0":7653,"segment_id":"2392439c-e159-4003-88c4-b5b0d82e03b4","class":"residential","connector_id":"fcd189f4-3159-4f3b-a447-baa4865f9e97","at":0.0,"nodeid":"973235","linksequenceId":943135,"position":0.20289619,"distance_to_segment":0.96756701462045558,"distance_class":"0-1","id":"fcd189f4-3159-4f3b-a447-baa4865f9e97","Area_connector":"Moss","Validation":true},"geometry":{"type":"Point","coordinates":[10.615034,59.4439866]}},
{"type":"Feature","properties":{"Area":"Gudbrandsdalen","Unnamed: 0":5409,"segment_id":"5966bd48-91c8-436d-8412-e0fc5dc06c32","class":"residential","connector_id":"4a18adbe-ace2-4875-852a-7a2b90140bb4","at":1.0,"nodeid":"1078538","linksequenceId":1003059,"position":0.75365427,"distance_to_segment":0.39633005685830658,"distance_class":"0-1","id":"4a18adbe-ace2-4875-852a-7a2b90140bb4","Area_connector":"Gudbrandsdalen","Validation":true},"geometry":{"type":"Point","coordinates":[9.6868577,61.6628047]}},
{"type":"Feature","properties":{"Area":"Hamar","Unnamed: 0":12093,"segment_id":"5ca61add-84d8-4107-8715-20feac086ed9","class":"residential","connector_id":"743b0269-825b-410f-ab43-1809f614a5cb","at":0.0,"nodeid":"1823882","linksequenceId":1823878,"position":0.0,"distance_to_segment":1.942933207525682,"distance_class":"1-2","id":"743b0269-825b-410f-ab43-1809f614a5cb","Area_connector":"Hamar","Validation":true},"geometry":{"type":"Point","coordinates":[11.1289118,60.7733947]}},
{"type":"Feature","properties":{"Area":"Hamar","Unnamed: 0":14050,"segment_id":"6e1aa9ea-b133-4678-bc5c-b93853229135","class":"primary","connector_id":"00514eb9-3c60-46be-a2a1-de03069e9fd6","at":0.0,"nodeid":"723268","linksequenceId":704750,"position":0.24779892,"distance_to_segment":1.394286478260129,"distance_class":"1-2","id":"00514eb9-3c60-46be-a2a1-de03069e9fd6","Area_connector":"Hamar","Validation":true},"geometry":{"type":"Point","coordinates":[11.1938998,60.7201773]}},
{"type":"Feature","properties":{"Area":"Moss","Unnamed: 0":15014,"segment_id":"affaea5a-641d-475e-a4a5-871a6f3df61e","class":"residential","connector_id":"0874ed77-d1c4-46c7-979c-4d0c85a33610","at":0.0,"nodeid":"460765","linksequenceId":403725,"position":0.0,"distance_to_segment":1.582040101343912,"distance_class":"1-2","id":"0874ed77-d1c4-46c7-979c-4d0c85a33610","Area_connector":"Moss","Validation":true},"geometry":{"type":"Point","coordinates":[10.7491605,59.6021623]}},
{"type":"Feature","properties":{"Area":"Gudbrandsdalen","Unnamed: 0":6424,"segment_id":"ab1c105d-ad80-4894-b756-99267111ac97","class":"secondary","connector_id":"e09ccb40-9c07-40cd-bed6-4860435ac1cd","at":1.0,"nodeid":"3100338","linksequenceId":3100238,"position":0.64704006,"distance_to_segment":1.3801749051507,"distance_class":"1-2","id":"e09ccb40-9c07-40cd-bed6-4860435ac1cd","Area_connector":"Gudbrandsdalen","Validation":true},"geometry":{"type":"Point","coordinates":[9.742726,61.5987175]}},
{"type":"Feature","properties":{"Area":"Hamar","Unnamed: 0":13048,"segment_id":"9a497a0e-9d72-4eca-8c39-8dded9e36aba","class":"residential","connector_id":"5b175e91-0eab-4004-9d4e-6d360e5ee93d","at":1.0,"nodeid":"722782","linksequenceId":650202,"position":1.0,"distance_to_segment":4.402391459993269,"distance_class":"2-5","id":"5b175e91-0eab-4004-9d4e-6d360e5ee93d","Area_connector":"Hamar","Validation":true},"geometry":{"type":"Point","coordinates":[11.1670728,60.7981218]}},
{"type":"Feature","properties":{"Area":"Hamar","Unnamed: 0":5425,"segment_id":"a66d7dfe-d953-47d3-9d31-3d654de06134","class":"primary","connector_id":"8261cdc6-416f-4e1b-b835-51cf5d3c4e3e","at":1.0,"nodeid":"3028418","linksequenceId":3028367,"position":0.22641071,"distance_to_segment":2.1416999988743459,"distance_class":"2-5","id":"8261cdc6-416f-4e1b-b835-51cf5d3c4e3e","Area_connector":"Hamar","Validation":true},"geometry":{"type":"Point","coordinates":[11.0784144,60.8030057]}},
{"type":"Feature","properties":{"Area":"Moss","Unnamed: 0":922,"segment_id":"329f7136-8dec-4b98-b257-6728b4f18fd7","class":"secondary","connector_id":"e7538fbc-b815-4459-9d36-51bd3a584bbf","at":1.0,"nodeid":"1681628","linksequenceId":443733,"position":0.67427556,"distance_to_segment":2.875598702253273,"distance_class":"2-5","id":"e7538fbc-b815-4459-9d36-51bd3a584bbf","Area_connector":"Moss","Validation":true},"geometry":{"type":"Point","coordinates":[10.6858952,59.5051544]}},
{"type":"Feature","properties":{"Area":"Gudbrandsdalen","Unnamed: 0":36,"segment_id":"f5b0a4cb-f23f-4f7b-837d-16b6794d8b53","class":"primary","connector_id":"5ca00eb9-37b7-442b-9e76-1b4e087b3331","at":0.677319475,"nodeid":"1078129","linksequenceId":1060198,"position":0.77792745,"distance_to_segment":2.6369302267016792,"distance_class":"2-5","id":"5ca00eb9-37b7-442b-9e76-1b4e087b3331","Area_connector":"Gudbrandsdalen","Validation":true},"geometry":{"type":"Point","coordinates":[9.6666898,61.5733477]}},
{"type":"Feature","properties":{"Area":"Hamar","Unnamed: 0":3861,"segment_id":"1a989fde-138b-49fb-a4b6-b9b05265cb46","class":"residential","connector_id":"0325497e-fa5a-4e7c-a2e6-c138cad4835b","at":1.0,"nodeid":"3994094","linksequenceId":650408,"position":0.98228088,"distance_to_segment":2.096684847068556,"distance_class":"2-5","id":"0325497e-fa5a-4e7c-a2e6-c138cad4835b","Area_connector":"Hamar","Validation":true},"geometry":{"type":"Point","coordinates":[11.0581943,60.8049996]}},
{"type":"Feature","properties":{"Area":"Gudbrandsdalen","Unnamed: 0":6558,"segment_id":"46cdc6c6-78b1-4eee-b393-9f333f4153f1","class":"secondary","connector_id":"6cbe0b4b-9484-4e4a-adda-2e729eb82f18","at":0.160676711,"nodeid":"3536147","linksequenceId":1060509,"position":0.15408057,"distance_to_segment":2.6772274948367301,"distance_class":"2-5","id":"6cbe0b4b-9484-4e4a-adda-2e729eb82f18","Area_connector":"Gudbrandsdalen","Validation":true},"geometry":{"type":"Point","coordinates":[9.7481485,61.5950763]}},
{"type":"Feature","properties":{"Area":"Hamar","Unnamed: 0":9141,"segment_id":"89f8e111-043e-46b4-86e2-b46c15da5cb5","class":"residential","connector_id":"d34ccf20-3bed-404a-a5ad-d722a190938b","at":0.0,"nodeid":"2257312","linksequenceId":1206250,"position":0.93809669,"distance_to_segment":5.5653665882395504,"distance_class":"5-10","id":"d34ccf20-3bed-404a-a5ad-d722a190938b","Area_connector":"Hamar","Validation":true},"geometry":{"type":"Point","coordinates":[11.1067433,60.7727078]}},
{"type":"Feature","properties":{"Area":"Hamar","Unnamed: 0":12685,"segment_id":"deca0226-b644-4adf-a111-59fc10b644c6","class":"secondary","connector_id":"5631e661-ac2d-4883-ba97-9212fc7fce3a","at":0.0,"nodeid":"722378","linksequenceId":705298,"position":0.64688174,"distance_to_segment":9.2904562894756975,"distance_class":"5-10","id":"5631e661-ac2d-4883-ba97-9212fc7fce3a","Area_connector":"Hamar","Validation":true},"geometry":{"type":"Point","coordinates":[11.153298,60.7828122]}},
{"type":"Feature","properties":{"Area":"Moss","Unnamed: 0":1978,"segment_id":"4c230247-784c-487f-94c1-c2844d281b07","class":"residential","connector_id":"8af12603-d9c0-4702-8355-75db58cabe29","at":0.0,"nodeid":null,"linksequenceId":947223,"position":0.13013929559827711,"distance_to_segment":5.1456581361166451,"distance_class":"5-10","id":"8af12603-d9c0-4702-8355-75db58cabe29","Area_connector":"Moss","Validation":false},"geometry":{"type":"Point","coordinates":[10.6834864,59.4196368]}},
{"type":"Feature","properties":{"Area":"Gudbrandsdalen","Unnamed: 0":2029,"segment_id":"7f94dc87-33fc-43d2-9ca5-6d22ac7bd662","class":"residential","connector_id":"c9c2899d-e00b-4482-bfbf-5b9db6521509","at":1.0,"nodeid":"1608638","linksequenceId":1022766,"position":1.0,"distance_to_segment":9.6217435742844319,"distance_class":"5-10","id":"c9c2899d-e00b-4482-bfbf-5b9db6521509","Area_connector":"Gudbrandsdalen","Validation":true},"geometry":{"type":"Point","coordinates":[9.9478524,61.5517328]}},
{"type":"Feature","properties":{"Area":"Hamar","Unnamed: 0":7738,"segment_id":"c33e9aac-c935-4d54-890b-0835b59733aa","class":"residential","connector_id":"4ba72235-af2b-4069-9996-37f85b5d788a","at":0.0,"nodeid":"1830184","linksequenceId":1830037,"position":1.0,"distance_to_segment":7.6954325912620067,"distance_class":"5-10","id":"4ba72235-af2b-4069-9996-37f85b5d788a","Area_connector":"Hamar","Validation":true},"geometry":{"type":"Point","coordinates":[11.0963968,60.7725298]}},
{"type":"Feature","properties":{"Area":"Gudbrandsdalen","Unnamed: 0":6898,"segment_id":"457ed3f9-d813-4abc-84f6-f5c044e7da14","class":"residential","connector_id":"a0b30ce4-3093-40d9-b06a-361e5913a3fa","at":0.0,"nodeid":"1079896","linksequenceId":1019421,"position":0.0,"distance_to_segment":5.5843274809956913,"distance_class":"5-10","id":"a0b30ce4-3093-40d9-b06a-361e5913a3fa","Area_connector":"Gudbrandsdalen","Validation":true},"geometry":{"type":"Point","coordinates":[9.7672145,61.595583]}}
]
}
