{"type":"FeatureCollection","features":[{"type":"Feature","properties":{},"geometry":{"coordinates":[[[10.341819373126754,61.370929097020905],[10.29923736541329,61.44486237095822],[10.247326628475975,61.53892980067022],[10.143044791526393,61.62396966075471],[9.971087364158478,61.67044859740014],[9.926712922071374,61.612350320346536],[9.810668282572323,61.60892000950659],[9.79067222477812,61.63705984238959],[9.738993762643133,61.69047466943229],[9.59685479388719,61.68467115558093],[9.620700105125707,61.64079786742798],[9.652078642917814,61.56365445080479],[9.95938651412672,61.512633143205846],[10.07343749924894,61.46933427111844],[10.181354207884851,61.34619857068108],[10.341819373126754,61.370929097020905]]],"type":"Polygon"}}]}